{"type":"FeatureCollection","features":[{"type":"Feature","properties":{"id":"ile-perrot","name":"Île Perrot","type":"island","members":["lile-perrot","notre-dame-de-lile-perrot","pincourt","terrasse-vaudreuil"]},"geometry":{"type":"MultiPolygon","coordinates":[[[[-73.9718142,45.3629033],[-73.9718717,45.3628063],[-73.9720413,45.3627336],[-73.9721074,45.362776],[-73.972116,45.3626973],[-73.9722339,45.3626528],[-73.97214393228326,45.362867243598785],[-73.9719321,45.3629457],[-73.9718142,45.3629033]]],[[[-73.99723621341565,45.368778396145125],[-73.9968854,45.3678038],[-73.9972566,45.3676073],[-73.9976067,45.3678245],[-73.9978415,45.3685626],[-73.9977616,45.3687039],[-73.99723621341565,45.368778396145125]]],[[[-73.9723374,45.3552775],[-73.9729751,45.3553083],[-73.9748619,45.3557707],[-73.976009,45.3557904],[-73.976526,45.3555442],[-73.9768215,45.3555185],[-73.9787466,45.3545857],[-73.9802754,45.3543556],[-73.9809049,45.3541839],[-73.9810474,45.3541253],[-73.9810332,45.3540682],[-73.9822719,45.3538401],[-73.9824864,45.3539541],[-73.9825331,45.3543369],[-73.982701,45.3544418],[-73.9828782,45.354936],[-73.9828708,45.3551366],[-73.982964,45.3552048],[-73.9828558,45.355227],[-73.9829323,45.3552624],[-73.9828017,45.3559926],[-73.9826674,45.3562456],[-73.9828129,45.3564554],[-73.9826432,45.3565249],[-73.9827215,45.3566389],[-73.982936,45.3565616],[-73.9836711,45.3571973],[-73.9835652,45.3573917],[-73.9836309,45.357514],[-73.9843379,45.3579373],[-73.9852429,45.3583475],[-73.9877606,45.3588447],[-73.9878027,45.3589187],[-73.9878822,45.3588471],[-73.9881793,45.3589004],[-73.9882881,45.3590005],[-73.9902552,45.3593962],[-73.9908247,45.3594629],[-73.9917364,45.3594001],[-73.9923143,45.3595552],[-73.9927675,45.3598231],[-73.9930262,45.360187],[-73.9931575,45.3610431],[-73.9932454,45.36118],[-73.9936233,45.3611566],[-73.9942362,45.3614703],[-73.9943333,45.3613862],[-73.9943995,45.3617919],[-73.9946675,45.362527],[-73.994785,45.3625048],[-73.9949069,45.3628237],[-73.9948121,45.3628412],[-73.9948685,45.3629713],[-73.9949566,45.3629554],[-73.9950334,45.3631681],[-73.994765,45.3637881],[-73.994818,45.3640668],[-73.995023,45.364477],[-73.9951981,45.3646359],[-73.9952074,45.3647988],[-73.995492,45.3651293],[-73.9956013,45.3655135],[-73.9955166,45.3656308],[-73.9955371,45.3657904],[-73.9956255,45.3659248],[-73.9957592,45.3659524],[-73.9960479,45.366977],[-73.9961126,45.3669735],[-73.9964113,45.3674561],[-73.9967631,45.3677551],[-73.9968269,45.3679374],[-73.9967697,45.368205],[-73.9970217,45.3690459],[-73.9969256,45.3691226],[-73.9967675,45.3691097],[-73.9964444,45.3689717],[-73.9963313,45.3691621],[-73.9959942,45.3692781],[-73.995874,45.3695314],[-73.9954238,45.3696043],[-73.9954049,45.3698096],[-73.9959093,45.370116],[-73.9962739,45.3701912],[-73.9968127,45.3701346],[-73.9969652,45.3701823],[-73.9970536,45.3703406],[-73.9967484,45.3704888],[-73.996444,45.370499],[-73.9962771,45.3706741],[-73.9961498,45.3710351],[-73.9958551,45.3711443],[-73.995304,45.3715385],[-73.9951892,45.3714911],[-73.9950218,45.3715808],[-73.994812,45.3719163],[-73.9940758,45.3720933],[-73.9939095,45.3722963],[-73.9939173,45.3725607],[-73.9938454,45.3726496],[-73.994052,45.372867],[-73.9940058,45.3730932],[-73.9938271,45.3732066],[-73.9936127,45.3732241],[-73.9933857,45.373807],[-73.9925921,45.3740496],[-73.9924554,45.3742652],[-73.9926048,45.374403],[-73.9927347,45.3743757],[-73.9926267,45.3744389],[-73.9925838,45.3746676],[-73.9932627,45.3758109],[-73.9937627,45.3762088],[-73.9947555,45.3767126],[-73.9953364,45.376843],[-73.9959045,45.3768332],[-73.9962456,45.3766098],[-73.9964553,45.3760895],[-73.9966428,45.3760471],[-73.9968437,45.3761881],[-73.9968635,45.3763141],[-73.9967475,45.376546],[-73.9968271,45.3767141],[-73.9966607,45.3769738],[-73.9959454,45.3774573],[-73.9957366,45.3773558],[-73.9953377,45.3776582],[-73.9950396,45.3777148],[-73.9948835,45.3779255],[-73.994922,45.3784585],[-73.9950822,45.3786452],[-73.9953629,45.3786816],[-73.9957077,45.3792076],[-73.996132,45.3794253],[-73.9968433,45.3796358],[-73.9974921,45.3796168],[-73.9976304,45.3795039],[-73.9986692,45.379697],[-73.9998588,45.3801482],[-74.0001297,45.3804811],[-74.0003135,45.3805639],[-74.0002052,45.3809739],[-74.0000019,45.381253],[-73.9997296,45.3814136],[-73.9997198,45.3815817],[-73.9998873,45.3816253],[-73.9999663,45.3818344],[-74.0003462,45.3821025],[-74.0003648,45.382333],[-74.0006843,45.3827526],[-74.0006273,45.3828273],[-74.0007213,45.3828046],[-74.000635,45.3831618],[-74.0007907,45.3835635],[-74.000877,45.3835342],[-74.0009248,45.3836663],[-74.0005379,45.3839369],[-73.9999705,45.384112],[-73.9988884,45.3848894],[-73.9986487,45.3847502],[-73.9985689,45.3847951],[-73.9988309,45.3858934],[-73.9988151,45.3866136],[-73.9986384,45.3868895],[-73.9986022,45.3876833],[-73.9981592,45.388433],[-73.9984403,45.3888715],[-73.9989892,45.389147],[-73.9988852,45.3891969],[-73.998612,45.3891229],[-73.9978498,45.3893964],[-73.9976675,45.3896256],[-73.9977531,45.3897173],[-73.997418,45.3901912],[-73.9968905,45.3904099],[-73.9968866,45.3906633],[-73.9967308,45.3907007],[-73.996421,45.391093],[-73.9956587,45.3916328],[-73.9954422,45.3916646],[-73.9955067,45.3917346],[-73.9953511,45.3919032],[-73.994727,45.3921325],[-73.9948272,45.3922101],[-73.9945282,45.3925569],[-73.9940653,45.3925606],[-73.994056,45.3926468],[-73.9938813,45.3927358],[-73.9936131,45.392748],[-73.993305,45.3926505],[-73.9930492,45.3928774],[-73.9925569,45.3930758],[-73.9918836,45.3926012],[-73.9915358,45.3927727],[-73.9913991,45.3927029],[-73.9903444,45.3928745],[-73.9903665,45.3929375],[-73.9899547,45.3930996],[-73.9897398,45.3937595],[-73.989542,45.3940021],[-73.9894893,45.393949],[-73.9894104,45.393999],[-73.9894745,45.3940856],[-73.9892387,45.3941382],[-73.989258,45.3941926],[-73.9891033,45.3942665],[-73.9889642,45.3942181],[-73.9878216,45.3948603],[-73.9873862,45.3952187],[-73.9873308,45.3953685],[-73.9875291,45.3960358],[-73.9874143,45.3960796],[-73.987132,45.3964529],[-73.9869844,45.3964228],[-73.9863058,45.3965695],[-73.9862236,45.3967503],[-73.9863798,45.3969625],[-73.9860684,45.3969699],[-73.9858835,45.3968064],[-73.9852325,45.3967953],[-73.9850688,45.39693],[-73.985332,45.3971343],[-73.9852953,45.3972097],[-73.98477,45.3973752],[-73.9845054,45.3971663],[-73.9842461,45.3971537],[-73.9844285,45.3969496],[-73.9835039,45.3968092],[-73.9829767,45.3970653],[-73.9818319,45.3973841],[-73.9814934,45.3978167],[-73.9804049,45.3983146],[-73.9799108,45.3983515],[-73.9788036,45.3987499],[-73.9782674,45.39883],[-73.97766,45.3988283],[-73.9773488,45.3987196],[-73.9768024,45.398837],[-73.9764598,45.3986825],[-73.9758101,45.3986932],[-73.975513,45.3988498],[-73.975468,45.399022],[-73.9752717,45.3991709],[-73.9747949,45.3993088],[-73.97441,45.3989667],[-73.9744916,45.3988826],[-73.974347,45.3987484],[-73.9744498,45.3985587],[-73.974454,45.398334],[-73.9732676,45.3978256],[-73.9729901,45.3979312],[-73.9729171,45.3980453],[-73.9730623,45.3984684],[-73.9730202,45.3987654],[-73.9731663,45.3988967],[-73.9734539,45.3989549],[-73.9734441,45.3990337],[-73.9727838,45.3991892],[-73.9726891,45.3996149],[-73.9731062,45.400024],[-73.9730087,45.4001146],[-73.9723551,45.3998637],[-73.9718399,45.3999771],[-73.9715549,45.399921],[-73.9713588,45.4000254],[-73.9712223,45.3999501],[-73.9709829,45.4000138],[-73.9702057,45.4000005],[-73.969633,45.3994608],[-73.9693913,45.3993966],[-73.969092,45.3991313],[-73.9692017,45.3987137],[-73.9691673,45.3985984],[-73.968514,45.3983052],[-73.9684037,45.3983942],[-73.9682221,45.3983765],[-73.967782,45.3981305],[-73.9676706,45.397897],[-73.9681012,45.3974889],[-73.9686087,45.3974565],[-73.9686524,45.3973496],[-73.9675827,45.3970004],[-73.9672572,45.3971043],[-73.966563,45.3971584],[-73.965845,45.3970693],[-73.9646673,45.397309],[-73.9644887,45.3972776],[-73.9639161,45.3978045],[-73.9637123,45.3979169],[-73.9629023,45.3980809],[-73.9622428,45.3986163],[-73.9619982,45.3986389],[-73.9618277,45.3985311],[-73.9613035,45.3984453],[-73.9609937,45.3984889],[-73.9598764,45.3989863],[-73.9597534,45.3991151],[-73.9585715,45.3994006],[-73.9580271,45.3998149],[-73.9572883,45.3999335],[-73.9562058,45.4003107],[-73.9558961,45.4003492],[-73.9558365,45.4002113],[-73.9541884,45.4004137],[-73.9538315,45.4004919],[-73.953691,45.4006199],[-73.9534628,45.4005628],[-73.9534589,45.4007006],[-73.9533205,45.4007423],[-73.9515392,45.4002051],[-73.9512795,45.4000396],[-73.95122,45.3999057],[-73.9510975,45.4000178],[-73.9507818,45.3998454],[-73.9508248,45.3998096],[-73.9505102,45.3997294],[-73.9505566,45.3996714],[-73.9503948,45.3996841],[-73.9503326,45.3994892],[-73.9502387,45.3995363],[-73.9494975,45.3992685],[-73.9487201,45.3992876],[-73.9474656,45.3995005],[-73.9472935,45.3994335],[-73.9470667,45.3990949],[-73.9472512,45.3984761],[-73.9475621,45.398274],[-73.9476013,45.3981825],[-73.9475123,45.3980751],[-73.9476088,45.3979488],[-73.9478172,45.3979556],[-73.9478474,45.3978605],[-73.9482073,45.3977978],[-73.9495003,45.3977701],[-73.9494913,45.3976841],[-73.9485143,45.3970281],[-73.9484072,45.3968617],[-73.9493937,45.3964126],[-73.9495504,45.3964655],[-73.9497625,45.3963827],[-73.9503455,45.3958807],[-73.9508304,45.3959705],[-73.951191,45.3956076],[-73.9509265,45.3954803],[-73.9508683,45.3953307],[-73.9503075,45.3952024],[-73.9503127,45.39511],[-73.9511172,45.3950143],[-73.9515562,45.3952049],[-73.9518119,45.3951169],[-73.9526204,45.3944132],[-73.9526567,45.394066],[-73.9527964,45.3940249],[-73.9530542,45.3937688],[-73.9523273,45.3937053],[-73.9522592,45.3934358],[-73.9518256,45.3934527],[-73.9509045,45.3942508],[-73.9508648,45.3945504],[-73.9506909,45.3947706],[-73.9504601,45.3947803],[-73.950017,45.3945984],[-73.9498229,45.3951601],[-73.9495368,45.3953042],[-73.9492503,45.3952563],[-73.948461,45.394873],[-73.948265,45.3945807],[-73.9482608,45.3943449],[-73.947905,45.3942283],[-73.9480611,45.3937857],[-73.9477575,45.3936855],[-73.9475197,45.3938312],[-73.9468219,45.3939469],[-73.945994,45.3942022],[-73.945106,45.3941403],[-73.9446308,45.3942163],[-73.9443983,45.394419],[-73.9436931,45.394505],[-73.9435322,45.3944414],[-73.9435042,45.3942952],[-73.9433623,45.3943471],[-73.9432011,45.3942684],[-73.9431772,45.3940923],[-73.9430865,45.394018],[-73.9424739,45.3938453],[-73.9421198,45.3935254],[-73.9420703,45.3933553],[-73.9422125,45.3932031],[-73.9423428,45.3931389],[-73.9425242,45.3932881],[-73.9426169,45.3932565],[-73.9427573,45.3929284],[-73.9427318,45.3927687],[-73.9422486,45.3929449],[-73.9418803,45.3928891],[-73.9419092,45.3929616],[-73.9413011,45.3931164],[-73.9406594,45.3933818],[-73.9406311,45.3934599],[-73.9403865,45.3934249],[-73.9404224,45.393328],[-73.9402634,45.3932916],[-73.9401875,45.3934679],[-73.9396048,45.393539],[-73.9394957,45.3934843],[-73.9394836,45.39374],[-73.9392029,45.3937423],[-73.939211,45.3936186],[-73.9388169,45.3936434],[-73.9383014,45.3935509],[-73.9375024,45.3938471],[-73.9369244,45.3935289],[-73.9367168,45.3935478],[-73.9367057,45.3937186],[-73.9365026,45.3937092],[-73.9363263,45.3934804],[-73.9359921,45.3934716],[-73.9356724,45.3936073],[-73.9350519,45.3936528],[-73.9334312,45.3935174],[-73.9334004,45.3936481],[-73.9330713,45.3936761],[-73.9328995,45.3935542],[-73.9328742,45.393624],[-73.9322518,45.3937173],[-73.9322408,45.3938029],[-73.9318072,45.3938031],[-73.9317801,45.3936763],[-73.9312646,45.3936763],[-73.9308138,45.3938157],[-73.9305169,45.3940493],[-73.9300126,45.3939709],[-73.9284137,45.3939654],[-73.9281334,45.3938972],[-73.9277562,45.3935932],[-73.9278142,45.3935493],[-73.9281312,45.3937343],[-73.9282115,45.3936449],[-73.9282682,45.3934223],[-73.9278955,45.393239],[-73.9282627,45.3932203],[-73.928692,45.393013],[-73.9287904,45.3931171],[-73.9291511,45.3931789],[-73.9292344,45.3930467],[-73.9301228,45.3926564],[-73.9304916,45.3923575],[-73.9305683,45.3921186],[-73.9312207,45.3921194],[-73.9317597,45.3920124],[-73.9319326,45.3916513],[-73.932145,45.3915639],[-73.9324042,45.391603],[-73.9324365,45.3915258],[-73.9322065,45.3914682],[-73.931685,45.3916431],[-73.9315576,45.3917655],[-73.93125,45.3918684],[-73.9313218,45.392035],[-73.9312617,45.392071],[-73.9309833,45.3920479],[-73.9311851,45.3918283],[-73.930879,45.3917441],[-73.9307627,45.3919651],[-73.9306374,45.3920228],[-73.9303102,45.3919664],[-73.9298583,45.3920718],[-73.9302162,45.3918709],[-73.9301406,45.3917864],[-73.9302226,45.3916325],[-73.9299243,45.391619],[-73.9298596,45.3915732],[-73.929879,45.3914502],[-73.9297709,45.3914172],[-73.9296955,45.3915277],[-73.9296136,45.391504],[-73.9298769,45.3910376],[-73.9290766,45.3907636],[-73.9287496,45.3913175],[-73.9285329,45.3914337],[-73.9289417,45.3905941],[-73.9285812,45.3904381],[-73.927819,45.3902883],[-73.9277275,45.3903003],[-73.9277071,45.3903967],[-73.9276054,45.390381],[-73.9276389,45.390252],[-73.9272693,45.3900146],[-73.9270254,45.389972],[-73.9269878,45.3900563],[-73.92687,45.3900572],[-73.9264683,45.3898867],[-73.9259297,45.389987],[-73.9253368,45.389953],[-73.924934,45.3900533],[-73.9245837,45.3904134],[-73.9245622,45.3905976],[-73.9243689,45.3907168],[-73.9243996,45.3907685],[-73.9242134,45.3908268],[-73.9238933,45.3907771],[-73.9237293,45.3908131],[-73.923682,45.3909819],[-73.9230971,45.391047],[-73.9229845,45.3912286],[-73.9231762,45.3915158],[-73.9231683,45.3917119],[-73.9232544,45.3917597],[-73.9232077,45.391797],[-73.9225637,45.391745],[-73.9223292,45.391517],[-73.9221884,45.3912982],[-73.9222608,45.3906621],[-73.9220653,45.3905742],[-73.9221166,45.390946],[-73.9219192,45.3913617],[-73.9214734,45.3916042],[-73.9214498,45.3917065],[-73.9212201,45.3918693],[-73.9212259,45.3920191],[-73.9209668,45.3923503],[-73.9205321,45.3926203],[-73.9200271,45.3925707],[-73.9198553,45.3926798],[-73.918383,45.392231],[-73.9176776,45.3921211],[-73.9171644,45.3917237],[-73.9172147,45.3916462],[-73.9164491,45.3914325],[-73.9161265,45.3914275],[-73.9154791,45.3911616],[-73.9149184,45.3914397],[-73.914544,45.3914456],[-73.9145332,45.3913948],[-73.9150024,45.3913329],[-73.9153031,45.3911529],[-73.9157301,45.3904694],[-73.9152642,45.3902345],[-73.9153129,45.390115],[-73.9148701,45.3899703],[-73.9148084,45.3898516],[-73.9148996,45.3897096],[-73.9147212,45.3898293],[-73.9145685,45.3897869],[-73.9142341,45.3899511],[-73.9143634,45.3896379],[-73.9141388,45.3896312],[-73.9141297,45.3894508],[-73.9140071,45.3894704],[-73.9140595,45.3896717],[-73.9138318,45.3898524],[-73.9139356,45.3899779],[-73.9136474,45.3902378],[-73.9134736,45.3905289],[-73.9132713,45.3905856],[-73.9134577,45.3907144],[-73.9135876,45.3906425],[-73.9137602,45.3907058],[-73.913175,45.3911608],[-73.9128633,45.3912026],[-73.9128206,45.3909901],[-73.9126628,45.3908794],[-73.9116562,45.3913249],[-73.9116714,45.391428],[-73.9106958,45.3917187],[-73.9107035,45.3918041],[-73.9102757,45.3917328],[-73.9099367,45.3915439],[-73.909762,45.39156],[-73.9093027,45.392006],[-73.9088396,45.3922183],[-73.9087948,45.3922715],[-73.908878,45.3923492],[-73.9089081,45.3926746],[-73.9090107,45.3927022],[-73.9089848,45.3929252],[-73.908821,45.3932064],[-73.9088671,45.3937284],[-73.908991,45.3938676],[-73.9084047,45.3942359],[-73.9073979,45.3940782],[-73.9069862,45.3941085],[-73.9062866,45.3939282],[-73.906005,45.3943956],[-73.9056779,45.3946125],[-73.9056682,45.3946906],[-73.9053427,45.3946609],[-73.9051152,45.394803],[-73.9048715,45.3947331],[-73.904802,45.3949711],[-73.904532,45.3949295],[-73.9040439,45.3951477],[-73.9038937,45.3954965],[-73.9036054,45.3955389],[-73.9034499,45.3953241],[-73.9032868,45.3953313],[-73.903163,45.3953669],[-73.9030488,45.3955375],[-73.9026231,45.3955574],[-73.9023398,45.3957431],[-73.9021544,45.3956535],[-73.9021111,45.3958389],[-73.9020466,45.3958524],[-73.9019483,45.3958476],[-73.9018515,45.3955515],[-73.9008216,45.3955082],[-73.9006442,45.3957437],[-73.9007334,45.3957709],[-73.9007054,45.3958294],[-73.9001093,45.3958196],[-73.9001053,45.3957665],[-73.9005707,45.3956129],[-73.9006722,45.3954495],[-73.9000867,45.3951768],[-73.8999749,45.3952053],[-73.8999452,45.3951202],[-73.9000581,45.395043],[-73.9000298,45.3947974],[-73.8998045,45.3946197],[-73.8990862,45.3944323],[-73.8991176,45.3943741],[-73.8990572,45.3943574],[-73.8988546,45.3943923],[-73.898354,45.3942512],[-73.8983263,45.3943262],[-73.897946,45.3943243],[-73.8979284,45.3944844],[-73.8978102,45.394518],[-73.8976601,45.3944657],[-73.8977401,45.3943188],[-73.897321,45.3942428],[-73.897355,45.3941915],[-73.8971817,45.394092],[-73.8970226,45.3941828],[-73.8969013,45.3941353],[-73.8968118,45.3942261],[-73.8969308,45.3942846],[-73.8968675,45.3943518],[-73.8966945,45.3943378],[-73.8966766,45.3942456],[-73.8968397,45.394092],[-73.8966746,45.3939412],[-73.8967283,45.3939063],[-73.8964379,45.3935739],[-73.8963057,45.3936186],[-73.8961973,45.3934342],[-73.8963106,45.3933951],[-73.8962604,45.3931937],[-73.8960893,45.3931208],[-73.896034,45.3929528],[-73.895559,45.3926018],[-73.8956266,45.3925351],[-73.8953663,45.3922497],[-73.8953433,45.3920865],[-73.8954401,45.3919142],[-73.8956391,45.3918152],[-73.8965314,45.3917421],[-73.8971643,45.3919122],[-73.8971692,45.391804],[-73.8970512,45.3916814],[-73.8972185,45.3914778],[-73.8971317,45.3910598],[-73.8972136,45.3909132],[-73.8970479,45.3907914],[-73.897665,45.3906646],[-73.8978639,45.39074],[-73.8981109,45.3905162],[-73.8983154,45.3905166],[-73.8989717,45.3902707],[-73.8993973,45.3903755],[-73.8995013,45.3906151],[-73.8995863,45.3906318],[-73.8996823,45.3904507],[-73.8995257,45.3902447],[-73.899996,45.3900054],[-73.9000755,45.3901492],[-73.9003503,45.3900849],[-73.9008125,45.3897976],[-73.9011252,45.3891945],[-73.9009443,45.3891283],[-73.9010915,45.3891501],[-73.9010893,45.3890993],[-73.9009251,45.3890555],[-73.9007065,45.3892119],[-73.9008017,45.3891089],[-73.9009242,45.3883084],[-73.9011416,45.3881295],[-73.9011447,45.3880101],[-73.9010826,45.3877459],[-73.9008603,45.3876],[-73.9008705,45.3874241],[-73.9009369,45.3874097],[-73.9008888,45.3871362],[-73.9004877,45.3863292],[-73.8997993,45.3854606],[-73.899855,45.385375],[-73.8997621,45.3851373],[-73.8994574,45.3846142],[-73.8984948,45.383502],[-73.8983925,45.3833042],[-73.8985332,45.3832484],[-73.8983636,45.3829714],[-73.8981685,45.3827276],[-73.8979239,45.3826151],[-73.8978067,45.3823057],[-73.8970968,45.3814609],[-73.8967948,45.3812743],[-73.8967823,45.3811019],[-73.8965627,45.3807536],[-73.8959141,45.3799854],[-73.8955275,45.3798624],[-73.8953265,45.3799627],[-73.8953942,45.3800345],[-73.8953474,45.3800979],[-73.8951035,45.3800059],[-73.8949807,45.3797107],[-73.8950176,45.3795811],[-73.8949242,45.3794776],[-73.8950287,45.3792298],[-73.8946468,45.3787258],[-73.8943374,45.3784329],[-73.8939847,45.3784735],[-73.8936766,45.3782636],[-73.8936915,45.3781589],[-73.8938851,45.3779858],[-73.8938119,45.3778269],[-73.8929769,45.3770849],[-73.8928689,45.3771079],[-73.8922858,45.3766127],[-73.8923943,45.3764112],[-73.8921978,45.3762314],[-73.8918459,45.3762303],[-73.8917524,45.3761214],[-73.8918595,45.3759453],[-73.8916745,45.3757728],[-73.8908546,45.3752149],[-73.8905754,45.3751644],[-73.8902979,45.3748906],[-73.8902598,45.3747308],[-73.8896676,45.3743533],[-73.8888695,45.3736715],[-73.8877965,45.3731521],[-73.887756,45.3730732],[-73.8879972,45.3729438],[-73.8877884,45.3727239],[-73.8870822,45.3722326],[-73.8867746,45.3723359],[-73.8858175,45.371656],[-73.8859887,45.3715297],[-73.8853615,45.3710995],[-73.8850042,45.3709978],[-73.8840572,45.3705241],[-73.8839447,45.3705845],[-73.8835507,45.3704337],[-73.8836525,45.3703701],[-73.8834792,45.370207],[-73.8826827,45.3699523],[-73.8825483,45.369833],[-73.8816085,45.3695923],[-73.8797299,45.3699049],[-73.8795911,45.3698148],[-73.8797549,45.3696672],[-73.8797299,45.3696047],[-73.8793845,45.3694871],[-73.8791709,45.3694971],[-73.8790355,45.3695371],[-73.8789038,45.3697323],[-73.8786118,45.3698574],[-73.8778782,45.3698924],[-73.8777108,45.3699849],[-73.8772978,45.370025],[-73.877312,45.3701175],[-73.8772194,45.3701275],[-73.8772016,45.370045],[-73.8768882,45.37008],[-73.8766318,45.3701926],[-73.8765962,45.3704127],[-73.8756383,45.3708956],[-73.8756027,45.370848],[-73.8747445,45.3711933],[-73.8743207,45.3714935],[-73.8736263,45.3713309],[-73.8721414,45.3714835],[-73.8717283,45.371611],[-73.8712262,45.3721189],[-73.8711016,45.3721564],[-73.8712303,45.372459],[-73.8710597,45.3726842],[-73.8706538,45.3728422],[-73.8702712,45.3728349],[-73.8700049,45.3729748],[-73.8698679,45.3731491],[-73.8700101,45.3732944],[-73.8699816,45.3734052],[-73.8697593,45.3737103],[-73.8694594,45.3739028],[-73.8687201,45.3739228],[-73.8678411,45.3740807],[-73.8669311,45.374444],[-73.8667191,45.3742515],[-73.8662098,45.3744185],[-73.8660469,45.3743622],[-73.8659823,45.3743786],[-73.8660314,45.3745003],[-73.8657988,45.3745965],[-73.8654963,45.3745529],[-73.865018,45.374226],[-73.8644906,45.3742333],[-73.8638883,45.3750705],[-73.8635186,45.3753847],[-73.863105,45.3755699],[-73.8629964,45.3757696],[-73.8626991,45.3757842],[-73.8625311,45.3757115],[-73.8624535,45.3754845],[-73.8619571,45.3755063],[-73.8621278,45.3753956],[-73.8621846,45.3750469],[-73.8620554,45.3749524],[-73.8617115,45.3750015],[-73.8614944,45.3748925],[-73.8615047,45.3746728],[-73.8617503,45.374542],[-73.8616573,45.3744585],[-73.8612514,45.3744748],[-73.8611045,45.3749796],[-73.8603755,45.3750207],[-73.8603876,45.374649],[-73.8606885,45.3744221],[-73.8608836,45.374136],[-73.8606516,45.3738501],[-73.8602173,45.373545],[-73.858736,45.3727387],[-73.8576398,45.3724826],[-73.8568436,45.3725898],[-73.8559181,45.3734179],[-73.8553623,45.3732835],[-73.8549745,45.3730783],[-73.8549719,45.3730238],[-73.8553519,45.3729639],[-73.8553002,45.3726152],[-73.8553778,45.3723482],[-73.8557474,45.3722955],[-73.8559026,45.3719705],[-73.8558121,45.3715182],[-73.855538,45.3712694],[-73.8552899,45.3712186],[-73.8549952,45.3712095],[-73.8545867,45.3713784],[-73.8544264,45.3713675],[-73.854354,45.3710351],[-73.8546048,45.3709716],[-73.8549926,45.3711423],[-73.8553028,45.3711804],[-73.8555303,45.3711532],[-73.8557604,45.371017],[-73.8558328,45.3708681],[-73.8561378,45.3706647],[-73.856461,45.3700998],[-73.8565825,45.3691518],[-73.8558756,45.3676769],[-73.8553773,45.3671376],[-73.8550739,45.3670593],[-73.8544672,45.3670658],[-73.8542195,45.3669049],[-73.8541638,45.3667157],[-73.853975,45.3665895],[-73.8527894,45.3663416],[-73.8520279,45.3658588],[-73.8527419,45.3659191],[-73.8536933,45.3656],[-73.8545569,45.3655282],[-73.8548046,45.3653368],[-73.8546436,45.3650367],[-73.8555135,45.3645321],[-73.8556961,45.3642341],[-73.8565783,45.3642385],[-73.8575505,45.3640554],[-73.8577536,45.3639128],[-73.8580024,45.3639864],[-73.8590469,45.3638415],[-73.86008,45.3632943],[-73.8609128,45.3632876],[-73.8612988,45.3631517],[-73.862165,45.3631655],[-73.8628249,45.362929],[-73.8630238,45.3627802],[-73.8631019,45.3626072],[-73.8634711,45.3627573],[-73.8640877,45.3624959],[-73.8643928,45.3622716],[-73.8649026,45.3622718],[-73.8652175,45.3621372],[-73.8667482,45.3619731],[-73.8669529,45.3617462],[-73.8669383,45.3614706],[-73.8670794,45.3614158],[-73.8680815,45.3616035],[-73.8687156,45.3614709],[-73.8692464,45.3614639],[-73.8697807,45.3615906],[-73.8708888,45.3615875],[-73.8713856,45.3615004],[-73.8713655,45.3613592],[-73.8715846,45.3612489],[-73.8729151,45.361262],[-73.8736231,45.3611371],[-73.8744682,45.3608734],[-73.8748918,45.3606157],[-73.8751459,45.3602817],[-73.8751982,45.3601263],[-73.8751111,45.3593353],[-73.8753561,45.3590876],[-73.8753445,45.3589226],[-73.8759315,45.3588357],[-73.8759268,45.3587732],[-73.8762933,45.3585183],[-73.8767083,45.358389],[-73.8766786,45.3581264],[-73.8763378,45.357295],[-73.876505,45.3573226],[-73.8770506,45.3581672],[-73.8777407,45.3582554],[-73.8783058,45.3579942],[-73.8790102,45.3577963],[-73.8790083,45.3576954],[-73.8791391,45.3575765],[-73.8796708,45.3573449],[-73.8805225,45.3566684],[-73.8814044,45.3564986],[-73.8819387,45.3562688],[-73.8826865,45.3562612],[-73.8830703,45.3563362],[-73.8838256,45.3562146],[-73.8842043,45.3559611],[-73.8845512,45.3553333],[-73.8850754,45.3550765],[-73.8852843,45.3551929],[-73.8865438,45.3551991],[-73.8869026,45.3551177],[-73.8874476,45.3547886],[-73.8876553,45.3546409],[-73.8877427,45.3543145],[-73.8877145,45.3541386],[-73.8873689,45.3537468],[-73.8875344,45.3535952],[-73.8880505,45.3534913],[-73.8880338,45.3532735],[-73.8886594,45.3534933],[-73.8890134,45.3538318],[-73.8891969,45.3539059],[-73.8897549,45.3540436],[-73.8899131,45.3539963],[-73.8915634,45.3541758],[-73.8925876,45.3537912],[-73.8929051,45.353613],[-73.8930431,45.3533728],[-73.8944033,45.3532331],[-73.8964936,45.3526508],[-73.8975034,45.3520812],[-73.8978923,45.351741],[-73.898405,45.3515129],[-73.8989935,45.3510642],[-73.9005601,45.3491738],[-73.9007231,45.3486763],[-73.9005557,45.3486262],[-73.9003885,45.3487233],[-73.9002523,45.3486462],[-73.9004176,45.3484516],[-73.9008365,45.3485867],[-73.9025165,45.3479028],[-73.9030109,45.3473115],[-73.9029654,45.347248],[-73.9030646,45.3469984],[-73.9030117,45.3469281],[-73.9033324,45.3466513],[-73.9039354,45.3465273],[-73.9045614,45.3466897],[-73.9053383,45.3464986],[-73.9052993,45.3461849],[-73.9055338,45.3458856],[-73.9063604,45.3453023],[-73.9073559,45.3455024],[-73.9074015,45.3456439],[-73.9076499,45.3457743],[-73.9078792,45.3461835],[-73.9078454,45.3466387],[-73.9079048,45.3466314],[-73.9084049,45.3476524],[-73.9084797,45.3476694],[-73.9087767,45.3483988],[-73.9091289,45.3488986],[-73.909596,45.3493024],[-73.9099146,45.3498201],[-73.910899,45.3506399],[-73.9116861,45.3509174],[-73.9122222,45.3508356],[-73.9126768,45.3509164],[-73.9130684,45.3507647],[-73.9138865,45.3507929],[-73.9139116,45.3508654],[-73.9136887,45.3509998],[-73.9138947,45.351401],[-73.9141976,45.3516989],[-73.9141493,45.351874],[-73.914617,45.3523033],[-73.9149848,45.352498],[-73.9154014,45.3525274],[-73.9162777,45.3523843],[-73.9168691,45.3524254],[-73.9179836,45.352204],[-73.9181142,45.3519933],[-73.9187112,45.3519456],[-73.9188452,45.3520557],[-73.9185539,45.3521426],[-73.9186185,45.3525033],[-73.9192793,45.3533365],[-73.9193064,45.3534611],[-73.9196873,45.353834],[-73.9197053,45.3541006],[-73.9200009,45.3544625],[-73.9214724,45.3551054],[-73.9219387,45.3552137],[-73.9234209,45.356063],[-73.9246939,45.3564884],[-73.9257146,45.3565425],[-73.9259804,45.356427],[-73.9265797,45.3564943],[-73.9267264,45.3566961],[-73.927459,45.3569536],[-73.9289062,45.3571217],[-73.9296283,45.3570954],[-73.9301141,45.3573126],[-73.9330413,45.3572701],[-73.9346252,45.3570176],[-73.9352494,45.3570577],[-73.9358342,45.3569505],[-73.9365523,45.3566481],[-73.9371611,45.3566036],[-73.9380011,45.3562209],[-73.9391933,45.355912],[-73.93929,45.355812],[-73.939506,45.3557734],[-73.9396588,45.3558419],[-73.9408134,45.3556226],[-73.941031,45.3553688],[-73.9413053,45.3552047],[-73.9418256,45.3550911],[-73.9423666,45.3551151],[-73.9427541,45.3549948],[-73.9431083,45.3547709],[-73.9436367,45.3547438],[-73.9449948,45.3543865],[-73.9464321,45.3541615],[-73.9472923,45.3538332],[-73.9485297,45.3535691],[-73.949274,45.3531544],[-73.9496604,45.3531558],[-73.9503931,45.3529354],[-73.9512158,45.3525796],[-73.9512533,45.352448],[-73.9519509,45.3523576],[-73.9530252,45.35189],[-73.9533746,45.3516372],[-73.954427,45.3512976],[-73.9547863,45.35129],[-73.9554686,45.3508809],[-73.955419,45.350687],[-73.9558894,45.3505356],[-73.9568161,45.3500013],[-73.9569113,45.3497],[-73.9568826,45.3493144],[-73.9569349,45.3491441],[-73.95706,45.3491218],[-73.9572849,45.3492599],[-73.9572358,45.3493879],[-73.9574148,45.3493601],[-73.9577411,45.3497196],[-73.9578947,45.3496974],[-73.9579533,45.3499],[-73.9581593,45.34993],[-73.9583034,45.3500847],[-73.9587406,45.3500436],[-73.9588562,45.3501048],[-73.9588515,45.3500157],[-73.9589148,45.3500146],[-73.9594692,45.3505745],[-73.9597923,45.3507382],[-73.9604758,45.3508238],[-73.9602948,45.3508541],[-73.9602659,45.3509385],[-73.9603831,45.3510276],[-73.9605716,45.3509018],[-73.960852,45.3511634],[-73.9614409,45.3514084],[-73.9616066,45.3515774],[-73.9626233,45.3517569],[-73.9629815,45.3518969],[-73.9629352,45.3519813],[-73.9635458,45.3521789],[-73.964322,45.3521785],[-73.9647254,45.352054],[-73.9649606,45.3517885],[-73.9655331,45.3519147],[-73.9656401,45.3519943],[-73.9656696,45.3522863],[-73.9659614,45.3524006],[-73.9660883,45.352637],[-73.9674851,45.3535295],[-73.9683919,45.353629],[-73.9690838,45.354007],[-73.9699107,45.3542758],[-73.970247,45.3545235],[-73.9709078,45.3546726],[-73.9723374,45.3552775]],[[-73.9577368,45.3847472],[-73.9581379,45.3833341],[-73.9591281,45.3794852],[-73.9577368,45.3847472]],[[-73.9773974,45.3899015],[-73.9758928,45.3904596],[-73.9748086,45.3908618],[-73.9773974,45.3899015]],[[-73.9787193717059,45.35612982647636],[-73.9789866,45.3562439],[-73.9791341,45.3561978],[-73.9787371,45.3559838],[-73.9786111,45.355997],[-73.9787193717059,45.35612982647636]],[[-73.9853844,45.3614],[-73.985224,45.3612828],[-73.9849973,45.3614359],[-73.9851576,45.3615531],[-73.9853844,45.3614]],[[-73.9849403,45.3615541],[-73.9847649,45.3615483],[-73.9847903,45.3616559],[-73.9849247,45.3616471],[-73.9849403,45.3615541]],[[-73.9858393,45.3618104],[-73.9857951,45.3616954],[-73.9855763,45.3617505],[-73.9856113,45.3618405],[-73.9858393,45.3618104]],[[-73.9856065,45.3619672],[-73.9855623,45.3618521],[-73.9853435,45.3619072],[-73.9853785,45.3619973],[-73.9856065,45.3619672]],[[-73.9668332,45.3616815],[-73.9665199,45.3616411],[-73.9664653,45.3617683],[-73.9665889,45.3618875],[-73.9668246,45.3618854],[-73.9668936,45.3617824],[-73.9668332,45.3616815]],[[-73.9680864,45.3627397],[-73.9682847,45.3627659],[-73.9683019,45.3626448],[-73.9680864,45.3626104],[-73.9680864,45.3627397]],[[-73.9722252,45.3625418],[-73.9711675,45.3631173],[-73.9715297,45.3631133],[-73.972369,45.3629073],[-73.9724581,45.3625963],[-73.9722252,45.3625418]],[[-73.9642763,45.3645891],[-73.9645331,45.3647794],[-73.9647401,45.3646607],[-73.9647464,45.3645639],[-73.9642903,45.3644907],[-73.9642763,45.3645891]],[[-73.9040382,45.3530116],[-73.9038498,45.3528803],[-73.9034712,45.3533568],[-73.9035705,45.3534136],[-73.9037707,45.353287],[-73.9040803,45.3533864],[-73.9041593,45.3531984],[-73.9043966,45.3531866],[-73.9045026,45.353047],[-73.9040382,45.3530116]],[[-73.9243153,45.3578131],[-73.9243214,45.3579708],[-73.9244165,45.3578458],[-73.9243153,45.3578131]],[[-73.90534602460242,45.358564777893136],[-73.9055021,45.3587893],[-73.90554,45.3585636],[-73.9056619,45.3584519],[-73.9055298,45.3583268],[-73.9052985,45.3584242],[-73.9045936,45.3584155],[-73.9048373,45.35874],[-73.90519916041828,45.358522603599035],[-73.90534602460242,45.358564777893136]],[[-73.9040987,45.3587756],[-73.9043499,45.3587097],[-73.9045123,45.358485],[-73.9042002,45.3584832],[-73.9040556,45.3586134],[-73.9040987,45.3587756]],[[-73.9032131,45.359063],[-73.9033115,45.358991],[-73.9033717,45.3587286],[-73.9039022,45.3587114],[-73.9038215,45.3585413],[-73.9034838,45.358476],[-73.9030941,45.3585941],[-73.9029574,45.3587632],[-73.9029587,45.3590351],[-73.9032131,45.359063]],[[-73.9271535,45.3610441],[-73.9273102,45.3611975],[-73.9271504,45.3614415],[-73.9270182,45.3619036],[-73.9271596,45.3621822],[-73.9272242,45.3621153],[-73.9272088,45.3618475],[-73.9276237,45.3613141],[-73.9275684,45.3610722],[-73.9277121,45.3609108],[-73.9275315,45.3606921],[-73.9274362,45.3606878],[-73.9271535,45.3610441]],[[-73.9491462,45.3628035],[-73.9492013,45.3629248],[-73.949755,45.3629128],[-73.9494761,45.3628016],[-73.9491462,45.3628035]],[[-73.9174094,45.368963],[-73.918077,45.3689031],[-73.9180174,45.3688115],[-73.9178849,45.3688576],[-73.9177237,45.3687501],[-73.9172584,45.368779],[-73.9170335,45.3691087],[-73.9174094,45.368963]],[[-73.9363789,45.3778148],[-73.9365776,45.3775091],[-73.9365588,45.3773769],[-73.9364186,45.3774342],[-73.9362973,45.3777428],[-73.9363789,45.3778148]],[[-73.9322618,45.3853701],[-73.9325116,45.3852871],[-73.9316873,45.3852987],[-73.9314749,45.3857221],[-73.9319685,45.3858251],[-73.9322618,45.3853701]],[[-73.9044916,45.3868097],[-73.9041788,45.3871409],[-73.9045262,45.3870734],[-73.9049653,45.3866408],[-73.9044916,45.3868097]],[[-73.9029704,45.388127],[-73.9028426,45.3884238],[-73.9033067,45.3879031],[-73.9029704,45.388127]],[[-73.8909026,45.3585164],[-73.8911398,45.3586022],[-73.8916067,45.3581909],[-73.8918934,45.3581481],[-73.8916759,45.3580765],[-73.8916422,45.3579278],[-73.8918842,45.3576774],[-73.8915856,45.3577173],[-73.8909497,45.3582842],[-73.8909026,45.3585164]],[[-73.9023657,45.3603589],[-73.9025839,45.3604266],[-73.9027387,45.3602786],[-73.90263492292927,45.36001688110275],[-73.90283,45.3597741],[-73.9026245,45.3596796],[-73.90253491852329,45.35936382244623],[-73.9027285,45.3590039],[-73.9026245,45.3590306],[-73.9025839,45.3592142],[-73.9023327,45.3592838],[-73.902424,45.3594799],[-73.9023708,45.3595423],[-73.9024266,45.3597865],[-73.9022997,45.3599327],[-73.9024469,45.3602127],[-73.9023657,45.3603589]],[[-73.8974479,45.3632654],[-73.8974789,45.3633326],[-73.897628,45.3633405],[-73.8978222,45.3632713],[-73.8979038,45.3631527],[-73.8976899,45.3630677],[-73.8974479,45.3632654]],[[-73.8723776,45.3636146],[-73.872155,45.3634999],[-73.870255,45.3632292],[-73.8699099,45.3633284],[-73.8699849,45.3634195],[-73.8705488,45.3635353],[-73.8710294,45.3638107],[-73.8713651,45.3637068],[-73.8723016,45.363781],[-73.8724262,45.3637194],[-73.8723776,45.3636146]],[[-73.8649944,45.3645446],[-73.8649267,45.3648537],[-73.8647986,45.3649862],[-73.8649364,45.3650303],[-73.8655068,45.3648299],[-73.8657195,45.364368],[-73.8662053,45.3640335],[-73.866194,45.3638032],[-73.8657461,45.3638246],[-73.8657799,45.3641116],[-73.8649944,45.3645446]],[[-73.8883817,45.3661451],[-73.888865,45.3660621],[-73.8883642,45.3643353],[-73.8878508,45.3644025],[-73.8883817,45.3661451]],[[-73.884436,45.3649148],[-73.8844399,45.3657148],[-73.8849899,45.3656685],[-73.8850402,45.3648767],[-73.884436,45.3649148]],[[-73.8872242,45.3644942],[-73.8877377,45.3662551],[-73.8882598,45.3661756],[-73.8877377,45.3644209],[-73.8872242,45.3644942]],[[-73.8836873,45.3650002],[-73.8836912,45.3658002],[-73.8842412,45.3657539],[-73.8842915,45.3649621],[-73.8836873,45.3650002]],[[-73.8870763,45.3663407],[-73.8876071,45.3662612],[-73.8871024,45.3645126],[-73.8865889,45.3645921],[-73.8870763,45.3663407]],[[-73.8864729,45.3664112],[-73.8869457,45.3663468],[-73.8864671,45.3646287],[-73.8859276,45.3646899],[-73.8864729,45.3664112]],[[-73.8852768,45.3651507],[-73.8852768,45.36604],[-73.885594,45.3660187],[-73.8853706,45.3651352],[-73.8852768,45.3651507]],[[-73.8648155,45.365195],[-73.8645501,45.365126],[-73.863673,45.3654329],[-73.8632958,45.3657214],[-73.8632686,45.3659813],[-73.8636795,45.3661053],[-73.8638438,45.3659711],[-73.8641846,45.3658947],[-73.8642813,45.3658013],[-73.8642958,45.3656468],[-73.8646898,45.3654515],[-73.8648155,45.365195]],[[-73.8616274,45.3660356],[-73.8613543,45.3660407],[-73.8606727,45.3658115],[-73.860385,45.3659287],[-73.8603512,45.366017],[-73.8609289,45.3662632],[-73.8612334,45.366236],[-73.8613857,45.3663464],[-73.8616685,45.3663464],[-73.8617918,45.3662038],[-73.8624734,45.3658421],[-73.8621156,45.3656943],[-73.8616274,45.3660356]],[[-73.8665268,45.3665383],[-73.8664663,45.366163],[-73.8667564,45.3660611],[-73.867044,45.3661375],[-73.8674066,45.3657028],[-73.8672664,45.3655534],[-73.8663516,45.3654686],[-73.8662633,45.3655652],[-73.866296746299,45.365814066263304],[-73.8662005,45.3659932],[-73.8658282,45.3662377],[-73.8657557,45.36654],[-73.8653424,45.3666741],[-73.8653303,45.3669849],[-73.865693,45.3669663],[-73.866215,45.3666385],[-73.8665268,45.3665383]],[[-73.8844404,45.3658626],[-73.8844442,45.3666626],[-73.8849942,45.3666163],[-73.8850445,45.3658245],[-73.8844404,45.3658626]],[[-73.8836776,45.3659497],[-73.8836815,45.3667497],[-73.8842315,45.3667034],[-73.8842818,45.3659116],[-73.8836776,45.3659497]],[[-73.8615815,45.3669662],[-73.8604953628667,45.366590597894806],[-73.8599766,45.3662462],[-73.8592925,45.3661749],[-73.8591886,45.3662072],[-73.8590315,45.36654],[-73.8590605,45.3666521],[-73.8594569,45.3667574],[-73.8604116,45.3668253],[-73.8614751,45.3671734],[-73.8616806,45.3671174],[-73.8615815,45.3669662]],[[-73.8638148,45.3667964],[-73.8636142,45.366506],[-73.8633587,45.3663456],[-73.8629761,45.3663872],[-73.8622099,45.3668677],[-73.86275503649142,45.367172223328],[-73.8627683,45.3673789],[-73.8625483,45.3675062],[-73.8625096,45.3676964],[-73.8630631,45.3674706],[-73.8632202,45.366934],[-73.8638148,45.3667964]],[[-73.8703056,45.3694532],[-73.8700361,45.3691936],[-73.8698089,45.3691489],[-73.8696998,45.3689553],[-73.8694606,45.3689255],[-73.8692909,45.369],[-73.8691213,45.3692596],[-73.8693,45.3693553],[-73.8698604,45.3693362],[-73.8699422,45.3694213],[-73.8699128,45.3696093],[-73.8700724,45.369649],[-73.8703056,45.3694532]],[[-73.8671656,45.3691136],[-73.8670672,45.3692171],[-73.8671858,45.3694915],[-73.8674433,45.3696],[-73.8676704,45.3694575],[-73.8683247,45.3695341],[-73.8685428,45.3694511],[-73.8682823,45.3692319],[-73.8676506,45.3692456],[-73.8671656,45.3691136]],[[-73.8615156,45.369666],[-73.8616731,45.3697575],[-73.862388,45.3697426],[-73.8625667,45.3695234],[-73.8627605,45.3694702],[-73.862815,45.3692787],[-73.8625576,45.3692106],[-73.8624031,45.3692787],[-73.86234566384451,45.369530795061664],[-73.8621154,45.3694788],[-73.8622668,45.3693255],[-73.862182,45.3692489],[-73.8617882,45.3694724],[-73.8616065,45.3694468],[-73.8614762,45.3695511],[-73.8611431,45.3695192],[-73.8610704,45.3695979],[-73.861137,45.369683],[-73.8615156,45.369666]],[[-73.8575475,45.3694455],[-73.8576892,45.3698716],[-73.8576371,45.3701747],[-73.8579706,45.3702274],[-73.8581686,45.3701586],[-73.8579914,45.3697164],[-73.8582895,45.3693416],[-73.8580957,45.3691614],[-73.8575475,45.3694455]],[[-73.8631179,45.3701313],[-73.8638839,45.3704177],[-73.864327,45.3703228],[-73.8637817,45.3699028],[-73.86337,45.3698994],[-73.8631211,45.3700234],[-73.8631179,45.3701313]],[[-73.8580523,45.370842],[-73.8576394,45.3705769],[-73.8574222,45.3706394],[-73.8577782,45.370982],[-73.8576536,45.3712896],[-73.8574044,45.3713296],[-73.8573724,45.3713972],[-73.8584475,45.3716222],[-73.858597,45.3714072],[-73.8580879,45.3712046],[-73.8580523,45.370842]]],[[[-74.0042587,45.3792557],[-74.003879,45.3794459],[-74.0042724,45.3793955],[-74.0043232,45.3795378],[-74.0042685,45.3796329],[-74.0041067,45.3795178],[-74.0031848,45.3797216],[-74.0031569,45.3798479],[-74.0028287,45.3800905],[-74.0028905,45.3799235],[-74.0028492,45.3796989],[-74.0022869,45.3796936],[-74.0020816,45.3799282],[-74.0017845,45.3797935],[-74.0018151,45.3796328],[-74.0015326,45.3794504],[-74.0019234,45.3787089],[-74.0019495,45.3783707],[-74.0017928,45.3780304],[-74.0018686,45.3777535],[-74.0017807,45.3776062],[-74.0014301,45.3774799],[-74.0011935,45.3770642],[-74.00148862901786,45.3767657497428],[-74.00228852317926,45.376561821643456],[-74.00341875089764,45.37723888350014],[-74.00346384610235,45.37734855165451],[-74.0030996,45.3775509],[-74.0031259,45.3778201],[-74.0040069,45.3782238],[-74.0040853,45.3783735],[-74.0040326,45.3789466],[-74.0041061,45.379065],[-74.0040079,45.3791534],[-74.0042587,45.3792557]]],[[[-74.0012779,45.3811351],[-74.00111264166995,45.381432735950284],[-74.000813,45.3813401],[-74.00067530359995,45.3811311098588],[-74.0007548,45.3808996],[-74.00098527233402,45.38092553336608],[-74.0012779,45.3811351]]],[[[-74.0068138,45.3822758],[-74.0074361,45.3824197],[-74.0072704,45.3825501],[-74.0067065,45.3825712],[-74.006543930769,45.38245421254698],[-74.0068138,45.3822758]]],[[[-74.0009147,45.3823389],[-74.0011924,45.3823674],[-74.0011627,45.3828597],[-74.0009817,45.3830959],[-74.00095039364166,45.38302557635762],[-74.0010629,45.3828677],[-74.0010059,45.3827175],[-74.0011163,45.3825144],[-74.0009147,45.3823389]]],[[[-74.0018295,45.3835684],[-74.0016773,45.3833707],[-74.0020751,45.3835558],[-74.0018295,45.3835684]]],[[[-73.9974459144135,45.390350670088885],[-73.9974385,45.3903441],[-73.99746629080165,45.39033317472244],[-73.9974459144135,45.390350670088885]]],[[[-73.99591619277551,45.39208843573679],[-73.9958837,45.3920717],[-73.99593391406692,45.39206858891107],[-73.99591619277551,45.39208843573679]]],[[[-73.9720258,45.4006807],[-73.9719778,45.4005296],[-73.9721865,45.4004466],[-73.9722166,45.4006043],[-73.9723281,45.400702],[-73.9720258,45.4006807]]],[[[-73.9736008,45.4007113],[-73.9734558,45.4004938],[-73.9736337,45.4003557],[-73.9738111,45.4004005],[-73.9737698,45.4005046],[-73.9739836,45.4005472],[-73.9740683,45.4007758],[-73.9739292,45.4008919],[-73.9738623,45.400762],[-73.9736008,45.4007113]]],[[[-73.9724201,45.4008863],[-73.9726362,45.4009266],[-73.9727632,45.4010469],[-73.9725232,45.4010792],[-73.9724201,45.4008863]]],[[[-73.9786674,45.4014494],[-73.9786445,45.4016393],[-73.9784185,45.4018237],[-73.977989,45.401798],[-73.9778447,45.4014604],[-73.9775138,45.4011324],[-73.9784235,45.4010748],[-73.9783687,45.4011992],[-73.9786674,45.4014494]]],[[[-73.9736005,45.4013305],[-73.9736975,45.4016808],[-73.9733888,45.4018397],[-73.9731312,45.4015914],[-73.9727236,45.4015033],[-73.9722514,45.4015856],[-73.9721364,45.4015215],[-73.9711367,45.4017234],[-73.971051,45.4018313],[-73.9709124,45.4017891],[-73.970858,45.4016823],[-73.9711557,45.4014608],[-73.9720774,45.4013774],[-73.9724022,45.4012738],[-73.9729739,45.401408],[-73.973514,45.4012705],[-73.9736005,45.4013305]]],[[[-73.97998,45.4063074],[-73.9805502,45.4063176],[-73.980343,45.4064713],[-73.9796975,45.4065943],[-73.9794881,45.4065538],[-73.9794322,45.4064571],[-73.97998,45.4063074]]],[[[-73.9594155,45.3995171],[-73.9595573,45.3994098],[-73.9597334,45.3994388],[-73.9597279,45.3995306],[-73.9594403,45.3995886],[-73.9594155,45.3995171]]],[[[-73.9665749,45.4019516],[-73.9660436,45.401858],[-73.9657269,45.4020177],[-73.965122,45.4020761],[-73.9647672,45.4022032],[-73.9640309,45.4022198],[-73.9633303,45.4020702],[-73.9626711,45.4022422],[-73.9607516,45.4022827],[-73.9604948,45.4021191],[-73.9604461,45.4019635],[-73.9605887,45.4018305],[-73.9618071,45.4016723],[-73.961865,45.4016172],[-73.9617672,45.4015472],[-73.961859,45.4015033],[-73.9621152,45.4016413],[-73.9622456,45.4016227],[-73.9620309,45.4014278],[-73.9615665,45.4013827],[-73.960533,45.4014801],[-73.9602952,45.401581],[-73.9600372,45.4015384],[-73.9596347,45.4016003],[-73.958739,45.4018393],[-73.9578844,45.4014742],[-73.9574977,45.4015206],[-73.9564028,45.4013037],[-73.9563846,45.4012217],[-73.9565422,45.4011404],[-73.9571133,45.4011644],[-73.9586271,45.3996664],[-73.9591879,45.3995636],[-73.9596845,45.3996746],[-73.9600516,45.3994169],[-73.9599066,45.3992662],[-73.9604967,45.3990724],[-73.9609793,45.3987612],[-73.961666,45.3987688],[-73.9618194,45.3988516],[-73.9622352,45.3987477],[-73.9628738,45.3983259],[-73.9634109,45.3984002],[-73.9641733,45.3982454],[-73.9643719,45.3980622],[-73.9644061,45.397886],[-73.9647706,45.3976853],[-73.965526,45.3976986],[-73.9664893,45.3973802],[-73.9671884,45.3973644],[-73.9674551,45.3975284],[-73.9674396,45.397793],[-73.9676338,45.3983193],[-73.9683594,45.3988107],[-73.9685706,45.3998271],[-73.9685581,45.4001801],[-73.9690381,45.4009144],[-73.9690196,45.401116],[-73.9687749,45.4012376],[-73.9688294,45.4013259],[-73.9682919,45.401474],[-73.967829,45.4014043],[-73.9674944,45.4016434],[-73.9665749,45.4019516]],[[-73.9614945,45.4011189],[-73.9622488,45.4012027],[-73.9624733,45.4010992],[-73.9622242,45.4009169],[-73.9616805,45.4008948],[-73.9614209,45.4010253],[-73.9614945,45.4011189]]],[[[-73.9692727,45.4016447],[-73.9693135,45.4015206],[-73.9695794,45.4015065],[-73.9698241,45.4017349],[-73.9697003,45.4017714],[-73.9692727,45.4016447]]],[[[-73.9565611,45.4022675],[-73.9542111,45.40217],[-73.9546604,45.4013342],[-73.9580163,45.4020078],[-73.958266,45.4019702],[-73.9588201,45.4021356],[-73.9589776,45.4022501],[-73.9589998,45.4024524],[-73.9585909,45.4026689],[-73.9580469,45.4027251],[-73.9575566,45.4024975],[-73.9565611,45.4022675]]],[[[-73.9678176,45.4028159],[-73.9678702,45.4027107],[-73.9677568,45.4024292],[-73.9679755,45.4024491],[-73.9681495,45.4025714],[-73.9682062,45.4028414],[-73.968356,45.4030347],[-73.9681779,45.4030546],[-73.9678176,45.4028159]]],[[[-73.9619068,45.4033562],[-73.9621866,45.4031291],[-73.962659,45.4030747],[-73.9632306,45.4032531],[-73.9631353,45.403359],[-73.9619068,45.4033562]]],[[[-73.9639583,45.4034187],[-73.9634715,45.4034876],[-73.9635069,45.403283],[-73.9639674,45.4032681],[-73.9639583,45.4034187]]],[[[-73.966154,45.4044358],[-73.9661347,45.4043105],[-73.9659755,45.4041581],[-73.9660045,45.4039921],[-73.9659176,45.4039413],[-73.965879,45.4036975],[-73.9670656,45.4031353],[-73.967302,45.4028779],[-73.9675624,45.4028881],[-73.9682329,45.4032539],[-73.9685802,45.4036128],[-73.9685367,45.4038397],[-73.9691445,45.4040565],[-73.9691831,45.4043206],[-73.9689998,45.404429],[-73.9688069,45.4043376],[-73.9683004,45.4043545],[-73.9681509,45.404429],[-73.9678374,45.4048388],[-73.9674177,45.4046728],[-73.967273,45.4048896],[-73.9665591,45.4049031],[-73.9661829,45.4047643],[-73.9659514,45.4045848],[-73.966154,45.4044358]]],[[[-73.9628632,45.4047787],[-73.962474,45.4046145],[-73.9628953,45.4045443],[-73.9629328,45.404419],[-73.9631524,45.4045681],[-73.9632399,45.4047399],[-73.963181,45.4048013],[-73.9628632,45.4047787]]],[[[-73.9641118,45.4048276],[-73.964179,45.4049601],[-73.9646811,45.4050769],[-73.9647482,45.405288],[-73.9649082,45.4053463],[-73.9645372,45.4054496],[-73.9644988,45.4056001],[-73.9642365,45.4056764],[-73.9641182,45.4058022],[-73.9636641,45.4056001],[-73.9641332,45.4052272],[-73.963808,45.4050387],[-73.9639775,45.4048299],[-73.9641118,45.4048276]]],[[[-73.9687325,45.4054999],[-73.968866,45.4056322],[-73.9686342,45.4056019],[-73.9685478,45.4054888],[-73.9688464,45.4054171],[-73.9687325,45.4054999]]],[[[-73.9620873,45.4058381],[-73.9617099,45.4054002],[-73.9620074,45.4055439],[-73.9624839,45.4056225],[-73.9627398,45.4057932],[-73.9628197,45.4059459],[-73.9627142,45.40602],[-73.9620873,45.4058381]]],[[[-73.9682453,45.4058226],[-73.9688464,45.4056736],[-73.9692196,45.4058805],[-73.969031,45.406217],[-73.9688228,45.4062556],[-73.9686814,45.4061977],[-73.9686146,45.4059798],[-73.9682453,45.4058226]]],[[[-73.9665481,45.4065204],[-73.9661946,45.4065893],[-73.9661238,45.4064956],[-73.9657546,45.4063659],[-73.9656563,45.4061591],[-73.9664971,45.4061784],[-73.9665128,45.4060625],[-73.966666,45.4059632],[-73.9670942,45.405955],[-73.9672435,45.4060405],[-73.9675028,45.4059357],[-73.9676089,45.4061811],[-73.9674046,45.4064045],[-73.9668781,45.4063053],[-73.9666267,45.4063742],[-73.9665481,45.4065204]]],[[[-73.9707558,45.4075545],[-73.9712425,45.407272],[-73.9712972,45.4073488],[-73.9711283,45.4077149],[-73.9707508,45.4078405],[-73.9700057,45.4076033],[-73.9697176,45.4073557],[-73.9694593,45.4073069],[-73.9690371,45.407408],[-73.9685653,45.4073732],[-73.9682424,45.4070872],[-73.9686398,45.4070175],[-73.9693948,45.4071047],[-73.9699163,45.4072999],[-73.9700852,45.4072895],[-73.9701746,45.407429],[-73.9704081,45.4075127],[-73.9707558,45.4075545]]],[[[-73.9690421,45.4082275],[-73.9699958,45.4086041],[-73.969812,45.408639],[-73.9692656,45.4084751],[-73.9689378,45.4087262],[-73.9685106,45.4087855],[-73.9680984,45.408646],[-73.9678351,45.408789],[-73.9668616,45.4081229],[-73.9662258,45.4079241],[-73.9669957,45.4079032],[-73.9669013,45.4077079],[-73.9670503,45.4075789],[-73.9676861,45.4076312],[-73.9678848,45.407415],[-73.9685504,45.4075475],[-73.9686745,45.4076661],[-73.9692954,45.4078474],[-73.9692209,45.4079381],[-73.969365,45.4080846],[-73.9690173,45.4079486],[-73.9687342,45.4079765],[-73.9690421,45.4082275]]],[[[-73.9239807,45.3908682],[-73.92410600460511,45.39089840490846],[-73.9240105,45.3910509],[-73.9239807,45.3908682]]],[[[-73.9068565603938,45.39587429290901],[-73.90667,45.3959901],[-73.90625744788831,45.39588425493722],[-73.90668369911266,45.39570134854183],[-73.90681834622572,45.39576169693265],[-73.9068565603938,45.39587429290901]]],[[[-73.9036397,45.3961045],[-73.9034568334503,45.39602851017626],[-73.9032169,45.3957137],[-73.90338768663703,45.395719622131715],[-73.9036397,45.3961045]]],[[[-73.90640503970194,45.39684423839905],[-73.90631005027375,45.39659596674967],[-73.9066025,45.3966281],[-73.9065421,45.3967807],[-73.90640503970194,45.39684423839905]]],[[[-73.9078239,45.3971429],[-73.9078932,45.3971547],[-73.90777400297216,45.39726949155889],[-73.907764907018,45.397262239379224],[-73.9078239,45.3971429]]],[[[-73.8911649,45.3977373],[-73.8910076,45.3974602],[-73.8911327,45.3973105],[-73.8916089,45.3971935],[-73.89178528929236,45.397486789412476],[-73.8916764138778,45.39762986990688],[-73.891296,45.397658],[-73.8911649,45.3977373]]],[[[-73.8948589,45.3981354],[-73.8945772,45.3981013],[-73.8935947,45.3976503],[-73.893233,45.3973402],[-73.8928804,45.3974498],[-73.8925149,45.397373],[-73.8922373,45.3971318],[-73.8921286,45.3968398],[-73.892908,45.3967213],[-73.8937747,45.3963707],[-73.8942763,45.3965488],[-73.8955794,45.3967503],[-73.8968077,45.3971391],[-73.8969698,45.3972993],[-73.8968653,45.3974919],[-73.8970192,45.3975705],[-73.8969634,45.3978815],[-73.8964629,45.3980576],[-73.8952687,45.3981297],[-73.8950949,45.3983721],[-73.8951858,45.398443],[-73.8951639,45.3985492],[-73.8950567,45.3986132],[-73.8950278,45.3983888],[-73.8948589,45.3981354]]],[[[-73.8891261,45.3978719],[-73.88987101268766,45.39791230959943],[-73.8898820228591,45.39793196714003],[-73.889222,45.3979502],[-73.8891261,45.3978719]]],[[[-73.9047592,45.3978357],[-73.9050444,45.397814],[-73.9049959,45.3981014],[-73.9046781,45.3980598],[-73.9047592,45.3978357]]],[[[-73.9445599,45.3968563],[-73.9464141,45.3994094],[-73.9464045,45.3995479],[-73.9462151,45.3994562],[-73.9444364,45.3968646],[-73.9445599,45.3968563]]],[[[-73.9457915,45.3999084],[-73.9444665,45.3978809],[-73.9440205,45.3973956],[-73.9437434,45.3969541],[-73.9438269,45.3968824],[-73.9459937,45.3999364],[-73.9457915,45.3999084]]],[[[-73.8937117,45.4044123],[-73.8937535,45.4042882],[-73.8940456,45.404121],[-73.8941728,45.4039445],[-73.8938984,45.4039025],[-73.8934119,45.4034333],[-73.8926122,45.4031251],[-73.8920686,45.4028182],[-73.892006,45.402898],[-73.8914698,45.4030361],[-73.8912434,45.4033164],[-73.8908918,45.4034575],[-73.8904208,45.4033756],[-73.8902745,45.4035401],[-73.8902613,45.4036827],[-73.8899659,45.4039727],[-73.8878475,45.4042681],[-73.8868069,45.4046282],[-73.8863906,45.4044694],[-73.8860235,45.4041183],[-73.8862826,45.4032314],[-73.8873742,45.4028836],[-73.8883643,45.4023295],[-73.889005,45.4022169],[-73.8890986,45.4018492],[-73.8890455,45.4016719],[-73.8887578,45.401597],[-73.8886707,45.4014694],[-73.8890567,45.4014905],[-73.8896984,45.4013575],[-73.8898472,45.4012437],[-73.8900668,45.4005184],[-73.8899408,45.4003311],[-73.8893636,45.4003016],[-73.8894099,45.4000818],[-73.8895913,45.400041],[-73.8901581,45.4001757],[-73.8907868,45.4000484],[-73.8914729,45.3996373],[-73.8914945,45.3994356],[-73.8918321,45.3992984],[-73.8922903,45.3994637],[-73.8934485,45.3994079],[-73.8936546,45.3995603],[-73.893906,45.3995257],[-73.894187,45.399641],[-73.8941502,45.3997793],[-73.8943925,45.3998557],[-73.8945606,45.3996999],[-73.8947183,45.3996942],[-73.8950162,45.3999459],[-73.8952325,45.3999456],[-73.8952768,45.3997915],[-73.8955229,45.3997617],[-73.8957222,45.3995195],[-73.895985,45.3996151],[-73.8959664,45.3999927],[-73.8961519,45.4000608],[-73.8975126,45.3997913],[-73.897641,45.3997015],[-73.8985103,45.3997372],[-73.8988149,45.3995754],[-73.8992554,45.3995019],[-73.8993297,45.3995599],[-73.8993139,45.3996826],[-73.89976,45.3998291],[-73.8999274,45.4000262],[-73.9016915,45.4007167],[-73.9015876,45.4008397],[-73.9016705,45.4009454],[-73.9015816,45.4010866],[-73.9016365,45.4012404],[-73.9014664,45.4014493],[-73.9014635,45.4015959],[-73.9019623,45.4021397],[-73.9017622,45.4021818],[-73.9016936,45.402288],[-73.9017626,45.4023758],[-73.9020429,45.4023406],[-73.9020799,45.4024223],[-73.9018056,45.4024968],[-73.901335,45.4024145],[-73.9009363,45.4025772],[-73.9007068,45.4029013],[-73.9006462,45.4034628],[-73.9003167,45.4040857],[-73.8997713,45.4044762],[-73.8992172,45.4043896],[-73.8987159,45.4045378],[-73.8980875,45.4045316],[-73.897709,45.4041825],[-73.8973627,45.404152],[-73.8971372,45.4042584],[-73.8970915,45.4043838],[-73.8971838,45.4045452],[-73.897081,45.4046771],[-73.8967483,45.4047919],[-73.8966111,45.4046829],[-73.8964008,45.4051854],[-73.8962251,45.4052847],[-73.8960253,45.4050676],[-73.8958356,45.4051139],[-73.895946,45.4053323],[-73.8959326,45.4054491],[-73.8957864,45.4055593],[-73.8959809,45.4057617],[-73.8949737,45.4060809],[-73.8949589,45.4062334],[-73.8950837,45.4063925],[-73.8955598,45.4064867],[-73.8956174,45.4067193],[-73.8960734,45.4066486],[-73.8961498,45.406772],[-73.89606,45.4069095],[-73.895466,45.4069483],[-73.8950595,45.4073529],[-73.8948543,45.4074282],[-73.8949201,45.407755],[-73.8947712,45.407754],[-73.894735,45.4074395],[-73.8941342,45.4072352],[-73.8936017,45.407352],[-73.893245,45.4073171],[-73.8931887,45.4071797],[-73.8932651,45.4069095],[-73.8934113,45.4068388],[-73.8933483,45.4067061],[-73.8930371,45.4065244],[-73.892722,45.4065554],[-73.8928708,45.4063991],[-73.8923321,45.4060269],[-73.8924053,45.4056415],[-73.8925348,45.4054698],[-73.8933047,45.4050539],[-73.8937142,45.4050172],[-73.8933114,45.4047762],[-73.8938428,45.4045256],[-73.8937117,45.4044123]]],[[[-73.8848965,45.4042989],[-73.8848155,45.4042372],[-73.8849749,45.4041047],[-73.8850798,45.4042297],[-73.8848965,45.4042989]]],[[[-73.8967705,45.4063954],[-73.8965617,45.4061526],[-73.8962856,45.4061794],[-73.8961582,45.4060137],[-73.8965435,45.4058623],[-73.89682143308649,45.405960570538],[-73.89701109199741,45.40613539043814],[-73.897057,45.4063125],[-73.8967705,45.4063954]]]]}}]}
