{"type":"FeatureCollection","features":[{"type":"Feature","properties":{"id":"parc-historique-pointe-du-moulin-073672","name":"Parc historique Pointe-du-Moulin","type":"park"},"geometry":{"type":"Polygon","coordinates":[[[-73.8564332905645,45.36884048440171],[-73.8558756,45.3676769],[-73.8553773,45.3671376],[-73.8550739,45.3670593],[-73.8544672,45.3670658],[-73.8542195,45.3669049],[-73.8541638,45.3667157],[-73.853975,45.3665895],[-73.8527894,45.3663416],[-73.8520279,45.3658588],[-73.8527419,45.3659191],[-73.8536933,45.3656],[-73.8545569,45.3655282],[-73.8548046,45.3653368],[-73.8546436,45.3650367],[-73.8555135,45.3645321],[-73.8556961,45.3642341],[-73.8565783,45.3642385],[-73.8572501,45.3641232],[-73.8580725,45.3678305],[-73.8578869,45.3678548],[-73.8580502,45.3679869],[-73.8581947,45.3684195],[-73.8580314,45.3685967],[-73.8564332905645,45.36884048440171]]]}},{"type":"Feature","properties":{"id":"parc-nature-de-la-tourbiere-du-bordelais-336255","name":"Parc nature de la Tourbière-du-Bordelais","type":"park"},"geometry":{"type":"MultiPolygon","coordinates":[[[[-74.156718,45.4251048],[-74.1569275,45.4254456],[-74.1563667,45.4260447],[-74.155639,45.4259276],[-74.1557128,45.4256477],[-74.1554231,45.4254568],[-74.15484079120836,45.425429315340786],[-74.1550841,45.4253612],[-74.1559583,45.4254893],[-74.1561442,45.4252622],[-74.1560099,45.4251583],[-74.1560547,45.424709],[-74.1559239,45.4243974],[-74.1550291,45.4241148],[-74.1547709,45.4241317],[-74.1545059,45.424366],[-74.1541755,45.4245182],[-74.1541377,45.4251052],[-74.1539277,45.4253516],[-74.1539863620818,45.42538898674932],[-74.1537289,45.4253686],[-74.1528015,45.4256166],[-74.1530504,45.4261336],[-74.1527163,45.4262106],[-74.1524568,45.4257225],[-74.1520104,45.425839],[-74.1518687,45.4252709],[-74.1512863,45.425181],[-74.1510493,45.4263489],[-74.1492836,45.4261736],[-74.1496651,45.4241755],[-74.1501556,45.4242471],[-74.1502442,45.4237941],[-74.1504316,45.4237323],[-74.1504889,45.4235465],[-74.1510277,45.4236403],[-74.1522431,45.4225597],[-74.1523416,45.4220309],[-74.1525212,45.4220525],[-74.1527205,45.4213854],[-74.1519693,45.4212486],[-74.1528759,45.4205486],[-74.1555426,45.4218609],[-74.155407,45.4224774],[-74.1550709,45.4230402],[-74.1546661,45.4231505],[-74.1546249,45.4232512],[-74.154784,45.4233767],[-74.1549648,45.4233709],[-74.1551304,45.4231088],[-74.1557808,45.4233177],[-74.1553651,45.4239288],[-74.1562319,45.4240998],[-74.1565818,45.4244676],[-74.156718,45.4251048]]],[[[-74.15425063204744,45.42540146014839],[-74.1543097,45.4253951],[-74.15432108912586,45.42540478568429],[-74.15425063204744,45.42540146014839]]]]}},{"type":"Feature","properties":{"id":"parc-nature-harwood-543109","name":"Parc-Nature Harwood","type":"park"},"geometry":{"type":"Polygon","coordinates":[[[-74.1511723,45.4386335],[-74.1485365,45.4399375],[-74.1450324,45.4418703],[-74.1443756,45.4412697],[-74.1441887,45.4412722],[-74.1438917,45.4414193],[-74.1436739,45.4411131],[-74.1436739,45.4409116],[-74.1434742,45.440626],[-74.1429203,45.4408119],[-74.1428122,45.4409311],[-74.1429234,45.4415738],[-74.1417544,45.4416195],[-74.1414962,45.4414405],[-74.1406192,45.4420398],[-74.1380606,45.4412086],[-74.1414492,45.4396878],[-74.1472285,45.4368792],[-74.1511723,45.4386335]],[[-74.1466298,45.4379263],[-74.1465031,45.4378038],[-74.1463103,45.437864],[-74.1462441,45.438026],[-74.1464496,45.4381011],[-74.1466298,45.4379263]],[[-74.1461267,45.4387391],[-74.1469218,45.4386837],[-74.147043,45.4386034],[-74.147013,45.4383584],[-74.1468973,45.4383115],[-74.1465982,45.4384855],[-74.1463013,45.4384894],[-74.1462068,45.4383935],[-74.1463224,45.4382718],[-74.1462691,45.4381844],[-74.145831,45.4382483],[-74.1458143,45.4383927],[-74.1461178,45.4384145],[-74.1462368,45.4385472],[-74.1461267,45.4387391]],[[-74.1499879,45.4387639],[-74.1496675,45.4385391],[-74.1491427,45.438532],[-74.1489384,45.4386388],[-74.1489664,45.4387147],[-74.1488262,45.4388047],[-74.1489944,45.4388131],[-74.1489864,45.4389157],[-74.149347,45.4390549],[-74.1498658,45.4389073],[-74.1499879,45.4387639]],[[-74.1415268,45.4406508],[-74.1413577,45.4404839],[-74.1411187,45.4407437],[-74.1412654,45.4407885],[-74.1415268,45.4406508]],[[-74.1452443,45.4405677],[-74.1451498,45.4405647],[-74.1451326,45.4407426],[-74.1452637,45.440934],[-74.1453539,45.4408647],[-74.1452443,45.4405677]]]}},{"type":"Feature","properties":{"id":"reserve-ecologique-des-iles-avelle-wight-et-hiam-782556","name":"Réserve écologique des Îles-Avelle-Wight-et-Hiam","type":"park"},"geometry":{"type":"MultiPolygon","coordinates":[[[[-74.0021306,45.3964574],[-74.0021735,45.3963858],[-74.0022432,45.3964385],[-74.0021306,45.3964574]]],[[[-73.9959283,45.3953573],[-73.9961846,45.3952132],[-73.9958553,45.3954802],[-73.9959283,45.3953573]]],[[[-74.0004655,45.3953201],[-74.0004709,45.3954953],[-74.0006666,45.3956873],[-74.0008838,45.3956779],[-74.0009991,45.3960394],[-74.0003475,45.396045],[-73.9998166,45.3959019],[-73.9993206,45.3954595],[-73.9990122,45.3956233],[-73.9984009,45.3954181],[-73.9986717,45.3952957],[-73.9993367,45.3953748],[-73.999342,45.3949888],[-73.9994493,45.394921],[-73.9998059,45.3949361],[-73.9998086,45.3948363],[-74.0003824,45.3949436],[-74.0004306,45.3948871],[-74.0003234,45.3950829],[-74.0004655,45.3953201]]],[[[-73.9959042,45.3967365],[-73.9952074,45.3970381],[-73.9950362,45.3970347],[-73.9950991,45.3968262],[-73.9954405,45.3964555],[-73.9958176,45.3963954],[-73.996058,45.3962492],[-73.9962716,45.3963344],[-73.996181,45.3965256],[-73.9959042,45.3967365]]],[[[-74.0005701,45.3968904],[-74.0010205,45.3970467],[-74.0002966,45.3972463],[-74.0004146,45.397058],[-74.0002161,45.3969751],[-73.9997281,45.3970184],[-73.9996423,45.3972218],[-73.9997684,45.3972613],[-73.9995994,45.3974326],[-73.99872,45.3972274],[-73.9982159,45.3973404],[-73.9979478,45.3972519],[-73.9979022,45.3970787],[-73.9981274,45.397073],[-73.9982588,45.3968885],[-73.9981435,45.3966739],[-73.9985296,45.3966419],[-73.9990551,45.3963557],[-74.00031,45.3966871],[-74.0005754,45.396608],[-74.0009428,45.3963425],[-74.001227,45.3963256],[-74.0013423,45.3964178],[-74.00153,45.3963708],[-74.0013825,45.3964781],[-74.0012216,45.3964254],[-74.0008221,45.3965816],[-74.0009669,45.3966984],[-74.000932,45.3967831],[-74.0006425,45.3967756],[-74.0005701,45.3968904]]],[[[-73.9979361,45.3984907],[-73.9978164,45.3984492],[-73.9978066,45.3983394],[-73.9975277,45.3983716],[-73.9974586,45.3982907],[-73.9975414,45.3982003],[-73.9978555,45.3981455],[-73.9980493,45.3981975],[-73.9981975,45.398357],[-73.9979361,45.3984907]]],[[[-73.9965116,45.3998802],[-73.9981897,45.4005306],[-73.9983764,45.4007275],[-73.9983888,45.4010509],[-73.9982851,45.4011673],[-73.9982874,45.4013247],[-73.9984173,45.4016983],[-73.9987974,45.4017775],[-73.9989269,45.4019],[-73.9984753,45.4020057],[-73.997557,45.4019391],[-73.9971253,45.4021052],[-73.9970083,45.4022886],[-73.996439,45.4023832],[-73.9963672,45.4024326],[-73.9964838,45.4025346],[-73.99642,45.4026952],[-73.9965958,45.4028926],[-73.9968034,45.4029392],[-73.996744,45.4029963],[-73.9961699,45.4029905],[-73.995917,45.4028897],[-73.995993,45.4028121],[-73.9959166,45.4027694],[-73.9956513,45.4027223],[-73.9955108,45.4028097],[-73.9957672,45.4028961],[-73.99568,45.4029451],[-73.9951843,45.4029973],[-73.9945516,45.4032177],[-73.9942772,45.4031606],[-73.9931293,45.4025609],[-73.99255,45.4026964],[-73.9925849,45.4028903],[-73.9924869,45.4029815],[-73.9916638,45.4029621],[-73.9913863,45.4028669],[-73.9912993,45.40271],[-73.9906854,45.4026579],[-73.9902086,45.4023041],[-73.9896241,45.402147],[-73.989561,45.4019317],[-73.9893277,45.4017953],[-73.9882151,45.4017681],[-73.9887869,45.4013813],[-73.989272,45.4014882],[-73.9896061,45.4014062],[-73.9897695,45.4011288],[-73.9903256,45.4012051],[-73.9905084,45.4009581],[-73.9906662,45.4010748],[-73.9912065,45.4009759],[-73.9918127,45.4005482],[-73.992637,45.3993503],[-73.9925554,45.3989103],[-73.9923811,45.3988936],[-73.9924412,45.398786],[-73.9927975,45.3986772],[-73.9930085,45.398825],[-73.994389,45.3986242],[-73.9950063,45.3989592],[-73.9953427,45.3989872],[-73.9955099,45.398765],[-73.9956599,45.3988062],[-73.9958088,45.3990569],[-73.9956591,45.3992171],[-73.9951356,45.3992871],[-73.9955216,45.3994232],[-73.99551,45.399691],[-73.995758,45.3997348],[-73.9958405,45.3995773],[-73.9961267,45.3997009],[-73.9963644,45.3996967],[-73.9965116,45.3998802]]],[[[-74.0005624,45.4016313],[-74.0004212,45.4015657],[-74.0004858,45.4014212],[-74.0000239,45.4012734],[-74.0006509,45.4013103],[-74.0007442,45.4013775],[-74.0006772,45.4016565],[-74.0008926,45.4019303],[-74.000828,45.4020967],[-74.0003757,45.4018043],[-74.0005624,45.4016313]]]]}},{"type":"Feature","properties":{"id":"parc-nature-de-pointe-des-cascades-835756","name":"Parc nature de Pointe-des-Cascades","type":"park"},"geometry":{"type":"MultiPolygon","coordinates":[[[[-73.9596905,45.3295844],[-73.9597109,45.3315103],[-73.9595819,45.3315489],[-73.9597398,45.3318386],[-73.9607005,45.3315897],[-73.9615638,45.3320051],[-73.9619568,45.3320565],[-73.9629603,45.3317989],[-73.9629461,45.3318973],[-73.9632255738494,45.332294541956344],[-73.9623923,45.3325759],[-73.9625559,45.3327317],[-73.96534234302969,45.33188229221887],[-73.9630882,45.3326302],[-73.9627911,45.3329193],[-73.9615838,45.3333151],[-73.9610776,45.3333238],[-73.9584227,45.3341732],[-73.9583712,45.333901],[-73.95782,45.3337945],[-73.9574475,45.3333646],[-73.9574864,45.3331458],[-73.9569416,45.3331243],[-73.9566096,45.3333549],[-73.9564909,45.3335651],[-73.9565195,45.3339318],[-73.956898,45.3345111],[-73.9571467,45.3345538],[-73.9582951,45.3342186],[-73.9577029,45.3346056],[-73.95499302371704,45.335426116038434],[-73.95491695767157,45.335317264041585],[-73.9559143,45.3349342],[-73.9563516,45.3347076],[-73.9565661,45.3344935],[-73.9564606,45.3343952],[-73.9562983,45.3344377],[-73.9562876,45.3343228],[-73.9561252,45.3342944],[-73.9560221,45.3343527],[-73.9560233,45.3344727],[-73.9559238,45.334476],[-73.9558942,45.3342861],[-73.9556619,45.3342594],[-73.955528,45.3341595],[-73.955131,45.3342053],[-73.9540775,45.3350383],[-73.9540182,45.3350058],[-73.9540728,45.3348876],[-73.9544176,45.3345452],[-73.9541533,45.3342453],[-73.9532883,45.3340903],[-73.9529624,45.3341337],[-73.9524327,45.3343969],[-73.9522253,45.3342753],[-73.9519503,45.3343244],[-73.9518781,45.3342295],[-73.951103,45.3340653],[-73.9512772,45.3339554],[-73.9511836,45.3338754],[-73.9512666,45.3338454],[-73.9511315,45.3338537],[-73.9511161,45.3339104],[-73.9510533,45.3338096],[-73.9508601,45.3338146],[-73.950866,45.3336555],[-73.9507463,45.3336938],[-73.9505556,45.333563],[-73.9494452,45.33246],[-73.9496016,45.3323301],[-73.9496336,45.3325483],[-73.9498149,45.3325458],[-73.9499547,45.3327374],[-73.9500851,45.3326633],[-73.9496905,45.3323984],[-73.9497035,45.3322668],[-73.9495613,45.3322393],[-73.9494357,45.3320277],[-73.9494975,45.3318007],[-73.9496696,45.331647],[-73.9495488,45.3315129],[-73.9495713,45.3313805],[-73.9497123,45.3313093],[-73.9499898,45.331451],[-73.9501492,45.3313673],[-73.9502345,45.3309065],[-73.9503355,45.330774],[-73.9502637,45.3307235],[-73.9499449,45.3308229],[-73.9498102,45.3306746],[-73.9500998,45.3303085],[-73.9503471,45.3297154],[-73.9505533,45.3296173],[-73.9503598,45.3294946],[-73.9505343,45.3291311],[-73.9509784,45.3290642],[-73.9517493,45.3292114],[-73.9523268,45.3290129],[-73.9527725,45.3290486],[-73.9531215,45.3289582],[-73.9547442,45.3292337],[-73.9548315,45.3290976],[-73.9551107,45.3291088],[-73.9552201,45.3290185],[-73.9553756,45.3290742],[-73.9558641,45.3290374],[-73.9560894,45.3290698],[-73.9561513,45.3292404],[-73.9564701,45.3293731],[-73.9565446,45.329537],[-73.956662,45.3294656],[-73.9568159,45.3295136],[-73.9568397,45.3294545],[-73.9571712,45.3295493],[-73.9574234,45.3294099],[-73.9574996,45.3294623],[-73.9577851,45.3294166],[-73.9578359,45.3298995],[-73.9581008,45.3298571],[-73.9583292,45.3295181],[-73.9585798,45.3293887],[-73.9594285,45.3294166],[-73.9596905,45.3295844]],[[-73.9508447,45.3316709],[-73.9510448,45.3317523],[-73.9511886,45.3315456],[-73.9508916,45.3315434],[-73.9508447,45.3316709]],[[-73.9515512,45.3319984],[-73.9519296,45.3316533],[-73.9517732,45.3316226],[-73.9514293,45.332016],[-73.9515512,45.3319984]],[[-73.9560288,45.3327694],[-73.9561317,45.3326406],[-73.955833,45.332473],[-73.9552758,45.3325065],[-73.9553536,45.3324695],[-73.9552934,45.3323689],[-73.9551679,45.3324818],[-73.9550524,45.3323671],[-73.9549897,45.3324077],[-73.9551052,45.3324589],[-73.9550775,45.3326336],[-73.9557326,45.3329317],[-73.955818,45.3327941],[-73.9560288,45.3327694]]],[[[-73.96542451884605,45.331856049212334],[-73.96558825330936,45.33180376029352],[-73.96542606049996,45.33185773769043],[-73.96542451884605,45.331856049212334]]],[[[-73.96561157495245,45.33179631248151],[-73.9656232,45.3317926],[-73.96561175373562,45.3317963820083],[-73.96561157495245,45.33179631248151]]]]}},{"type":"Feature","properties":{"id":"parc-sandy-beach-892390","name":"Parc Sandy Beach","type":"park"},"geometry":{"type":"Polygon","coordinates":[[[-74.1282458,45.4584279],[-74.1288517,45.4579772],[-74.129228,45.4578674],[-74.1297099,45.4579693],[-74.129806,45.4578716],[-74.1298452,45.4576351],[-74.1300378,45.457443],[-74.1307964,45.4569531],[-74.1314226,45.4567335],[-74.1319404,45.4567757],[-74.1321361,45.4564716],[-74.1326207,45.4563175],[-74.1331445,45.4562689],[-74.1336563,45.4563703],[-74.1342644,45.4566659],[-74.1344871,45.4568686],[-74.1344179,45.4571199],[-74.1344661,45.4571938],[-74.1347852,45.4573036],[-74.1352909,45.4577196],[-74.135873,45.4577381],[-74.1359483,45.4577928],[-74.1357918,45.4579502],[-74.1363033,45.458272],[-74.1368371,45.4577438],[-74.1399776,45.4591917],[-74.1390315,45.4602444],[-74.1387555,45.4604024],[-74.1369985,45.4605505],[-74.1366367,45.4604826],[-74.1366777,45.4603518],[-74.1373574,45.4596612],[-74.1371762,45.4594706],[-74.1368332,45.4595387],[-74.1365517,45.4594706],[-74.1363672,45.4595682],[-74.1365258,45.4597429],[-74.1363802,45.4599472],[-74.1361278,45.4600448],[-74.1358139,45.4599291],[-74.13528,45.4599654],[-74.1350535,45.4601923],[-74.1350761,45.4604011],[-74.13480712263593,45.460594334717214],[-74.1344982,45.4603424],[-74.1346071,45.4599396],[-74.1347213,45.4598196],[-74.1345452,45.4598633],[-74.1342655,45.4601914],[-74.1338348,45.4600976],[-74.1337556,45.459891],[-74.1327134,45.4594015],[-74.1323448,45.458782],[-74.1320377,45.4585734],[-74.1315905,45.4585114],[-74.1307834,45.4586088],[-74.12895749954778,45.45917851749837],[-74.1282458,45.4584279]]]}},{"type":"Feature","properties":{"id":"parc-de-vaudreuil-dorion-428091","name":"Parc de Vaudreuil-Dorion","type":"park"},"geometry":{"type":"Polygon","coordinates":[[[-74.1899495,45.4548503],[-74.1888779,45.4567371],[-74.188902,45.4580377],[-74.1915385,45.4588484],[-74.1911426,45.4595966],[-74.1903393,45.459504],[-74.1890466,45.4591121],[-74.1876751,45.4588649],[-74.1869085,45.4589313],[-74.1869684,45.4596303],[-74.1866367,45.4597253],[-74.1861224,45.459377],[-74.1865612,45.4587872],[-74.1860799,45.458632],[-74.1845337,45.4583722],[-74.1817979,45.4580613],[-74.1816957,45.4580262],[-74.1818098,45.4578772],[-74.1813986,45.4576721],[-74.1821337,45.456347],[-74.1826828,45.4557113],[-74.1833124,45.455253],[-74.1842146,45.4544289],[-74.183665,45.4541299],[-74.1844978,45.4537413],[-74.1853323,45.4532218],[-74.1861347,45.4536352],[-74.1869524,45.4539208],[-74.1869631,45.4540158],[-74.1899495,45.4548503]]]}},{"type":"Feature","properties":{"id":"parc-de-hudson-600388","name":"Parc de Hudson","type":"park"},"geometry":{"type":"Polygon","coordinates":[[[-74.1644055,45.4629454],[-74.1630937,45.4642799],[-74.1625373,45.4646944],[-74.160179,45.4673998],[-74.1596509,45.4672423],[-74.1600081,45.4667081],[-74.1599585,45.4666912],[-74.1609352,45.4656649],[-74.1600541,45.4652619],[-74.1590076,45.4663828],[-74.1589232,45.4662513],[-74.1583649,45.4660008],[-74.1587538,45.4655626],[-74.158021,45.4652224],[-74.1597755,45.4634154],[-74.1610501,45.4640274],[-74.1622669,45.462781],[-74.1624145,45.4628515],[-74.1630582,45.4621945],[-74.1644055,45.4629454]]]}},{"type":"Feature","properties":{"id":"parc-nature-les-forestiers-de-saint-lazare-565005","name":"Parc nature les Forestiers-de-Saint-Lazare","type":"park"},"geometry":{"type":"Polygon","coordinates":[[[-74.19330254235015,45.38326966541497],[-74.180057,45.3816932],[-74.1796301,45.3815737],[-74.1796415,45.3814299],[-74.1798064,45.3813141],[-74.180375,45.3813181],[-74.1805683,45.3812302],[-74.180773,45.3806551],[-74.1809891,45.3804954],[-74.18108,45.3802517],[-74.1809265,45.3798164],[-74.1807957,45.3796766],[-74.1802044,45.379421],[-74.1796813,45.3790336],[-74.1796188,45.3784226],[-74.1798525,45.377915],[-74.1798141,45.3777827],[-74.1790427,45.3774891],[-74.1795379,45.3773476],[-74.1798838,45.3773387],[-74.183659,45.3773744],[-74.1892748,45.3773031],[-74.18998182046035,45.37760012592459],[-74.19486621344602,45.3834466992658],[-74.20562505609762,45.38466478109267],[-74.2099129,45.3852337],[-74.2098236,45.3857573],[-74.2101171,45.3858702],[-74.209711,45.386545],[-74.216217,45.387601],[-74.2140922,45.396968],[-74.2084284,45.396174],[-74.2062531,45.3956898],[-74.1948272,45.3921914],[-74.1945892,45.3920521],[-74.1945438,45.391857],[-74.1947707,45.3902812],[-74.1939039,45.3901753],[-74.1932862,45.3926964],[-74.1930401,45.3933083],[-74.1921707,45.3931952],[-74.1919727,45.3938846],[-74.1851396,45.3930208],[-74.1862503,45.3881916],[-74.1873132,45.3842184],[-74.18763058622062,45.38260611542425],[-74.19330254235015,45.38326966541497]],[[-74.1888452,45.384118],[-74.1889089,45.3839817],[-74.1892454,45.3840201],[-74.1893969,45.3838838],[-74.1892029,45.3837284],[-74.1892878,45.3836773],[-74.189206,45.3835495],[-74.1894303,45.3835453],[-74.1892757,45.3834388],[-74.1893454,45.3833174],[-74.1892332,45.3832131],[-74.1892545,45.3830619],[-74.1888998,45.3830918],[-74.1885845,45.3833174],[-74.1885754,45.3832323],[-74.1882632,45.38326],[-74.1881632,45.3833643],[-74.1882571,45.3834324],[-74.1881025,45.3835474],[-74.1882329,45.3840243],[-74.1888452,45.384118]]]}},{"type":"Feature","properties":{"id":"reserve-naturelle-du-marecage-des-chenaux-de-vaudreuil-219491","name":"Réserve naturelle du Marécage-des-Chenaux-de-Vaudreuil","type":"park"},"geometry":{"type":"Polygon","coordinates":[[[-74.0145307,45.4173678],[-74.0149752,45.4183206],[-74.0156725,45.4180752],[-74.0157396,45.41822],[-74.0151968,45.4184004],[-74.015485,45.4189123],[-74.0160893,45.4187827],[-74.0161146,45.4187015],[-74.0162814,45.4188725],[-74.0147632,45.4192279],[-74.0144351,45.418662],[-74.0135233,45.4189859],[-74.0140724,45.4193981],[-74.0141014,45.4195741],[-74.0135584,45.4201483],[-74.0132436,45.4203587],[-74.0129948,45.4204575],[-74.0124022,45.4204586],[-74.0124653,45.4212745],[-74.0107804,45.4216831],[-74.0100526,45.4219899],[-74.0099047,45.4219595],[-74.009266,45.4225542],[-74.0090643,45.4224493],[-74.0084477,45.4224317],[-74.0081346,45.4226653],[-74.0080765,45.4228667],[-74.0076229,45.4228697],[-74.0075998,45.422545],[-74.0077972,45.4222106],[-74.0078444,45.4219666],[-74.0083894,45.4217016],[-74.0083765,45.4214877],[-74.0082006,45.4211473],[-74.0087456,45.4205901],[-74.0087842,45.4201864],[-74.0089252,45.4198398],[-74.008996,45.4197608],[-74.0093756,45.4196782],[-74.0093946,45.419465],[-74.0095401,45.4192588],[-74.0103114,45.4191678],[-74.0103662,45.4190756],[-74.0100781,45.4188236],[-74.0108412,45.4185166],[-74.0098874,45.4181768],[-74.0095118,45.4182206],[-74.0092008,45.4181091],[-74.0145307,45.4173678]]]}}]}
