{"type":"FeatureCollection","features":[{"type":"Feature","properties":{"category":"airport"},"geometry":{"type":"MultiPolygon","coordinates":[[[[2.060735261770182,41.291274611363676],[2.058938631201943,41.291274611363676],[2.058938631201943,41.29262452206711],[2.0571420006337044,41.29262452206711],[2.0571420006337044,41.293974404837506],[2.0571420006337044,41.29532425967469],[2.055345370065465,41.29532425967469],[2.055345370065465,41.29667408657852],[2.0571420006337044,41.29667408657852],[2.0571420006337044,41.29802388554878],[2.058938631201943,41.29802388554878],[2.060735261770182,41.29802388554878],[2.0625318923384213,41.29802388554878],[2.0643285229066604,41.29802388554878],[2.0643285229066604,41.299373656585324],[2.0661251534748994,41.299373656585324],[2.0679217840431385,41.299373656585324],[2.0679217840431385,41.300723399688],[2.0697184146113776,41.300723399688],[2.0715150451796163,41.300723399688],[2.0733116757478554,41.300723399688],[2.075108306316095,41.300723399688],[2.075108306316095,41.302073114856626],[2.0769049368843335,41.302073114856626],[2.0787015674525726,41.302073114856626],[2.0787015674525726,41.303422802091],[2.0804981980208117,41.303422802091],[2.082294828589051,41.303422802091],[2.082294828589051,41.30477246139097],[2.082294828589051,41.30612209275638],[2.08409145915729,41.30612209275638],[2.085888089725529,41.30612209275638],[2.085888089725529,41.30747169618704],[2.087684720293768,41.30747169618704],[2.087684720293768,41.308821271682795],[2.0894813508620067,41.308821271682795],[2.0912779814302462,41.308821271682795],[2.0912779814302462,41.31017081924347],[2.093074611998485,41.31017081924347],[2.093074611998485,41.311520338868874],[2.094871242566724,41.311520338868874],[2.0966678731349635,41.311520338868874],[2.098464503703202,41.311520338868874],[2.098464503703202,41.31017081924347],[2.1002611342714412,41.31017081924347],[2.1002611342714412,41.311520338868874],[2.1002611342714412,41.312869830558874],[2.10205776483968,41.312869830558874],[2.1038543954079194,41.312869830558874],[2.105651025976158,41.312869830558874],[2.105651025976158,41.311520338868874],[2.105651025976158,41.31017081924347],[2.107447656544397,41.31017081924347],[2.107447656544397,41.308821271682795],[2.1092442871126367,41.308821271682795],[2.1092442871126367,41.30747169618704],[2.1092442871126367,41.30612209275638],[2.107447656544397,41.30612209275638],[2.107447656544397,41.30477246139097],[2.107447656544397,41.303422802091],[2.105651025976158,41.303422802091],[2.105651025976158,41.302073114856626],[2.105651025976158,41.300723399688],[2.1038543954079194,41.300723399688],[2.1038543954079194,41.299373656585324],[2.10205776483968,41.299373656585324],[2.10205776483968,41.29802388554878],[2.10205776483968,41.29667408657852],[2.10205776483968,41.29532425967469],[2.10205776483968,41.293974404837506],[2.1038543954079194,41.293974404837506],[2.105651025976158,41.293974404837506],[2.107447656544397,41.293974404837506],[2.107447656544397,41.29262452206711],[2.107447656544397,41.291274611363676],[2.105651025976158,41.291274611363676],[2.1038543954079194,41.291274611363676],[2.1038543954079194,41.28992467272737],[2.10205776483968,41.28992467272737],[2.1002611342714412,41.28992467272737],[2.1002611342714412,41.28857470615839],[2.098464503703202,41.28857470615839],[2.0966678731349635,41.28857470615839],[2.094871242566724,41.28857470615839],[2.094871242566724,41.28722471165689],[2.093074611998485,41.28722471165689],[2.0912779814302462,41.28722471165689],[2.0912779814302462,41.28587468922304],[2.0894813508620067,41.28587468922304],[2.0894813508620067,41.28452463885703],[2.087684720293768,41.28452463885703],[2.085888089725529,41.28452463885703],[2.08409145915729,41.28452463885703],[2.08409145915729,41.28317456055898],[2.082294828589051,41.28317456055898],[2.0804981980208117,41.28317456055898],[2.0804981980208117,41.28182445432915],[2.0787015674525726,41.28182445432915],[2.0769049368843335,41.28182445432915],[2.0769049368843335,41.28047432016763],[2.075108306316095,41.28047432016763],[2.0733116757478554,41.28047432016763],[2.0715150451796163,41.28047432016763],[2.0715150451796163,41.28182445432915],[2.0715150451796163,41.28317456055898],[2.0715150451796163,41.28452463885703],[2.0715150451796163,41.28587468922304],[2.0733116757478554,41.28587468922304],[2.0733116757478554,41.28722471165689],[2.075108306316095,41.28722471165689],[2.0769049368843335,41.28722471165689],[2.0769049368843335,41.28857470615839],[2.0769049368843335,41.28992467272737],[2.075108306316095,41.28992467272737],[2.075108306316095,41.291274611363676],[2.0733116757478554,41.291274611363676],[2.0733116757478554,41.28992467272737],[2.0715150451796163,41.28992467272737],[2.0697184146113776,41.28992467272737],[2.0679217840431385,41.28992467272737],[2.0679217840431385,41.28857470615839],[2.0661251534748994,41.28857470615839],[2.0643285229066604,41.28857470615839],[2.0643285229066604,41.28992467272737],[2.0625318923384213,41.28992467272737],[2.060735261770182,41.28992467272737],[2.060735261770182,41.291274611363676]]],[[[1.7696811097154572,41.368174935354034],[1.7696811097154572,41.36682658916233],[1.7678844791472181,41.36682658916233],[1.7660878485789793,41.36682658916233],[1.7660878485789793,41.368174935354034],[1.7642912180107402,41.368174935354034],[1.7642912180107402,41.3695232536032],[1.7660878485789793,41.3695232536032],[1.7678844791472181,41.3695232536032],[1.7678844791472181,41.368174935354034],[1.7696811097154572,41.368174935354034]]],[[[1.6546967533481587,41.58086253912321],[1.6529001227799196,41.58086253912321],[1.6529001227799196,41.58220644039159],[1.6529001227799196,41.583550313691674],[1.6529001227799196,41.58489415902323],[1.6546967533481587,41.58489415902323],[1.6546967533481587,41.583550313691674],[1.6546967533481587,41.58220644039159],[1.6546967533481587,41.58086253912321]]],[[[1.6529001227799196,41.58758176578015],[1.6529001227799196,41.5862379763861],[1.6529001227799196,41.58489415902323],[1.6511034922116803,41.58489415902323],[1.6511034922116803,41.5862379763861],[1.6511034922116803,41.58758176578015],[1.6493068616434414,41.58758176578015],[1.6493068616434414,41.58892552720524],[1.6511034922116803,41.58892552720524],[1.6529001227799196,41.58892552720524],[1.6529001227799196,41.58758176578015]]],[[[2.10205776483968,41.525738508317986],[2.10205776483968,41.52708355615256],[2.1038543954079194,41.52708355615256],[2.105651025976158,41.52708355615256],[2.105651025976158,41.525738508317986],[2.105651025976158,41.5243934325217],[2.107447656544397,41.5243934325217],[2.107447656544397,41.52304832876389],[2.1092442871126367,41.52304832876389],[2.1092442871126367,41.5217031970447],[2.1092442871126367,41.52035803736432],[2.1110409176808753,41.52035803736432],[2.1110409176808753,41.51901284972289],[2.1110409176808753,41.51766763412057],[2.1110409176808753,41.516322390557534],[2.1092442871126367,41.516322390557534],[2.107447656544397,41.516322390557534],[2.107447656544397,41.51766763412057],[2.105651025976158,41.51766763412057],[2.105651025976158,41.51901284972289],[2.1038543954079194,41.51901284972289],[2.1038543954079194,41.52035803736432],[2.10205776483968,41.52035803736432],[2.10205776483968,41.5217031970447],[2.1002611342714412,41.5217031970447],[2.098464503703202,41.5217031970447],[2.098464503703202,41.52304832876389],[2.1002611342714412,41.52304832876389],[2.1002611342714412,41.5243934325217],[2.10205776483968,41.5243934325217],[2.10205776483968,41.525738508317986]]],[[[2.1308038539315053,41.78615412660038],[2.1290072233632658,41.78615412660038],[2.1290072233632658,41.7874937469206],[2.1290072233632658,41.78883333924917],[2.1308038539315053,41.78883333924917],[2.1308038539315053,41.7874937469206],[2.132600484499744,41.7874937469206],[2.132600484499744,41.78615412660038],[2.1308038539315053,41.78615412660038]]],[[[2.1128375482491144,41.8008884105575],[2.1128375482491144,41.79954907016046],[2.1128375482491144,41.798209701770425],[2.1110409176808753,41.798209701770425],[2.1110409176808753,41.79954907016046],[2.1110409176808753,41.8008884105575],[2.1110409176808753,41.8022277229614],[2.1110409176808753,41.803567007372045],[2.1128375482491144,41.803567007372045],[2.1128375482491144,41.8022277229614],[2.1128375482491144,41.8008884105575]]]]}},{"type":"Feature","properties":{"category":"military"},"geometry":{"type":"MultiPolygon","coordinates":[[[[2.039175694951314,41.339853797657696],[2.0409723255195527,41.339853797657696],[2.0409723255195527,41.338504864711894],[2.0409723255195527,41.33715590382725],[2.039175694951314,41.33715590382725],[2.0373790643830745,41.33715590382725],[2.0373790643830745,41.338504864711894],[2.0373790643830745,41.339853797657696],[2.039175694951314,41.339853797657696]]],[[[1.7678844791472181,41.64265304785085],[1.7696811097154572,41.64265304785085],[1.7696811097154572,41.641310405312986],[1.7696811097154572,41.63996773479989],[1.7678844791472181,41.63996773479989],[1.7660878485789793,41.63996773479989],[1.7660878485789793,41.641310405312986],[1.7660878485789793,41.64265304785085],[1.7678844791472181,41.64265304785085]]],[[[2.075108306316095,41.28047432016763],[2.0769049368843335,41.28047432016763],[2.0769049368843335,41.28182445432915],[2.0787015674525726,41.28182445432915],[2.0804981980208117,41.28182445432915],[2.0804981980208117,41.28047432016763],[2.0804981980208117,41.27912415807461],[2.0787015674525726,41.27912415807461],[2.0769049368843335,41.27912415807461],[2.0769049368843335,41.27777396805029],[2.075108306316095,41.27777396805029],[2.0733116757478554,41.27777396805029],[2.0733116757478554,41.27912415807461],[2.0733116757478554,41.28047432016763],[2.075108306316095,41.28047432016763]]]]}},{"type":"Feature","properties":{"category":"prison"},"geometry":{"type":"MultiPolygon","coordinates":[[[[1.8846654660827558,41.46518241785427],[1.882868835514517,41.46518241785427],[1.882868835514517,41.466528723805474],[1.881072204946278,41.466528723805474],[1.881072204946278,41.467875001802064],[1.881072204946278,41.46922125184392],[1.882868835514517,41.46922125184392],[1.8846654660827558,41.46922125184392],[1.886462096650995,41.46922125184392],[1.886462096650995,41.467875001802064],[1.886462096650995,41.466528723805474],[1.8846654660827558,41.466528723805474],[1.8846654660827558,41.46518241785427]]],[[[1.882868835514517,41.470567473930885],[1.881072204946278,41.470567473930885],[1.8792755743780392,41.470567473930885],[1.8792755743780392,41.47191366806276],[1.8792755743780392,41.47325983423939],[1.8792755743780392,41.47460597246063],[1.8792755743780392,41.475952082726316],[1.881072204946278,41.475952082726316],[1.882868835514517,41.475952082726316],[1.882868835514517,41.47460597246063],[1.882868835514517,41.47325983423939],[1.882868835514517,41.47191366806276],[1.882868835514517,41.470567473930885]]],[[[1.8110036127849554,41.76069602229765],[1.8110036127849554,41.759355842175324],[1.809206982216716,41.759355842175324],[1.8074103516484772,41.759355842175324],[1.8056137210802383,41.759355842175324],[1.8056137210802383,41.76069602229765],[1.8056137210802383,41.76203617443127],[1.8074103516484772,41.76203617443127],[1.809206982216716,41.76203617443127],[1.809206982216716,41.76069602229765],[1.8110036127849554,41.76069602229765]]],[[[2.294297235641258,41.57683066750944],[2.292500605073019,41.57683066750944],[2.292500605073019,41.578174652681945],[2.2907039745047797,41.578174652681945],[2.2907039745047797,41.579518609886584],[2.292500605073019,41.579518609886584],[2.292500605073019,41.58086253912321],[2.294297235641258,41.58086253912321],[2.2960938662094965,41.58086253912321],[2.2960938662094965,41.579518609886584],[2.297890496777736,41.579518609886584],[2.297890496777736,41.578174652681945],[2.297890496777736,41.57683066750944],[2.297890496777736,41.5754866543692],[2.2960938662094965,41.5754866543692],[2.2960938662094965,41.57683066750944],[2.294297235641258,41.57683066750944]]],[[[2.1900926626833934,41.590269260661195],[2.1918892932516325,41.590269260661195],[2.1918892932516325,41.58892552720524],[2.1918892932516325,41.58758176578015],[2.1918892932516325,41.5862379763861],[2.1900926626833934,41.5862379763861],[2.1900926626833934,41.58758176578015],[2.1900926626833934,41.58892552720524],[2.1900926626833934,41.590269260661195]]]]}}]}
