{"type":"FeatureCollection","features":[{"type":"Feature","properties":{"category":"airport"},"geometry":{"type":"MultiPolygon","coordinates":[[[[-73.25222152824226,45.50262721198262],[-73.25222152824226,45.50388641415012],[-73.25042489767402,45.50388641415012],[-73.25042489767402,45.50514558815342],[-73.24862826710577,45.50514558815342],[-73.24862826710577,45.50388641415012],[-73.24683163653754,45.50388641415012],[-73.2450350059693,45.50388641415012],[-73.2450350059693,45.50262721198262],[-73.24683163653754,45.50262721198262],[-73.24862826710577,45.50262721198262],[-73.25042489767402,45.50262721198262],[-73.25222152824226,45.50262721198262]]],[[[-73.24144174483283,45.5907033483549],[-73.24323837540106,45.5907033483549],[-73.24323837540106,45.591960579082475],[-73.2450350059693,45.591960579082475],[-73.2450350059693,45.59321778164748],[-73.24323837540106,45.59321778164748],[-73.24144174483283,45.59321778164748],[-73.23964511426459,45.59321778164748],[-73.23964511426459,45.591960579082475],[-73.23784848369634,45.591960579082475],[-73.23784848369634,45.5907033483549],[-73.2360518531281,45.5907033483549],[-73.2360518531281,45.589446089464744],[-73.23425522255987,45.589446089464744],[-73.23425522255987,45.58818880241196],[-73.23425522255987,45.586931487196544],[-73.23425522255987,45.58567414381846],[-73.2360518531281,45.58567414381846],[-73.2360518531281,45.586931487196544],[-73.23784848369634,45.586931487196544],[-73.23784848369634,45.58818880241196],[-73.23964511426459,45.58818880241196],[-73.23964511426459,45.589446089464744],[-73.24144174483283,45.589446089464744],[-73.24144174483283,45.5907033483549]]]]}},{"type":"Feature","properties":{"category":"military"},"geometry":{"type":"MultiPolygon","coordinates":[[[[-73.29713729244824,45.54416601292229],[-73.29713729244824,45.545424285682294],[-73.29893392301648,45.545424285682294],[-73.29893392301648,45.546682530278794],[-73.30073055358471,45.546682530278794],[-73.30073055358471,45.547940746711866],[-73.30252718415295,45.547940746711866],[-73.30252718415295,45.546682530278794],[-73.3043238147212,45.546682530278794],[-73.3043238147212,45.547940746711866],[-73.3043238147212,45.549198934981504],[-73.3043238147212,45.55045709508774],[-73.3043238147212,45.55171522703059],[-73.3043238147212,45.5529733308101],[-73.3043238147212,45.55423140642624],[-73.3043238147212,45.55548945387911],[-73.30612044528944,45.55548945387911],[-73.30612044528944,45.55674747316868],[-73.30612044528944,45.55800546429499],[-73.30791707585767,45.55800546429499],[-73.30791707585767,45.55926342725809],[-73.30971370642591,45.55926342725809],[-73.30971370642591,45.56052136205795],[-73.31151033699415,45.56052136205795],[-73.31330696756238,45.56052136205795],[-73.31330696756238,45.56177926869461],[-73.31330696756238,45.563037147168124],[-73.31330696756238,45.564294997478534],[-73.31330696756238,45.56555281962577],[-73.31330696756238,45.56681061360996],[-73.31151033699415,45.56681061360996],[-73.31151033699415,45.568068379431075],[-73.31151033699415,45.56932611708911],[-73.31151033699415,45.57058382658418],[-73.31151033699415,45.57184150791623],[-73.31151033699415,45.5730991610853],[-73.31151033699415,45.57435678609146],[-73.30971370642591,45.57435678609146],[-73.30971370642591,45.5730991610853],[-73.30791707585767,45.5730991610853],[-73.30612044528944,45.5730991610853],[-73.30612044528944,45.57435678609146],[-73.3043238147212,45.57435678609146],[-73.30252718415295,45.57435678609146],[-73.30252718415295,45.57561438293469],[-73.30073055358471,45.57561438293469],[-73.30073055358471,45.576871951615026],[-73.29893392301648,45.576871951615026],[-73.29893392301648,45.57561438293469],[-73.29713729244824,45.57561438293469],[-73.29534066188,45.57561438293469],[-73.29534066188,45.57435678609146],[-73.29354403131175,45.57435678609146],[-73.29354403131175,45.5730991610853],[-73.29354403131175,45.57184150791623],[-73.29354403131175,45.57058382658418],[-73.29354403131175,45.56932611708911],[-73.29174740074352,45.56932611708911],[-73.29174740074352,45.568068379431075],[-73.28995077017528,45.568068379431075],[-73.28995077017528,45.56681061360996],[-73.28995077017528,45.56555281962577],[-73.28995077017528,45.564294997478534],[-73.28995077017528,45.563037147168124],[-73.29174740074352,45.563037147168124],[-73.29174740074352,45.56177926869461],[-73.29174740074352,45.56052136205795],[-73.29174740074352,45.55926342725809],[-73.29174740074352,45.55800546429499],[-73.29174740074352,45.55674747316868],[-73.29174740074352,45.55548945387911],[-73.29174740074352,45.55423140642624],[-73.29174740074352,45.5529733308101],[-73.29174740074352,45.55171522703059],[-73.28995077017528,45.55171522703059],[-73.28995077017528,45.55045709508774],[-73.28815413960703,45.55045709508774],[-73.28815413960703,45.549198934981504],[-73.28995077017528,45.549198934981504],[-73.28995077017528,45.547940746711866],[-73.28995077017528,45.546682530278794],[-73.28995077017528,45.545424285682294],[-73.29174740074352,45.545424285682294],[-73.29174740074352,45.54416601292229],[-73.29174740074352,45.5429077119988],[-73.29354403131175,45.5429077119988],[-73.29534066188,45.5429077119988],[-73.29534066188,45.54416601292229],[-73.29713729244824,45.54416601292229]]]]}}]}
