{"type":"FeatureCollection","features":[{"type":"Feature","properties":{"id":"parc-michel-martin-294430","name":"Parc Michel-Martin","type":"park"},"geometry":{"type":"Polygon","coordinates":[[[-73.9560673,45.3931057],[-73.9550793,45.3925798],[-73.9547407,45.3929037],[-73.954322,45.3926641],[-73.9536184,45.3924377],[-73.9542962,45.3915016],[-73.954736,45.3916374],[-73.9559904,45.3900115],[-73.9570365,45.3905543],[-73.9567092,45.3908349],[-73.957926,45.3915096],[-73.9577424,45.3916693],[-73.9579887,45.3918122],[-73.9579151,45.3918716],[-73.9576771,45.3917354],[-73.9560673,45.3931057]]]}},{"type":"Feature","properties":{"id":"parc-de-la-famille-294432","name":"Parc de la Famille","type":"park"},"geometry":{"type":"Polygon","coordinates":[[[-73.9465319,45.3884237],[-73.9459801,45.3882814],[-73.9460548,45.3881455],[-73.9457984,45.3878362],[-73.9454148,45.3877462],[-73.9452997,45.3879071],[-73.9451589,45.387773],[-73.9453476,45.3874467],[-73.9450901,45.3872056],[-73.9458731,45.3854957],[-73.9474097,45.3858694],[-73.947525,45.3859587],[-73.9473033,45.3864509],[-73.947391,45.3866041],[-73.9465319,45.3884237]]]}},{"type":"Feature","properties":{"id":"parc-des-chardonnerets-304613","name":"Parc des Chardonnerets","type":"park"},"geometry":{"type":"Polygon","coordinates":[[[-73.9231882,45.3824777],[-73.9228886,45.3831541],[-73.9219685,45.3829748],[-73.9224263,45.3827935],[-73.9218864,45.382129],[-73.9231882,45.3824777]]]}},{"type":"Feature","properties":{"id":"parc-shamrock-539336","name":"Parc Shamrock","type":"park"},"geometry":{"type":"Polygon","coordinates":[[[-73.9843001,45.3832675],[-73.983793,45.3822368],[-73.9861157,45.3816928],[-73.9866217,45.3827259],[-73.9843001,45.3832675]]]}},{"type":"Feature","properties":{"id":"parc-donat-bouthillier-539342","name":"Parc Donat-Bouthillier","type":"park"},"geometry":{"type":"Polygon","coordinates":[[[-73.983963,45.3919544],[-73.9833733,45.3914695],[-73.9833596,45.3913539],[-73.9856669,45.3904061],[-73.9860773,45.3907494],[-73.9865807,45.3904442],[-73.9870306,45.3908341],[-73.9864026,45.3911027],[-73.9861691,45.3910928],[-73.9856855,45.3913639],[-73.9842066,45.3919445],[-73.983963,45.3919544]]]}},{"type":"Feature","properties":{"id":"parc-des-cedres-543775","name":"Parc des Cèdres","type":"park"},"geometry":{"type":"Polygon","coordinates":[[[-74.0550324,45.3079613],[-74.0551402,45.3079873],[-74.055394,45.3083194],[-74.0555109,45.3082723],[-74.0561678,45.3090774],[-74.054236,45.3098377],[-74.0531114,45.308469],[-74.0542829,45.3079894],[-74.0544529,45.3081954],[-74.0550324,45.3079613]]]}},{"type":"Feature","properties":{"id":"parc-de-dorion-gardens-569370","name":"Parc de Dorion-Gardens","type":"park"},"geometry":{"type":"Polygon","coordinates":[[[-74.0292166,45.378411],[-74.032942,45.3766803],[-74.0344419,45.3784464],[-74.0350169,45.3793025],[-74.0333645,45.3801097],[-74.0327874,45.379518],[-74.0324791,45.3796423],[-74.0319526,45.3789849],[-74.0304502,45.3796942],[-74.0292166,45.378411]]]}},{"type":"Feature","properties":{"id":"parc-trudeau-569708","name":"Parc Trudeau","type":"park"},"geometry":{"type":"Polygon","coordinates":[[[-74.0148597,45.3754591],[-74.017463,45.3742124],[-74.0177693,45.3745456],[-74.0177037,45.3746446],[-74.0155515,45.3756711],[-74.0155187,45.3756227],[-74.0149305,45.3757184],[-74.0148597,45.3754591]]]}},{"type":"Feature","properties":{"id":"parc-sainte-trinite-569735","name":"Parc Sainte-Trinité","type":"park"},"geometry":{"type":"Polygon","coordinates":[[[-74.0171231,45.388423],[-74.0163484,45.3887938],[-74.0161053,45.3885247],[-74.0168698,45.3881643],[-74.0171231,45.388423]]]}},{"type":"Feature","properties":{"id":"parc-de-vaudreuil-dorion-570448","name":"Parc de Vaudreuil-Dorion","type":"park"},"geometry":{"type":"Polygon","coordinates":[[[-74.0363601,45.3999144],[-74.0367617,45.3997466],[-74.0373351,45.3999998],[-74.0367011,45.4003003],[-74.0363601,45.3999144]]]}},{"type":"Feature","properties":{"id":"parc-esther-blondin-571330","name":"Parc Esther-Blondin","type":"park"},"geometry":{"type":"Polygon","coordinates":[[[-74.0230917,45.4002297],[-74.0233394,45.3993217],[-74.0235343,45.3991197],[-74.0245195,45.3998304],[-74.0232525,45.4006816],[-74.0228862,45.40043],[-74.0230917,45.4002297]]]}},{"type":"Feature","properties":{"id":"parc-des-patriotes-578799","name":"Parc des Patriotes","type":"park"},"geometry":{"type":"Polygon","coordinates":[[[-74.0252918,45.4069084],[-74.0246916,45.407603],[-74.0238786,45.4072595],[-74.0244692,45.406563],[-74.0252918,45.4069084]]]}},{"type":"Feature","properties":{"id":"parc-de-la-seigneurie-3-579342","name":"Parc de la Seigneurie (3)","type":"park"},"geometry":{"type":"Polygon","coordinates":[[[-74.0564171,45.4157313],[-74.0572906,45.415576],[-74.0576336,45.4161381],[-74.0581153,45.4160998],[-74.0576677,45.416182],[-74.0578943,45.4165545],[-74.0565874,45.4163636],[-74.0565137,45.4166685],[-74.0561223,45.4166133],[-74.0558041,45.4164595],[-74.0556059,45.4161316],[-74.0557319,45.4157897],[-74.0562025,45.4155072],[-74.0564171,45.4157313]]]}},{"type":"Feature","properties":{"id":"parc-du-grand-pre-586032","name":"Parc du Grand-Pré","type":"park"},"geometry":{"type":"Polygon","coordinates":[[[-74.1140343,45.3929367],[-74.1148127,45.3937295],[-74.1138517,45.394237],[-74.1137216,45.3941969],[-74.1129784,45.3934874],[-74.1140343,45.3929367]]]}},{"type":"Feature","properties":{"id":"parc-de-la-vallee-chaline-586468","name":"Parc de la Vallée-Chaline","type":"park"},"geometry":{"type":"Polygon","coordinates":[[[-74.0920229,45.3806309],[-74.092478,45.3810955],[-74.0912065,45.3813989],[-74.0906499,45.3812232],[-74.0908781,45.3808602],[-74.0912835,45.3806411],[-74.0916051,45.3808255],[-74.0920229,45.3806309]]]}},{"type":"Feature","properties":{"id":"parc-sanderson-596444","name":"Parc Sanderson","type":"park"},"geometry":{"type":"Polygon","coordinates":[[[-74.1075225,45.4408531],[-74.1071445,45.441012],[-74.1067929,45.4407702],[-74.1058541,45.4412195],[-74.1055653,45.4411459],[-74.1053959,45.4412216],[-74.1052323,45.4410678],[-74.1065399,45.4403965],[-74.1075225,45.4408531]]]}},{"type":"Feature","properties":{"id":"parc-benson-607695","name":"Parc Benson","type":"park"},"geometry":{"type":"Polygon","coordinates":[[[-74.1438899,45.460169],[-74.144697,45.46067],[-74.1438398,45.4615445],[-74.1430457,45.460951],[-74.1433848,45.4607225],[-74.1438899,45.460169]]]}},{"type":"Feature","properties":{"id":"parc-bedard-611824","name":"Parc Bédard","type":"park"},"geometry":{"type":"Polygon","coordinates":[[[-74.1375275,45.4011645],[-74.1397918,45.4014433],[-74.1393383,45.4032704],[-74.1388646,45.4032267],[-74.1387671,45.4036775],[-74.1381927,45.4036206],[-74.1379651,45.4040038],[-74.137204,45.4039273],[-74.1369656,45.4040083],[-74.1369279,45.4037998],[-74.1371231,45.4029658],[-74.1365647,45.4028979],[-74.1371456,45.4029267],[-74.1375275,45.4011645]]]}},{"type":"Feature","properties":{"id":"parc-des-cedres-2-612413","name":"Parc des Cèdres (2)","type":"park"},"geometry":{"type":"Polygon","coordinates":[[[-74.160199,45.3780953],[-74.1602283,45.3783833],[-74.1615139,45.3783552],[-74.1609415,45.3789795],[-74.1607891,45.379003],[-74.1576305,45.3786697],[-74.1579952,45.3781853],[-74.160199,45.3780953]]]}},{"type":"Feature","properties":{"id":"parc-olympique-410998","name":"Parc Olympique","type":"park"},"geometry":{"type":"Polygon","coordinates":[[[-73.9920571,45.3694621],[-73.9929012,45.371339],[-73.9928456,45.371432],[-73.9875646,45.3726065],[-73.9867436,45.3709664],[-73.9868198,45.3708714],[-73.9876997,45.3706518],[-73.9881662,45.3703364],[-73.9891528,45.3699192],[-73.9892944,45.3701769],[-73.991633,45.3696537],[-73.9915849,45.3695635],[-73.9920571,45.3694621]]]}},{"type":"Feature","properties":{"id":"parc-des-hirondelles-2-411068","name":"Parc des Hirondelles (2)","type":"park"},"geometry":{"type":"Polygon","coordinates":[[[-73.9068187,45.3483622],[-73.9073487,45.350312],[-73.9074463,45.3504156],[-73.9076083,45.3504364],[-73.9073812,45.350462],[-73.9074442,45.3507198],[-73.907061,45.3507559],[-73.9071073,45.3509227],[-73.9066489,45.3509816],[-73.9064588,45.3503644],[-73.9062644,45.3501352],[-73.9057389,45.3497391],[-73.9050589,45.3494716],[-73.9047919,45.3492375],[-73.9046254,45.3485847],[-73.9068187,45.3483622]]]}},{"type":"Feature","properties":{"id":"parc-taillon-645849","name":"Parc Taillon","type":"park"},"geometry":{"type":"Polygon","coordinates":[[[-73.9739572,45.3560072],[-73.9752541,45.3563806],[-73.9756397,45.3577259],[-73.9754273,45.3576965],[-73.9751517,45.3578669],[-73.9750828,45.3578488],[-73.9753501,45.35767],[-73.9753386,45.3575392],[-73.9739321,45.3575219],[-73.974068,45.3568102],[-73.9739572,45.3560072]]]}},{"type":"Feature","properties":{"id":"parc-historique-pointe-du-moulin-073672","name":"Parc historique Pointe-du-Moulin","type":"park"},"geometry":{"type":"Polygon","coordinates":[[[-73.8564332905645,45.36884048440171],[-73.8558756,45.3676769],[-73.8553773,45.3671376],[-73.8550739,45.3670593],[-73.8544672,45.3670658],[-73.8542195,45.3669049],[-73.8541638,45.3667157],[-73.853975,45.3665895],[-73.8527894,45.3663416],[-73.8520279,45.3658588],[-73.8527419,45.3659191],[-73.8536933,45.3656],[-73.8545569,45.3655282],[-73.8548046,45.3653368],[-73.8546436,45.3650367],[-73.8555135,45.3645321],[-73.8556961,45.3642341],[-73.8565783,45.3642385],[-73.8572501,45.3641232],[-73.8580725,45.3678305],[-73.8578869,45.3678548],[-73.8580502,45.3679869],[-73.8581947,45.3684195],[-73.8580314,45.3685967],[-73.8564332905645,45.36884048440171]]]}},{"type":"Feature","properties":{"id":"parc-castonguay-049375","name":"Parc Castonguay","type":"park"},"geometry":{"type":"Polygon","coordinates":[[[-74.0410804,45.3975989],[-74.0421342,45.396432],[-74.0427186,45.3966918],[-74.0416743,45.3978609],[-74.0410804,45.3975989]]]}},{"type":"Feature","properties":{"id":"parc-jean-jacques-bertrand-2-948164","name":"Parc Jean-Jacques-Bertrand (2)","type":"park"},"geometry":{"type":"Polygon","coordinates":[[[-74.0654324,45.4123746],[-74.0650494,45.4120012],[-74.0646717,45.4121487],[-74.0656399,45.4116483],[-74.0653899,45.4114074],[-74.0657214,45.4116869],[-74.0664015,45.4119007],[-74.0659716,45.4125557],[-74.0654324,45.4123746]]]}},{"type":"Feature","properties":{"id":"parc-louise-josephte-620644","name":"Parc Louise-Josephte","type":"park"},"geometry":{"type":"Polygon","coordinates":[[[-74.0271648,45.4024431],[-74.0261408,45.4017469],[-74.0271409,45.4010845],[-74.0276003,45.4014808],[-74.0279464,45.4019335],[-74.0271648,45.4024431]]]}},{"type":"Feature","properties":{"id":"parc-des-siffleurs-621469","name":"Parc des Siffleurs","type":"park"},"geometry":{"type":"Polygon","coordinates":[[[-74.0266394,45.41067],[-74.0262505,45.4111361],[-74.0255275,45.4108364],[-74.0259635,45.4103587],[-74.0266394,45.41067]]]}},{"type":"Feature","properties":{"id":"parc-des-eperviers-812535","name":"Parc des Éperviers","type":"park"},"geometry":{"type":"Polygon","coordinates":[[[-73.9331508,45.3864282],[-73.9326757,45.3862559],[-73.9317455,45.3863847],[-73.9309974,45.3867845],[-73.9309163,45.3871701],[-73.9306133,45.3870995],[-73.9307852,45.3867069],[-73.9298111,45.3864821],[-73.9304781,45.3851117],[-73.9336632,45.3849092],[-73.9346436,45.385101],[-73.9340682,45.38631],[-73.9337576,45.3866884],[-73.9335763,45.386807],[-73.9331508,45.3864282]],[[-73.9319685,45.3858251],[-73.9322618,45.3853701],[-73.9325116,45.3852871],[-73.9316873,45.3852987],[-73.9314749,45.3857221],[-73.9319685,45.3858251]]]}},{"type":"Feature","properties":{"id":"parc-de-cedarbrook-320509","name":"Parc de Cedarbrook","type":"park"},"geometry":{"type":"Polygon","coordinates":[[[-74.1575937,45.4033521],[-74.1577748,45.4024717],[-74.1595035,45.4026071],[-74.1594238,45.4032767],[-74.1592594,45.4034648],[-74.1586545,45.4036776],[-74.158637,45.4038442],[-74.1589324,45.4041546],[-74.158488,45.4043458],[-74.1575937,45.4033521]]]}},{"type":"Feature","properties":{"id":"parc-de-saddlebrook-320555","name":"Parc de Saddlebrook","type":"park"},"geometry":{"type":"Polygon","coordinates":[[[-74.1759682,45.4315002],[-74.1742806,45.4309908],[-74.1741941,45.4311058],[-74.1731553,45.430823],[-74.1723058,45.4305059],[-74.1727072,45.4299749],[-74.1718481,45.4295575],[-74.1720115,45.4293653],[-74.1725095,45.4295957],[-74.1729444,45.4290616],[-74.1740291,45.4293641],[-74.1747432,45.4297431],[-74.1746018,45.4300122],[-74.1746393,45.4304401],[-74.1752169,45.4305931],[-74.1750218,45.4309543],[-74.1761039,45.4312647],[-74.1759682,45.4315002]]]}},{"type":"Feature","properties":{"id":"parc-blueberry-hjll-321112","name":"Parc Blueberry Hjll","type":"park"},"geometry":{"type":"Polygon","coordinates":[[[-74.1684476,45.4046591],[-74.1674956,45.4045238],[-74.16764,45.4039353],[-74.1686102,45.4040618],[-74.1684476,45.4046591]]]}},{"type":"Feature","properties":{"id":"parc-brazeau-334801","name":"Parc Brazeau","type":"park"},"geometry":{"type":"Polygon","coordinates":[[[-74.11537,45.3978963],[-74.114943,45.3981128],[-74.1149017,45.398074],[-74.116238,45.3973998],[-74.1169123,45.3980374],[-74.1159961,45.3985052],[-74.11537,45.3978963]]]}},{"type":"Feature","properties":{"id":"parc-frontenac-4-334971","name":"Parc Frontenac (4)","type":"park"},"geometry":{"type":"Polygon","coordinates":[[[-74.1002586,45.385783],[-74.1006225,45.3861232],[-74.1004456,45.386237],[-74.1004599,45.3863438],[-74.1008618,45.3867324],[-74.1004204,45.3869416],[-74.0996201,45.3861077],[-74.1002586,45.385783]]]}},{"type":"Feature","properties":{"id":"parc-nature-de-la-tourbiere-du-bordelais-336255","name":"Parc nature de la Tourbière-du-Bordelais","type":"park"},"geometry":{"type":"MultiPolygon","coordinates":[[[[-74.156718,45.4251048],[-74.1569275,45.4254456],[-74.1563667,45.4260447],[-74.155639,45.4259276],[-74.1557128,45.4256477],[-74.1554231,45.4254568],[-74.15484079120836,45.425429315340786],[-74.1550841,45.4253612],[-74.1559583,45.4254893],[-74.1561442,45.4252622],[-74.1560099,45.4251583],[-74.1560547,45.424709],[-74.1559239,45.4243974],[-74.1550291,45.4241148],[-74.1547709,45.4241317],[-74.1545059,45.424366],[-74.1541755,45.4245182],[-74.1541377,45.4251052],[-74.1539277,45.4253516],[-74.1539863620818,45.42538898674932],[-74.1537289,45.4253686],[-74.1528015,45.4256166],[-74.1530504,45.4261336],[-74.1527163,45.4262106],[-74.1524568,45.4257225],[-74.1520104,45.425839],[-74.1518687,45.4252709],[-74.1512863,45.425181],[-74.1510493,45.4263489],[-74.1492836,45.4261736],[-74.1496651,45.4241755],[-74.1501556,45.4242471],[-74.1502442,45.4237941],[-74.1504316,45.4237323],[-74.1504889,45.4235465],[-74.1510277,45.4236403],[-74.1522431,45.4225597],[-74.1523416,45.4220309],[-74.1525212,45.4220525],[-74.1527205,45.4213854],[-74.1519693,45.4212486],[-74.1528759,45.4205486],[-74.1555426,45.4218609],[-74.155407,45.4224774],[-74.1550709,45.4230402],[-74.1546661,45.4231505],[-74.1546249,45.4232512],[-74.154784,45.4233767],[-74.1549648,45.4233709],[-74.1551304,45.4231088],[-74.1557808,45.4233177],[-74.1553651,45.4239288],[-74.1562319,45.4240998],[-74.1565818,45.4244676],[-74.156718,45.4251048]]],[[[-74.15425063204744,45.42540146014839],[-74.1543097,45.4253951],[-74.15432108912586,45.42540478568429],[-74.15425063204744,45.42540146014839]]]]}},{"type":"Feature","properties":{"id":"parc-nature-harwood-543109","name":"Parc-Nature Harwood","type":"park"},"geometry":{"type":"Polygon","coordinates":[[[-74.1511723,45.4386335],[-74.1485365,45.4399375],[-74.1450324,45.4418703],[-74.1443756,45.4412697],[-74.1441887,45.4412722],[-74.1438917,45.4414193],[-74.1436739,45.4411131],[-74.1436739,45.4409116],[-74.1434742,45.440626],[-74.1429203,45.4408119],[-74.1428122,45.4409311],[-74.1429234,45.4415738],[-74.1417544,45.4416195],[-74.1414962,45.4414405],[-74.1406192,45.4420398],[-74.1380606,45.4412086],[-74.1414492,45.4396878],[-74.1472285,45.4368792],[-74.1511723,45.4386335]],[[-74.1466298,45.4379263],[-74.1465031,45.4378038],[-74.1463103,45.437864],[-74.1462441,45.438026],[-74.1464496,45.4381011],[-74.1466298,45.4379263]],[[-74.1461267,45.4387391],[-74.1469218,45.4386837],[-74.147043,45.4386034],[-74.147013,45.4383584],[-74.1468973,45.4383115],[-74.1465982,45.4384855],[-74.1463013,45.4384894],[-74.1462068,45.4383935],[-74.1463224,45.4382718],[-74.1462691,45.4381844],[-74.145831,45.4382483],[-74.1458143,45.4383927],[-74.1461178,45.4384145],[-74.1462368,45.4385472],[-74.1461267,45.4387391]],[[-74.1499879,45.4387639],[-74.1496675,45.4385391],[-74.1491427,45.438532],[-74.1489384,45.4386388],[-74.1489664,45.4387147],[-74.1488262,45.4388047],[-74.1489944,45.4388131],[-74.1489864,45.4389157],[-74.149347,45.4390549],[-74.1498658,45.4389073],[-74.1499879,45.4387639]],[[-74.1415268,45.4406508],[-74.1413577,45.4404839],[-74.1411187,45.4407437],[-74.1412654,45.4407885],[-74.1415268,45.4406508]],[[-74.1452443,45.4405677],[-74.1451498,45.4405647],[-74.1451326,45.4407426],[-74.1452637,45.440934],[-74.1453539,45.4408647],[-74.1452443,45.4405677]]]}},{"type":"Feature","properties":{"id":"parc-souvenir-625263","name":"Parc Souvenir","type":"park"},"geometry":{"type":"Polygon","coordinates":[[[-73.9771223,45.3843822],[-73.9779487,45.3842167],[-73.9780142,45.3843671],[-73.9772093,45.3845538],[-73.9771223,45.3843822]]]}},{"type":"Feature","properties":{"id":"parc-des-ancres-862828","name":"Parc des Ancres","type":"park"},"geometry":{"type":"Polygon","coordinates":[[[-73.969761,45.3307534],[-73.9699683,45.3310389],[-73.9698556,45.3311515],[-73.9666131,45.3322236],[-73.9664768,45.3320256],[-73.9681156,45.3314861],[-73.9685732,45.3311408],[-73.969761,45.3307534]]]}},{"type":"Feature","properties":{"id":"parc-de-pointe-des-cascades-067748","name":"Parc de Pointe-des-Cascades","type":"park"},"geometry":{"type":"Polygon","coordinates":[[[-73.969788,45.3306023],[-73.9692696,45.3299227],[-73.969274,45.3297981],[-73.9693842,45.3297146],[-73.9725366,45.329031],[-73.97280793201635,45.32944864157316],[-73.9703107,45.3302437],[-73.970023,45.3305253],[-73.969788,45.3306023]]]}},{"type":"Feature","properties":{"id":"parc-sabourin-785257","name":"Parc Sabourin","type":"park"},"geometry":{"type":"Polygon","coordinates":[[[-74.00574894294644,45.38524343115225],[-74.0060832,45.3856723],[-74.0040683,45.385847],[-74.0040777,45.3853869],[-74.0044748,45.385316],[-74.0049854,45.3850016],[-74.00574894294644,45.38524343115225]]]}},{"type":"Feature","properties":{"id":"place-dumont-785258","name":"Place Dumont","type":"park"},"geometry":{"type":"Polygon","coordinates":[[[-74.0101658,45.3843758],[-74.0099747,45.3841762],[-74.0103003,45.384003],[-74.0101658,45.3843758]]]}},{"type":"Feature","properties":{"id":"parc-ile-perrot-nord-790778","name":"Parc Ile-Perrot-Nord","type":"park"},"geometry":{"type":"Polygon","coordinates":[[[-73.9663458,45.3962023],[-73.966333,45.396295],[-73.9656227,45.3962614],[-73.965803,45.3959719],[-73.9659554,45.3959844],[-73.9662034,45.3954283],[-73.9666037,45.3956657],[-73.9663763,45.3958568],[-73.9664684,45.3959169],[-73.9661026,45.3960315],[-73.9663458,45.3962023]]]}},{"type":"Feature","properties":{"id":"parc-rene-trottier-308245","name":"Parc René-Trottier","type":"park"},"geometry":{"type":"MultiPolygon","coordinates":[[[[-73.9499858,45.3945576],[-73.9503434,45.3937984],[-73.9505399,45.3938519],[-73.9511727,45.3938069],[-73.9511863,45.3932667],[-73.9527833,45.3931461],[-73.9539518,45.3933141],[-73.9510714,45.3957718],[-73.951191,45.3956076],[-73.9509265,45.3954803],[-73.9508683,45.3953307],[-73.9503075,45.3952024],[-73.9503127,45.39511],[-73.9511172,45.3950143],[-73.9515562,45.3952049],[-73.9518119,45.3951169],[-73.9526204,45.3944132],[-73.9526567,45.394066],[-73.9527964,45.3940249],[-73.9530542,45.3937688],[-73.9523273,45.3937053],[-73.9522592,45.3934358],[-73.9518256,45.3934527],[-73.9509045,45.3942508],[-73.9508648,45.3945504],[-73.9506909,45.3947706],[-73.9504601,45.3947803],[-73.9499858,45.3945576]]],[[[-73.949896,45.3948481],[-73.950017,45.3945984],[-73.9498229,45.3951601],[-73.949896,45.3948481]]]]}},{"type":"Feature","properties":{"id":"parc-saint-thomas-505465","name":"Parc Saint-Thomas","type":"park"},"geometry":{"type":"Polygon","coordinates":[[[-74.1388395,45.4540829],[-74.1395591,45.4541745],[-74.1402856,45.4540466],[-74.1405602,45.4541901],[-74.1400759,45.454649],[-74.1407412,45.4550073],[-74.1406887,45.45506],[-74.1400323,45.4547219],[-74.1390564,45.4557414],[-74.1380254,45.4548273],[-74.1388395,45.4540829]]]}},{"type":"Feature","properties":{"id":"parc-carrefour-notre-dame-810061","name":"Parc Carrefour Notre-Dame","type":"park"},"geometry":{"type":"Polygon","coordinates":[[[-73.927927,45.377538],[-73.9274794,45.3785637],[-73.9259755,45.3782181],[-73.9264709,45.3770697],[-73.9278831,45.3774318],[-73.927927,45.377538]]]}},{"type":"Feature","properties":{"id":"parc-d-ambrosio-828062","name":"Parc d'Ambrosio","type":"park"},"geometry":{"type":"Polygon","coordinates":[[[-73.9795133,45.356607],[-73.9784034,45.3566465],[-73.9783846,45.3563459],[-73.97675967501614,45.355523876995214],[-73.9771926,45.3553519],[-73.9778911,45.3558074],[-73.9786325,45.3560819],[-73.9795133,45.356607]]]}},{"type":"Feature","properties":{"id":"parc-rene-levesque-828068","name":"Parc Réné-Lévesque","type":"park"},"geometry":{"type":"Polygon","coordinates":[[[-73.9936233,45.3611566],[-73.9940934,45.3614333],[-73.9931169,45.3620617],[-73.9929222,45.3618168],[-73.992771,45.3613499],[-73.9932711,45.3612722],[-73.9932454,45.36118],[-73.9936233,45.3611566]]]}},{"type":"Feature","properties":{"id":"parc-gilles-dicaire-857099","name":"Parc Gilles Dicaire","type":"park"},"geometry":{"type":"Polygon","coordinates":[[[-73.9976421,45.3884991],[-73.9980543,45.3881933],[-73.9982747,45.3878555],[-73.9984152,45.3874626],[-73.998231,45.3874229],[-73.9983291,45.3871781],[-73.99862261020708,45.387235741370645],[-73.9986022,45.3876833],[-73.9982071,45.3882649],[-73.9981684,45.3885178],[-73.9984403,45.3888715],[-73.9989892,45.389147],[-73.9988852,45.3891969],[-73.998612,45.3891229],[-73.998051,45.3892827],[-73.9978846,45.3890758],[-73.9982208,45.3889527],[-73.9979823,45.3886356],[-73.9976421,45.3884991]]]}},{"type":"Feature","properties":{"id":"halte-riveraine-municipale-865890","name":"Halte Riveraine Municipale","type":"park"},"geometry":{"type":"Polygon","coordinates":[[[-73.8970512,45.3916814],[-73.897272,45.3918117],[-73.8978494,45.3921227],[-73.8977203,45.3922874],[-73.8970209,45.3919011],[-73.8971643,45.3919122],[-73.8971692,45.391804],[-73.8970512,45.3916814]]]}},{"type":"Feature","properties":{"id":"halte-riveraine-municipale-2-865891","name":"Halte Riveraine Municipale (2)","type":"park"},"geometry":{"type":"Polygon","coordinates":[[[-73.89628942380722,45.393310142126936],[-73.8962604,45.3931937],[-73.8960909,45.3930949],[-73.8970248,45.3928044],[-73.8969878,45.3929922],[-73.8970528,45.3931983],[-73.89628942380722,45.393310142126936]]]}},{"type":"Feature","properties":{"id":"parc-des-becassines-865892","name":"Parc des Bécassines","type":"park"},"geometry":{"type":"Polygon","coordinates":[[[-73.9025275,45.3891456],[-73.9026352,45.3896199],[-73.9023012,45.3898045],[-73.9021659,45.3901558],[-73.9019059,45.3903758],[-73.9016832,45.3907193],[-73.9014038,45.3907452],[-73.9009321,45.3909402],[-73.9009884,45.391261],[-73.9009212,45.391268],[-73.9007388,45.3904603],[-73.9012141,45.3902551],[-73.9025275,45.3891456]]]}},{"type":"Feature","properties":{"id":"halte-riveraine-municipale-3-865894","name":"Halte Riveraine Municipale (3)","type":"park"},"geometry":{"type":"Polygon","coordinates":[[[-73.902282,45.3950476],[-73.9025275,45.3950595],[-73.9026231,45.3955574],[-73.9023925,45.3956844],[-73.902282,45.3950476]]]}},{"type":"Feature","properties":{"id":"parc-de-sand-castle-920743","name":"Parc de Sand Castle","type":"park"},"geometry":{"type":"Polygon","coordinates":[[[-74.1761232,45.4128855],[-74.1759083,45.4129827],[-74.175523,45.4129524],[-74.1755454,45.4127704],[-74.1754152,45.4127541],[-74.1755353,45.4123064],[-74.1763507,45.4124009],[-74.1761232,45.4128855]]]}},{"type":"Feature","properties":{"id":"parc-de-vaudreuil-dorion-2-984547","name":"Parc de Vaudreuil-Dorion (2)","type":"park"},"geometry":{"type":"Polygon","coordinates":[[[-74.1944987,45.4540977],[-74.1946975,45.4539646],[-74.1943849,45.4538815],[-74.1945829,45.4535151],[-74.1954772,45.4537694],[-74.1951752,45.4543313],[-74.1944987,45.4540977]]]}},{"type":"Feature","properties":{"id":"parc-saint-jean-baptiste-2-988295","name":"Parc Saint-Jean-Baptiste (2)","type":"park"},"geometry":{"type":"Polygon","coordinates":[[[-74.0155424,45.3836959],[-74.0131467,45.384685],[-74.0130334,45.384512],[-74.0134165,45.3843916],[-74.0135378,45.3841754],[-74.0141171,45.3839341],[-74.0135141,45.3833038],[-74.0133231,45.3833578],[-74.0132814,45.383167],[-74.0139362,45.3827692],[-74.0141917,45.3830336],[-74.014699,45.3827938],[-74.0155424,45.3836959]]]}},{"type":"Feature","properties":{"id":"parc-de-la-belle-plage-004280","name":"Parc de la Belle-Plage","type":"park"},"geometry":{"type":"Polygon","coordinates":[[[-74.0415704,45.4164745],[-74.0413185,45.4162233],[-74.0417513,45.4160111],[-74.0419715,45.4162749],[-74.0415704,45.4164745]]]}},{"type":"Feature","properties":{"id":"parc-22e-avenue-864327","name":"Parc 22e Avenue","type":"park"},"geometry":{"type":"Polygon","coordinates":[[[-73.9516504,45.3876297],[-73.9519466,45.3870125],[-73.9523531,45.3871099],[-73.9520672,45.387726],[-73.9516504,45.3876297]]]}},{"type":"Feature","properties":{"id":"parc-saint-michel-2-745319","name":"Parc Saint-Michel (2)","type":"park"},"geometry":{"type":"Polygon","coordinates":[[[-74.0306473,45.3990998],[-74.0306837,45.3991399],[-74.030059,45.3993653],[-74.0301528,45.3994768],[-74.0295305,45.3997281],[-74.0287995,45.3988488],[-74.030115,45.3982293],[-74.0308181,45.3990308],[-74.0306473,45.3990998]]]}},{"type":"Feature","properties":{"id":"parc-lorne-worsley-2-780695","name":"Parc Lorne-Worsley (2)","type":"park"},"geometry":{"type":"Polygon","coordinates":[[[-74.044079,45.395934],[-74.0427381,45.3953253],[-74.0435565,45.3944138],[-74.0449134,45.3950153],[-74.044079,45.395934]]]}},{"type":"Feature","properties":{"id":"parc-du-ruisselet-780708","name":"Parc du Ruisselet","type":"park"},"geometry":{"type":"Polygon","coordinates":[[[-74.0453536,45.3847851],[-74.0486362,45.3846785],[-74.04865,45.3848532],[-74.0468343,45.3848212],[-74.0453952,45.3852444],[-74.0453536,45.3847851]]]}},{"type":"Feature","properties":{"id":"parc-des-narcisses-780712","name":"Parc des Narcisses","type":"park"},"geometry":{"type":"Polygon","coordinates":[[[-74.0302251,45.385973],[-74.0294814,45.3862066],[-74.0284884,45.3856657],[-74.0284885,45.3855875],[-74.0302894,45.3855039],[-74.0301929,45.3856732],[-74.0302251,45.385973]]]}},{"type":"Feature","properties":{"id":"parc-des-perce-neige-780716","name":"Parc des Perce-Neige","type":"park"},"geometry":{"type":"Polygon","coordinates":[[[-74.036489,45.3919022],[-74.0363856,45.3919275],[-74.03647,45.3920972],[-74.0362828,45.3922539],[-74.0360153,45.3921248],[-74.0362854,45.3918001],[-74.0364134,45.3917673],[-74.036489,45.3919022]]]}},{"type":"Feature","properties":{"id":"parc-laure-gaudreault-780717","name":"Parc Laure-Gaudreault","type":"park"},"geometry":{"type":"Polygon","coordinates":[[[-74.0299781,45.3910907],[-74.0302025,45.390845],[-74.0306312,45.391038],[-74.0304026,45.3912887],[-74.0299781,45.3910907]]]}},{"type":"Feature","properties":{"id":"parc-du-bicentenaire-810382","name":"Parc du Bicentenaire","type":"park"},"geometry":{"type":"Polygon","coordinates":[[[-74.0251158,45.3912808],[-74.024799,45.3915522],[-74.0241529,45.3912595],[-74.0242122,45.3909203],[-74.0251158,45.3912808]]]}},{"type":"Feature","properties":{"id":"parc-des-tilleuls-3-818364","name":"Parc des Tilleuls (3)","type":"park"},"geometry":{"type":"Polygon","coordinates":[[[-74.0335697,45.3844987],[-74.0327096,45.3845356],[-74.0325361,45.3843462],[-74.0333085,45.3839563],[-74.0335423,45.3842047],[-74.0335697,45.3844987]]]}},{"type":"Feature","properties":{"id":"parc-marier-818370","name":"Parc Marier","type":"park"},"geometry":{"type":"Polygon","coordinates":[[[-74.0305359,45.3851914],[-74.0309839,45.3849714],[-74.0309621,45.3846931],[-74.0317311,45.384662],[-74.0317695,45.3851338],[-74.0305359,45.3851914]]]}},{"type":"Feature","properties":{"id":"parc-des-pins-4-839213","name":"Parc des Pins (4)","type":"park"},"geometry":{"type":"Polygon","coordinates":[[[-74.0879129,45.387394],[-74.0885329,45.3871825],[-74.088863,45.3872802],[-74.0887446,45.3873676],[-74.0887506,45.3874906],[-74.0880592,45.387693],[-74.0879129,45.387394]]]}},{"type":"Feature","properties":{"id":"parc-lucien-manning-700815","name":"Parc Lucien-Manning","type":"park"},"geometry":{"type":"Polygon","coordinates":[[[-73.9632826,45.3857789],[-73.9636743,45.3855384],[-73.9644783,45.3859332],[-73.9641614,45.3862261],[-73.9632826,45.3857789]]]}},{"type":"Feature","properties":{"id":"parc-des-merles-382079","name":"Parc des Merles","type":"park"},"geometry":{"type":"Polygon","coordinates":[[[-73.9422276,45.3831215],[-73.9421615,45.3833125],[-73.9416544,45.3829295],[-73.9419553,45.3827862],[-73.9421734,45.3829604],[-73.9422276,45.3831215]]]}},{"type":"Feature","properties":{"id":"parc-sophie-896361","name":"Parc Sophie","type":"park"},"geometry":{"type":"Polygon","coordinates":[[[-74.0656576,45.3105215],[-74.0654387,45.3108474],[-74.0650342,45.3104086],[-74.0651072,45.3103238],[-74.0656576,45.3105215]]]}},{"type":"Feature","properties":{"id":"parc-champlain-4-348267","name":"Parc Champlain (4)","type":"park"},"geometry":{"type":"Polygon","coordinates":[[[-73.9970485,45.3319292],[-73.9969996,45.3318659],[-73.996598,45.3320183],[-73.9964624,45.3318396],[-73.9972579,45.3315371],[-73.9974425,45.331778],[-73.9970485,45.3319292]]]}},{"type":"Feature","properties":{"id":"parc-trotter-689332","name":"Parc Trotter","type":"park"},"geometry":{"type":"Polygon","coordinates":[[[-73.9887524,45.3777884],[-73.9886015,45.3774608],[-73.9894922,45.3772552],[-73.9896515,45.3775932],[-73.9887524,45.3777884]]]}},{"type":"Feature","properties":{"id":"parc-de-pointe-des-cascades-2-300450","name":"Parc de Pointe-des-Cascades (2)","type":"park"},"geometry":{"type":"Polygon","coordinates":[[[-73.9755509,45.3318557],[-73.9752693,45.3315275],[-73.9755235,45.3314074],[-73.9758193,45.3317495],[-73.9755509,45.3318557]]]}},{"type":"Feature","properties":{"id":"parc-des-fauvettes-315754","name":"Parc des Fauvettes","type":"park"},"geometry":{"type":"Polygon","coordinates":[[[-73.88607,45.355706],[-73.8850699,45.3559413],[-73.885018,45.3557587],[-73.885123,45.3555714],[-73.885884,45.3555282],[-73.88607,45.355706]]]}},{"type":"Feature","properties":{"id":"parc-daviau-969989","name":"Parc Daviau","type":"park"},"geometry":{"type":"Polygon","coordinates":[[[-74.0673699,45.3215576],[-74.0671391,45.3212699],[-74.0676965,45.3210484],[-74.0682039,45.3216633],[-74.0673699,45.3215576]]]}},{"type":"Feature","properties":{"id":"parc-levac-045974","name":"Parc Levac","type":"park"},"geometry":{"type":"Polygon","coordinates":[[[-74.060459,45.3457181],[-74.0595142,45.3450133],[-74.0596325,45.3449572],[-74.0609054,45.3452781],[-74.060459,45.3457181]]]}},{"type":"Feature","properties":{"id":"parc-de-vaudreuil-sur-le-lac-940338","name":"Parc de Vaudreuil-sur-le-Lac","type":"park"},"geometry":{"type":"Polygon","coordinates":[[[-74.0349625,45.4233569],[-74.0352864,45.4236629],[-74.0357241,45.4234291],[-74.0363254,45.4239687],[-74.0347814,45.4246816],[-74.034024,45.42392],[-74.0349625,45.4233569]]]}},{"type":"Feature","properties":{"id":"parc-des-cedres-4-162006","name":"Parc des Cèdres (4)","type":"park"},"geometry":{"type":"Polygon","coordinates":[[[-74.0565399,45.3068888],[-74.0565185,45.3070075],[-74.0568242,45.3073084],[-74.0564682,45.3074644],[-74.0555435,45.3062942],[-74.05618215392384,45.30602256343687],[-74.0563265,45.3064358],[-74.0564828,45.306532],[-74.0564333,45.3066952],[-74.0565399,45.3068888]]]}},{"type":"Feature","properties":{"id":"halte-du-fleuve-162007","name":"Halte du Fleuve","type":"park"},"geometry":{"type":"Polygon","coordinates":[[[-74.0579334,45.3082222],[-74.0585653,45.3083185],[-74.0585423,45.3084307],[-74.0577219,45.3083287],[-74.0579334,45.3082222]]]}},{"type":"Feature","properties":{"id":"parc-des-martins-pecheurs-444946","name":"Parc des Martins-Pêcheurs","type":"park"},"geometry":{"type":"Polygon","coordinates":[[[-73.8754433,45.3590793],[-73.8757859,45.3602831],[-73.87578,45.3604919],[-73.8756334,45.3606157],[-73.8742866,45.3610263],[-73.8742715,45.3609379],[-73.8748918,45.3606157],[-73.8751459,45.3602817],[-73.8751982,45.3601263],[-73.8751111,45.3593353],[-73.8754433,45.3590793]]]}},{"type":"Feature","properties":{"id":"parc-des-mesanges-3-539165","name":"Parc des Mésanges (3)","type":"park"},"geometry":{"type":"Polygon","coordinates":[[[-73.87447,45.3646906],[-73.8782832,45.3635345],[-73.8787599,45.3652584],[-73.8746636,45.3658319],[-73.8744844,45.3651937],[-73.87447,45.3646906]]]}},{"type":"Feature","properties":{"id":"parc-des-mouettes-543769","name":"Parc des Mouettes","type":"park"},"geometry":{"type":"Polygon","coordinates":[[[-73.8787729,45.3578796],[-73.8789288,45.3580644],[-73.8776647,45.3586655],[-73.8771837,45.3591984],[-73.8769803,45.3584785],[-73.8770506,45.3581672],[-73.8777407,45.3582554],[-73.8783058,45.3579942],[-73.8787729,45.3578796]]]}},{"type":"Feature","properties":{"id":"parc-des-roselins-020019","name":"Parc des Roselins","type":"park"},"geometry":{"type":"Polygon","coordinates":[[[-73.9306434,45.3758101],[-73.9299958,45.3757282],[-73.9298662,45.3754936],[-73.9303398,45.3752571],[-73.9307847,45.3754321],[-73.9308849,45.3755666],[-73.9306434,45.3758101]]]}},{"type":"Feature","properties":{"id":"parc-des-tourterelles-793774","name":"Parc des Tourterelles","type":"park"},"geometry":{"type":"Polygon","coordinates":[[[-73.9369361,45.3883428],[-73.9372883,45.3883827],[-73.9374848,45.3881948],[-73.9379547,45.3883],[-73.9377007,45.388859],[-73.9368231,45.3886422],[-73.9369361,45.3883428]]]}},{"type":"Feature","properties":{"id":"parc-henri-lafleur-914680","name":"Parc Henri-Lafleur","type":"park"},"geometry":{"type":"Polygon","coordinates":[[[-73.9451785,45.3913081],[-73.9455652,45.3914661],[-73.9453496,45.3919331],[-73.9449082,45.3918858],[-73.9451785,45.3913081]]]}},{"type":"Feature","properties":{"id":"quai-de-la-34e-avenue-198787","name":"Quai de la 34e avenue","type":"park"},"geometry":{"type":"Polygon","coordinates":[[[-73.9394369,45.3937305],[-73.9392344,45.3937343],[-73.9392289,45.3936882],[-73.9393821,45.393616],[-73.9394369,45.3937305]]]}},{"type":"Feature","properties":{"id":"parc-des-citoyens-2-533935","name":"Parc des Citoyens (2)","type":"park"},"geometry":{"type":"Polygon","coordinates":[[[-73.9464164,45.3793913],[-73.9468641,45.3791625],[-73.9475381,45.3795309],[-73.9478615,45.3798613],[-73.9481728,45.3795795],[-73.9488401,45.3781073],[-73.9502721,45.3789065],[-73.9501056,45.3790637],[-73.9501975,45.3791161],[-73.9485014,45.3805564],[-73.9470174,45.3797868],[-73.9463411,45.3795204],[-73.9464164,45.3793913]]]}},{"type":"Feature","properties":{"id":"parc-des-colibris-136573","name":"Parc des Colibris","type":"park"},"geometry":{"type":"Polygon","coordinates":[[[-73.9461155,45.3760879],[-73.9463103,45.3756639],[-73.9467181,45.3755501],[-73.9468893,45.3758478],[-73.9466603,45.3759746],[-73.9465246,45.3761844],[-73.9461155,45.3760879]]]}},{"type":"Feature","properties":{"id":"parc-de-notre-dame-de-l-ile-perrot-153032","name":"Parc de Notre-Dame-de-l'Île-Perrot","type":"park"},"geometry":{"type":"Polygon","coordinates":[[[-73.9569795,45.3822714],[-73.957821,45.382349],[-73.9577418,45.3826487],[-73.9569102,45.3825354],[-73.9569795,45.3822714]]]}},{"type":"Feature","properties":{"id":"parc-paul-ouellette-685720","name":"Parc Paul-Ouellette","type":"park"},"geometry":{"type":"Polygon","coordinates":[[[-73.9808607,45.3577829],[-73.9814266,45.3581299],[-73.9814308,45.3581908],[-73.9811348,45.3583066],[-73.9808393,45.3581076],[-73.9807465,45.3579802],[-73.9807563,45.3578297],[-73.9808607,45.3577829]]]}},{"type":"Feature","properties":{"id":"parc-bellevue-340732","name":"Parc Bellevue","type":"park"},"geometry":{"type":"Polygon","coordinates":[[[-73.9932627,45.3758109],[-73.993121,45.375874],[-73.9932918,45.376062],[-73.9943174,45.3766881],[-73.9919659,45.3772376],[-73.9908723,45.3748852],[-73.9923256,45.3745184],[-73.9923088,45.3743512],[-73.9927347,45.3743757],[-73.9926267,45.3744389],[-73.9925838,45.3746676],[-73.9932627,45.3758109]]]}},{"type":"Feature","properties":{"id":"parc-rousseau-388408","name":"Parc Rousseau","type":"park"},"geometry":{"type":"Polygon","coordinates":[[[-73.9925173,45.3645915],[-73.9925194,45.3646769],[-73.9920829,45.3647644],[-73.992233,45.3649372],[-73.9916246,45.365196],[-73.9915011,45.3650496],[-73.99111,45.3652196],[-73.9909394,45.36503],[-73.9913314,45.3648637],[-73.9911844,45.3646957],[-73.9920715,45.3643223],[-73.9925173,45.3645915]]]}},{"type":"Feature","properties":{"id":"parc-des-frenes-390794","name":"Parc des Frênes","type":"park"},"geometry":{"type":"Polygon","coordinates":[[[-73.9814375,45.3642172],[-73.9812016,45.3640428],[-73.9810227,45.3635531],[-73.9812588,45.3635583],[-73.9814511,45.3639058],[-73.9817561,45.363929],[-73.981744,45.3642287],[-73.9814375,45.3642172]]]}},{"type":"Feature","properties":{"id":"parc-de-pincourt-395003","name":"Parc de Pincourt","type":"park"},"geometry":{"type":"Polygon","coordinates":[[[-73.9814654,45.3687007],[-73.9820641,45.3684959],[-73.982156,45.3687897],[-73.9818541,45.3689372],[-73.9815487,45.3689543],[-73.9814654,45.3687007]]]}},{"type":"Feature","properties":{"id":"parc-de-pincourt-2-462298","name":"Parc de Pincourt (2)","type":"park"},"geometry":{"type":"Polygon","coordinates":[[[-73.9944127,45.3688438],[-73.9946292,45.3687008],[-73.995053,45.3688367],[-73.9949124,45.3690217],[-73.9944127,45.3688438]]]}},{"type":"Feature","properties":{"id":"parc-de-pincourt-3-369907","name":"Parc de Pincourt (3)","type":"park"},"geometry":{"type":"Polygon","coordinates":[[[-73.9705226,45.3771416],[-73.9701317,45.3774207],[-73.9700061,45.3773984],[-73.9698703,45.3770851],[-73.9704493,45.3769578],[-73.9705226,45.3771416]]]}},{"type":"Feature","properties":{"id":"parc-mont-bleu-174882","name":"Parc Mont-Bleu","type":"park"},"geometry":{"type":"Polygon","coordinates":[[[-73.9740442,45.3793617],[-73.9744138,45.3792965],[-73.9745216,45.3796055],[-73.9740748,45.3796893],[-73.973987,45.379452],[-73.9740442,45.3793617]]]}},{"type":"Feature","properties":{"id":"reserve-ecologique-des-iles-avelle-wight-et-hiam-782556","name":"Réserve écologique des Îles-Avelle-Wight-et-Hiam","type":"park"},"geometry":{"type":"MultiPolygon","coordinates":[[[[-74.0021306,45.3964574],[-74.0021735,45.3963858],[-74.0022432,45.3964385],[-74.0021306,45.3964574]]],[[[-73.9959283,45.3953573],[-73.9961846,45.3952132],[-73.9958553,45.3954802],[-73.9959283,45.3953573]]],[[[-74.0004655,45.3953201],[-74.0004709,45.3954953],[-74.0006666,45.3956873],[-74.0008838,45.3956779],[-74.0009991,45.3960394],[-74.0003475,45.396045],[-73.9998166,45.3959019],[-73.9993206,45.3954595],[-73.9990122,45.3956233],[-73.9984009,45.3954181],[-73.9986717,45.3952957],[-73.9993367,45.3953748],[-73.999342,45.3949888],[-73.9994493,45.394921],[-73.9998059,45.3949361],[-73.9998086,45.3948363],[-74.0003824,45.3949436],[-74.0004306,45.3948871],[-74.0003234,45.3950829],[-74.0004655,45.3953201]]],[[[-73.9959042,45.3967365],[-73.9952074,45.3970381],[-73.9950362,45.3970347],[-73.9950991,45.3968262],[-73.9954405,45.3964555],[-73.9958176,45.3963954],[-73.996058,45.3962492],[-73.9962716,45.3963344],[-73.996181,45.3965256],[-73.9959042,45.3967365]]],[[[-74.0005701,45.3968904],[-74.0010205,45.3970467],[-74.0002966,45.3972463],[-74.0004146,45.397058],[-74.0002161,45.3969751],[-73.9997281,45.3970184],[-73.9996423,45.3972218],[-73.9997684,45.3972613],[-73.9995994,45.3974326],[-73.99872,45.3972274],[-73.9982159,45.3973404],[-73.9979478,45.3972519],[-73.9979022,45.3970787],[-73.9981274,45.397073],[-73.9982588,45.3968885],[-73.9981435,45.3966739],[-73.9985296,45.3966419],[-73.9990551,45.3963557],[-74.00031,45.3966871],[-74.0005754,45.396608],[-74.0009428,45.3963425],[-74.001227,45.3963256],[-74.0013423,45.3964178],[-74.00153,45.3963708],[-74.0013825,45.3964781],[-74.0012216,45.3964254],[-74.0008221,45.3965816],[-74.0009669,45.3966984],[-74.000932,45.3967831],[-74.0006425,45.3967756],[-74.0005701,45.3968904]]],[[[-73.9979361,45.3984907],[-73.9978164,45.3984492],[-73.9978066,45.3983394],[-73.9975277,45.3983716],[-73.9974586,45.3982907],[-73.9975414,45.3982003],[-73.9978555,45.3981455],[-73.9980493,45.3981975],[-73.9981975,45.398357],[-73.9979361,45.3984907]]],[[[-73.9965116,45.3998802],[-73.9981897,45.4005306],[-73.9983764,45.4007275],[-73.9983888,45.4010509],[-73.9982851,45.4011673],[-73.9982874,45.4013247],[-73.9984173,45.4016983],[-73.9987974,45.4017775],[-73.9989269,45.4019],[-73.9984753,45.4020057],[-73.997557,45.4019391],[-73.9971253,45.4021052],[-73.9970083,45.4022886],[-73.996439,45.4023832],[-73.9963672,45.4024326],[-73.9964838,45.4025346],[-73.99642,45.4026952],[-73.9965958,45.4028926],[-73.9968034,45.4029392],[-73.996744,45.4029963],[-73.9961699,45.4029905],[-73.995917,45.4028897],[-73.995993,45.4028121],[-73.9959166,45.4027694],[-73.9956513,45.4027223],[-73.9955108,45.4028097],[-73.9957672,45.4028961],[-73.99568,45.4029451],[-73.9951843,45.4029973],[-73.9945516,45.4032177],[-73.9942772,45.4031606],[-73.9931293,45.4025609],[-73.99255,45.4026964],[-73.9925849,45.4028903],[-73.9924869,45.4029815],[-73.9916638,45.4029621],[-73.9913863,45.4028669],[-73.9912993,45.40271],[-73.9906854,45.4026579],[-73.9902086,45.4023041],[-73.9896241,45.402147],[-73.989561,45.4019317],[-73.9893277,45.4017953],[-73.9882151,45.4017681],[-73.9887869,45.4013813],[-73.989272,45.4014882],[-73.9896061,45.4014062],[-73.9897695,45.4011288],[-73.9903256,45.4012051],[-73.9905084,45.4009581],[-73.9906662,45.4010748],[-73.9912065,45.4009759],[-73.9918127,45.4005482],[-73.992637,45.3993503],[-73.9925554,45.3989103],[-73.9923811,45.3988936],[-73.9924412,45.398786],[-73.9927975,45.3986772],[-73.9930085,45.398825],[-73.994389,45.3986242],[-73.9950063,45.3989592],[-73.9953427,45.3989872],[-73.9955099,45.398765],[-73.9956599,45.3988062],[-73.9958088,45.3990569],[-73.9956591,45.3992171],[-73.9951356,45.3992871],[-73.9955216,45.3994232],[-73.99551,45.399691],[-73.995758,45.3997348],[-73.9958405,45.3995773],[-73.9961267,45.3997009],[-73.9963644,45.3996967],[-73.9965116,45.3998802]]],[[[-74.0005624,45.4016313],[-74.0004212,45.4015657],[-74.0004858,45.4014212],[-74.0000239,45.4012734],[-74.0006509,45.4013103],[-74.0007442,45.4013775],[-74.0006772,45.4016565],[-74.0008926,45.4019303],[-74.000828,45.4020967],[-74.0003757,45.4018043],[-74.0005624,45.4016313]]]]}},{"type":"Feature","properties":{"id":"parc-de-la-rhapsodie-161959","name":"Parc de la Rhapsodie","type":"park"},"geometry":{"type":"Polygon","coordinates":[[[-74.1652909,45.4170722],[-74.164014,45.4169523],[-74.1633081,45.4168859],[-74.1639334,45.4165014],[-74.1636122,45.4160792],[-74.1642604,45.4158426],[-74.1652909,45.4170722]]]}},{"type":"Feature","properties":{"id":"parc-de-champagne-792889","name":"Parc de Champagne","type":"park"},"geometry":{"type":"Polygon","coordinates":[[[-74.0227252,45.4187251],[-74.0222189,45.4185602],[-74.0220043,45.4186112],[-74.0217324,45.4184379],[-74.0228662,45.4182792],[-74.0228436,45.4185222],[-74.0227252,45.4187251]]]}},{"type":"Feature","properties":{"id":"parc-pearl-s-pond-492972","name":"Parc Pearl's Pond","type":"park"},"geometry":{"type":"Polygon","coordinates":[[[-74.1513485,45.4301769],[-74.1511368,45.4298014],[-74.1516414,45.4297001],[-74.1519769,45.4299841],[-74.1522673,45.4303992],[-74.1519197,45.4306182],[-74.1515214,45.4302219],[-74.1513955,45.4302574],[-74.15135864649659,45.4301958240214],[-74.1517911,45.4300956],[-74.1517743,45.429885],[-74.151255,45.4298497],[-74.1512313,45.429933],[-74.1514435,45.4300829],[-74.1513485,45.4301769]]]}},{"type":"Feature","properties":{"id":"parc-des-sapins-2-257616","name":"Parc des Sapins (2)","type":"park"},"geometry":{"type":"Polygon","coordinates":[[[-74.1264577,45.431799],[-74.1266171,45.4312736],[-74.1272969,45.4313476],[-74.1272088,45.4319217],[-74.1264577,45.431799]]]}},{"type":"Feature","properties":{"id":"parc-de-vaudreuil-dorion-3-404869","name":"Parc de Vaudreuil-Dorion (3)","type":"park"},"geometry":{"type":"Polygon","coordinates":[[[-74.0241342,45.3935339],[-74.024122,45.3946219],[-74.0237854,45.3946132],[-74.0232165,45.3942398],[-74.0237303,45.3939902],[-74.0232828,45.3935303],[-74.0241342,45.3935339]]]}},{"type":"Feature","properties":{"id":"parc-de-vaudreuil-dorion-4-826309","name":"Parc de Vaudreuil-Dorion (4)","type":"park"},"geometry":{"type":"Polygon","coordinates":[[[-74.0150966,45.4141596],[-74.0148616,45.4145106],[-74.0148326,45.4146364],[-74.0149419,45.4147953],[-74.0145891,45.4147878],[-74.0146295,45.4145744],[-74.0147594,45.4145035],[-74.0149953,45.4141245],[-74.0150966,45.4141596]]]}},{"type":"Feature","properties":{"id":"parc-de-saint-lazare-843352","name":"Parc de Saint-Lazare","type":"park"},"geometry":{"type":"Polygon","coordinates":[[[-74.1431409,45.4156989],[-74.1432258,45.4154586],[-74.1435831,45.4154804],[-74.1434473,45.4157802],[-74.1431409,45.4156989]]]}},{"type":"Feature","properties":{"id":"pointe-de-brucy-854129","name":"Pointe de Brucy","type":"park"},"geometry":{"type":"Polygon","coordinates":[[[-73.9471942,45.398678],[-73.947323,45.3987337],[-73.9477697,45.3993243],[-73.94778770067789,45.399445836600776],[-73.9474656,45.3995005],[-73.9472935,45.3994335],[-73.9470667,45.3990949],[-73.9471942,45.398678]]]}},{"type":"Feature","properties":{"id":"parc-des-tuileries-985411","name":"Parc des Tuileries","type":"park"},"geometry":{"type":"Polygon","coordinates":[[[-74.0310848,45.3696747],[-74.0309103,45.3697548],[-74.0314006,45.3700758],[-74.031345,45.3701149],[-74.0308414,45.3697688],[-74.0304752,45.369936],[-74.0302384,45.3696948],[-74.0308216,45.3694056],[-74.0310848,45.3696747]]]}},{"type":"Feature","properties":{"id":"parc-de-bel-air-002165","name":"Parc de Bel-Air","type":"park"},"geometry":{"type":"Polygon","coordinates":[[[-74.0233681,45.3739134],[-74.023695,45.3744922],[-74.0222752,45.3751614],[-74.02147,45.3743216],[-74.0232504,45.3734751],[-74.0233681,45.3739134]]]}},{"type":"Feature","properties":{"id":"parc-stroud-002209","name":"Parc Stroud","type":"park"},"geometry":{"type":"Polygon","coordinates":[[[-74.0099629,45.3776656],[-74.0088863,45.3782357],[-74.0080859,45.377632],[-74.0083863,45.3774221],[-74.0088466,45.3774527],[-74.0088365,45.3772827],[-74.0094837,45.3772801],[-74.0092313,45.3776193],[-74.0099629,45.3776656]]]}},{"type":"Feature","properties":{"id":"parc-quinchien-191490","name":"Parc Quinchien","type":"park"},"geometry":{"type":"Polygon","coordinates":[[[-74.0056183,45.3621317],[-74.0046134,45.3607806],[-74.0055464,45.3603179],[-74.0066091,45.3616594],[-74.0056183,45.3621317]]]}},{"type":"Feature","properties":{"id":"parc-des-chenaux-735128","name":"Parc des Chenaux","type":"park"},"geometry":{"type":"Polygon","coordinates":[[[-74.017159,45.4200765],[-74.0168833,45.4194844],[-74.0176972,45.419377],[-74.0178111,45.4197879],[-74.0182306,45.4197296],[-74.0182583,45.4198252],[-74.017159,45.4200765]]]}},{"type":"Feature","properties":{"id":"parc-de-vaudreuil-dorion-5-886199","name":"Parc de Vaudreuil-Dorion (5)","type":"park"},"geometry":{"type":"Polygon","coordinates":[[[-74.0499942,45.4165825],[-74.0522144,45.4155141],[-74.0522323,45.4155282],[-74.0517789,45.4161004],[-74.0512876,45.4163151],[-74.0508901,45.4163684],[-74.0509147,45.4164844],[-74.0500839,45.416671],[-74.0499942,45.4165825]]]}},{"type":"Feature","properties":{"id":"parc-felix-leclerc-5-923968","name":"Parc Félix-Leclerc (5)","type":"park"},"geometry":{"type":"Polygon","coordinates":[[[-74.0518518,45.4195599],[-74.050586,45.4191233],[-74.0512351,45.4188048],[-74.0516604,45.4190653],[-74.0522162,45.4192394],[-74.0524381,45.4188126],[-74.0530926,45.4189891],[-74.0526359,45.4193033],[-74.0524996,45.4192395],[-74.0518518,45.4195599]]]}},{"type":"Feature","properties":{"id":"parc-du-manoir-2-745005","name":"Parc du Manoir (2)","type":"park"},"geometry":{"type":"Polygon","coordinates":[[[-74.0458834,45.4017543],[-74.0453845,45.4020096],[-74.045186,45.4017678],[-74.0457182,45.4015915],[-74.0458834,45.4017543]]]}},{"type":"Feature","properties":{"id":"parc-de-vaudreuil-dorion-6-565933","name":"Parc de Vaudreuil-Dorion (6)","type":"park"},"geometry":{"type":"Polygon","coordinates":[[[-74.0128177,45.3847987],[-74.0111769,45.3853236],[-74.0109147,45.3850678],[-74.0110874,45.3849167],[-74.0110748,45.3847601],[-74.0114187,45.3845527],[-74.0115977,45.3843234],[-74.0119887,45.3842837],[-74.0122174,45.3841692],[-74.0128177,45.3847987]]]}},{"type":"Feature","properties":{"id":"parc-aurele-joliat-891338","name":"Parc Aurèle-Joliat","type":"park"},"geometry":{"type":"Polygon","coordinates":[[[-74.0466216,45.3929815],[-74.0462785,45.3927873],[-74.0460722,45.3925647],[-74.0459367,45.3920002],[-74.0464829,45.3919955],[-74.0471557,45.3922762],[-74.0476159,45.3927008],[-74.0477195,45.3930572],[-74.0475961,45.3931245],[-74.0466216,45.3929815]]]}},{"type":"Feature","properties":{"id":"parc-ecole-des-quatre-saisons-891397","name":"Parc-école des Quatre-Saisons","type":"park"},"geometry":{"type":"Polygon","coordinates":[[[-74.0502798,45.3936958],[-74.0494821,45.3935299],[-74.0495646,45.3930298],[-74.0495198,45.3927939],[-74.0504036,45.3928751],[-74.0503681,45.3929893],[-74.0505081,45.3931402],[-74.0503832,45.393264],[-74.0502798,45.3936958]]]}},{"type":"Feature","properties":{"id":"parc-norampac-1-601435","name":"Parc Norampac 1","type":"park"},"geometry":{"type":"Polygon","coordinates":[[[-74.0429882,45.3975158],[-74.0425129,45.3980416],[-74.042008,45.3978033],[-74.0424343,45.397272],[-74.0429882,45.3975158]]]}},{"type":"Feature","properties":{"id":"parc-norampac-2-601437","name":"Parc Norampac 2","type":"park"},"geometry":{"type":"Polygon","coordinates":[[[-74.0440906,45.3982522],[-74.0443732,45.3983793],[-74.0444512,45.3982894],[-74.0451009,45.3985743],[-74.0446324,45.3989841],[-74.0437764,45.3986014],[-74.0440906,45.3982522]]]}},{"type":"Feature","properties":{"id":"parc-pinault-605835","name":"Parc Pinault","type":"park"},"geometry":{"type":"Polygon","coordinates":[[[-74.0385338,45.402141],[-74.0397169,45.4027205],[-74.039672,45.4027845],[-74.0386482,45.4028384],[-74.0382804,45.4021837],[-74.0385338,45.402141]]]}},{"type":"Feature","properties":{"id":"parc-pierre-mercure-2-399573","name":"Parc Pierre-Mercure (2)","type":"park"},"geometry":{"type":"Polygon","coordinates":[[[-74.0462017,45.3790223],[-74.0455976,45.379258],[-74.0451594,45.3787854],[-74.0458991,45.3784437],[-74.0463387,45.3788862],[-74.0462017,45.3790223]]]}},{"type":"Feature","properties":{"id":"parc-ravel-496881","name":"Parc Ravel","type":"park"},"geometry":{"type":"Polygon","coordinates":[[[-74.0388931,45.3789847],[-74.0392088,45.3788106],[-74.0392282,45.3786851],[-74.0398901,45.3783709],[-74.0399261,45.3784147],[-74.0395966,45.3785693],[-74.0398777,45.3788621],[-74.0391368,45.3792239],[-74.0388931,45.3789847]]]}},{"type":"Feature","properties":{"id":"parc-mozart-639744","name":"Parc Mozart","type":"park"},"geometry":{"type":"Polygon","coordinates":[[[-74.0407128,45.3806448],[-74.0408474,45.3806801],[-74.0415549,45.3814581],[-74.0409218,45.3817654],[-74.0400751,45.3817497],[-74.0395939,45.3811978],[-74.0407128,45.3806448]]]}},{"type":"Feature","properties":{"id":"parc-vivaldi-644199","name":"Parc Vivaldi","type":"park"},"geometry":{"type":"Polygon","coordinates":[[[-74.0441145,45.3836449],[-74.0441465,45.3839634],[-74.0430341,45.3840158],[-74.0429154,45.3839484],[-74.0429473,45.3837603],[-74.0437995,45.3833381],[-74.0441145,45.3836449]]]}},{"type":"Feature","properties":{"id":"parc-de-vaudreuil-dorion-7-132650","name":"Parc de Vaudreuil-Dorion (7)","type":"park"},"geometry":{"type":"Polygon","coordinates":[[[-74.0223891,45.3817034],[-74.0227275,45.3815523],[-74.0232268,45.3820806],[-74.0228691,45.3822302],[-74.0223891,45.3817034]]]}},{"type":"Feature","properties":{"id":"parc-des-geraniums-288871","name":"Parc des Géraniums","type":"park"},"geometry":{"type":"Polygon","coordinates":[[[-74.0384709,45.3876294],[-74.0384216,45.3877544],[-74.0378719,45.3878564],[-74.0372107,45.3878449],[-74.0370216,45.3877506],[-74.0376189,45.3870906],[-74.0379404,45.3870945],[-74.0384709,45.3876294]]]}},{"type":"Feature","properties":{"id":"parc-de-vaudreuil-dorion-8-503210","name":"Parc de Vaudreuil-Dorion (8)","type":"park"},"geometry":{"type":"Polygon","coordinates":[[[-74.0296991,45.3899176],[-74.0295904,45.390527],[-74.0292067,45.3904474],[-74.029374,45.3900178],[-74.0294839,45.3900646],[-74.0296991,45.3899176]]]}},{"type":"Feature","properties":{"id":"carre-dorion-508948","name":"Carré Dorion","type":"park"},"geometry":{"type":"Polygon","coordinates":[[[-74.0101169,45.3831037],[-74.0105429,45.3835206],[-74.0102286,45.3837182],[-74.0097933,45.3833046],[-74.0101169,45.3831037]]]}},{"type":"Feature","properties":{"id":"parc-emard-847404","name":"Parc Émard","type":"park"},"geometry":{"type":"Polygon","coordinates":[[[-74.0360529,45.4025425],[-74.0353545,45.4018375],[-74.0354976,45.4016992],[-74.0356498,45.4016582],[-74.0363402,45.4024508],[-74.0360529,45.4025425]]]}},{"type":"Feature","properties":{"id":"parc-bourget-2-847433","name":"Parc Bourget (2)","type":"park"},"geometry":{"type":"Polygon","coordinates":[[[-74.0328327,45.4011818],[-74.0341278,45.4007881],[-74.0342875,45.4011974],[-74.0342677,45.4015862],[-74.0339728,45.4021124],[-74.033313,45.4025839],[-74.0324632,45.4017073],[-74.032082,45.4018219],[-74.0324457,45.4016615],[-74.0322464,45.4014396],[-74.0328327,45.4011818]]]}},{"type":"Feature","properties":{"id":"parc-de-la-canardiere-079491","name":"Parc de la Canardière","type":"park"},"geometry":{"type":"Polygon","coordinates":[[[-74.0210802,45.4101535],[-74.0216218,45.4096461],[-74.0217132,45.4096867],[-74.0214578,45.4099333],[-74.0230319,45.4106314],[-74.022108,45.4117067],[-74.0217789,45.4113375],[-74.0217526,45.410881],[-74.0216185,45.4105767],[-74.0210802,45.4101535]]]}},{"type":"Feature","properties":{"id":"parc-jette-125514","name":"Parc Jetté","type":"park"},"geometry":{"type":"Polygon","coordinates":[[[-74.0273218,45.4080142],[-74.0277167,45.407561],[-74.0273708,45.4073675],[-74.0278115,45.4075598],[-74.0279902,45.4081192],[-74.0281305,45.4082697],[-74.0285117,45.408109],[-74.0281332,45.4083868],[-74.0279386,45.4082967],[-74.0277083,45.4085615],[-74.0276421,45.4085308],[-74.0278764,45.4082651],[-74.0273218,45.4080142]]]}},{"type":"Feature","properties":{"id":"parc-saint-robert-056931","name":"Parc Saint-Robert","type":"park"},"geometry":{"type":"Polygon","coordinates":[[[-74.1653851,45.3805487],[-74.1674825,45.3807954],[-74.1665242,45.3849387],[-74.1643945,45.3846893],[-74.1653851,45.3805487]]]}},{"type":"Feature","properties":{"id":"place-gerald-sareault-408077","name":"Place Gérald-Sareault","type":"park"},"geometry":{"type":"Polygon","coordinates":[[[-74.1401967,45.4004489],[-74.1402667,45.4002005],[-74.1404986,45.4002098],[-74.1404153,45.4005117],[-74.1401967,45.4004489]]]}},{"type":"Feature","properties":{"id":"parc-de-saint-lazare-2-418205","name":"Parc de Saint-Lazare (2)","type":"park"},"geometry":{"type":"Polygon","coordinates":[[[-74.1573205,45.4006978],[-74.1567558,45.400926],[-74.1562358,45.4012511],[-74.1559677,45.4010916],[-74.1558386,45.4008964],[-74.1558783,45.4006036],[-74.1559702,45.4005548],[-74.1573205,45.4006978]]]}},{"type":"Feature","properties":{"id":"parc-maple-ridge-534930","name":"Parc Maple-Ridge","type":"park"},"geometry":{"type":"Polygon","coordinates":[[[-74.1698555,45.3942819],[-74.1697348,45.3945217],[-74.1698752,45.3949382],[-74.1697944,45.3949937],[-74.1695728,45.3947232],[-74.1689147,45.3945501],[-74.1691528,45.3940845],[-74.1698555,45.3942819]]]}},{"type":"Feature","properties":{"id":"parc-de-la-decouverte-791508","name":"Parc de la Découverte","type":"park"},"geometry":{"type":"Polygon","coordinates":[[[-74.1501075,45.4105836],[-74.1501605,45.4106766],[-74.1500838,45.4110163],[-74.149512,45.4109478],[-74.1496138,45.4105219],[-74.1501075,45.4105836]],[[-74.1497379,45.4108814],[-74.1499631,45.4108983],[-74.1499929,45.4107637],[-74.1497708,45.4107574],[-74.1497379,45.4108814]]]}},{"type":"Feature","properties":{"id":"parc-de-vaudreuil-dorion-9-911366","name":"Parc de Vaudreuil-Dorion (9)","type":"park"},"geometry":{"type":"Polygon","coordinates":[[[-74.0195533,45.4142854],[-74.0197617,45.4142537],[-74.0198491,45.4145484],[-74.0196396,45.4145773],[-74.0195533,45.4142854]]]}},{"type":"Feature","properties":{"id":"parc-de-vaudreuil-dorion-10-044718","name":"Parc de Vaudreuil-Dorion (10)","type":"park"},"geometry":{"type":"Polygon","coordinates":[[[-74.0249351,45.3992935],[-74.0252431,45.3990859],[-74.0254292,45.3992223],[-74.0251187,45.3994298],[-74.0249351,45.3992935]]]}},{"type":"Feature","properties":{"id":"parc-ivor-mcleod-407914","name":"Parc Ivor-McLeod","type":"park"},"geometry":{"type":"Polygon","coordinates":[[[-74.1550841,45.4253612],[-74.1553698,45.4254216],[-74.1557128,45.4256477],[-74.155639,45.4259276],[-74.1542622,45.4258929],[-74.1541067,45.4254192],[-74.1543097,45.4253951],[-74.1544715,45.4255327],[-74.1550841,45.4253612]]]}},{"type":"Feature","properties":{"id":"parc-paul-gerin-lajoie-455279","name":"Parc Paul-Gérin-Lajoie","type":"park"},"geometry":{"type":"Polygon","coordinates":[[[-74.023472,45.3975628],[-74.0227613,45.3975682],[-74.0226678,45.3974782],[-74.0235486,45.3966508],[-74.0236426,45.3964328],[-74.0235915,45.3962041],[-74.0233116,45.3959407],[-74.0225184,45.395745],[-74.022394,45.3956298],[-74.0222899,45.3953285],[-74.0223305,45.3951315],[-74.0226425,45.39466],[-74.0225909,45.3945267],[-74.0226568,45.3944869],[-74.0223148,45.394275],[-74.0215607,45.3935297],[-74.0209,45.3930877],[-74.0189845,45.3919904],[-74.0181975,45.3916711],[-74.0183841,45.391538],[-74.0196409,45.3921105],[-74.0206543,45.3926983],[-74.0227441,45.394102],[-74.023851,45.3951375],[-74.0241795,45.3956164],[-74.024546,45.3964923],[-74.0237956,45.3966724],[-74.0241015,45.3971251],[-74.0244749,45.3981568],[-74.0240885,45.3983271],[-74.0234501,45.3988261],[-74.023242,45.3980832],[-74.0228682,45.397949],[-74.0220431,45.397978],[-74.0219925,45.3978095],[-74.0220984,45.3977255],[-74.0231922,45.3976986],[-74.0234524,45.3976413],[-74.023472,45.3975628]]]}},{"type":"Feature","properties":{"id":"le-405-455280","name":"Le 405","type":"park"},"geometry":{"type":"Polygon","coordinates":[[[-74.0253204,45.397922],[-74.0244749,45.3981568],[-74.0241015,45.3971251],[-74.0247449,45.3969267],[-74.0253204,45.397922]]]}},{"type":"Feature","properties":{"id":"parc-nature-de-pointe-des-cascades-835756","name":"Parc nature de Pointe-des-Cascades","type":"park"},"geometry":{"type":"MultiPolygon","coordinates":[[[[-73.9596905,45.3295844],[-73.9597109,45.3315103],[-73.9595819,45.3315489],[-73.9597398,45.3318386],[-73.9607005,45.3315897],[-73.9615638,45.3320051],[-73.9619568,45.3320565],[-73.9629603,45.3317989],[-73.9629461,45.3318973],[-73.9632255738494,45.332294541956344],[-73.9623923,45.3325759],[-73.9625559,45.3327317],[-73.96534234302969,45.33188229221887],[-73.9630882,45.3326302],[-73.9627911,45.3329193],[-73.9615838,45.3333151],[-73.9610776,45.3333238],[-73.9584227,45.3341732],[-73.9583712,45.333901],[-73.95782,45.3337945],[-73.9574475,45.3333646],[-73.9574864,45.3331458],[-73.9569416,45.3331243],[-73.9566096,45.3333549],[-73.9564909,45.3335651],[-73.9565195,45.3339318],[-73.956898,45.3345111],[-73.9571467,45.3345538],[-73.9582951,45.3342186],[-73.9577029,45.3346056],[-73.95499302371704,45.335426116038434],[-73.95491695767157,45.335317264041585],[-73.9559143,45.3349342],[-73.9563516,45.3347076],[-73.9565661,45.3344935],[-73.9564606,45.3343952],[-73.9562983,45.3344377],[-73.9562876,45.3343228],[-73.9561252,45.3342944],[-73.9560221,45.3343527],[-73.9560233,45.3344727],[-73.9559238,45.334476],[-73.9558942,45.3342861],[-73.9556619,45.3342594],[-73.955528,45.3341595],[-73.955131,45.3342053],[-73.9540775,45.3350383],[-73.9540182,45.3350058],[-73.9540728,45.3348876],[-73.9544176,45.3345452],[-73.9541533,45.3342453],[-73.9532883,45.3340903],[-73.9529624,45.3341337],[-73.9524327,45.3343969],[-73.9522253,45.3342753],[-73.9519503,45.3343244],[-73.9518781,45.3342295],[-73.951103,45.3340653],[-73.9512772,45.3339554],[-73.9511836,45.3338754],[-73.9512666,45.3338454],[-73.9511315,45.3338537],[-73.9511161,45.3339104],[-73.9510533,45.3338096],[-73.9508601,45.3338146],[-73.950866,45.3336555],[-73.9507463,45.3336938],[-73.9505556,45.333563],[-73.9494452,45.33246],[-73.9496016,45.3323301],[-73.9496336,45.3325483],[-73.9498149,45.3325458],[-73.9499547,45.3327374],[-73.9500851,45.3326633],[-73.9496905,45.3323984],[-73.9497035,45.3322668],[-73.9495613,45.3322393],[-73.9494357,45.3320277],[-73.9494975,45.3318007],[-73.9496696,45.331647],[-73.9495488,45.3315129],[-73.9495713,45.3313805],[-73.9497123,45.3313093],[-73.9499898,45.331451],[-73.9501492,45.3313673],[-73.9502345,45.3309065],[-73.9503355,45.330774],[-73.9502637,45.3307235],[-73.9499449,45.3308229],[-73.9498102,45.3306746],[-73.9500998,45.3303085],[-73.9503471,45.3297154],[-73.9505533,45.3296173],[-73.9503598,45.3294946],[-73.9505343,45.3291311],[-73.9509784,45.3290642],[-73.9517493,45.3292114],[-73.9523268,45.3290129],[-73.9527725,45.3290486],[-73.9531215,45.3289582],[-73.9547442,45.3292337],[-73.9548315,45.3290976],[-73.9551107,45.3291088],[-73.9552201,45.3290185],[-73.9553756,45.3290742],[-73.9558641,45.3290374],[-73.9560894,45.3290698],[-73.9561513,45.3292404],[-73.9564701,45.3293731],[-73.9565446,45.329537],[-73.956662,45.3294656],[-73.9568159,45.3295136],[-73.9568397,45.3294545],[-73.9571712,45.3295493],[-73.9574234,45.3294099],[-73.9574996,45.3294623],[-73.9577851,45.3294166],[-73.9578359,45.3298995],[-73.9581008,45.3298571],[-73.9583292,45.3295181],[-73.9585798,45.3293887],[-73.9594285,45.3294166],[-73.9596905,45.3295844]],[[-73.9508447,45.3316709],[-73.9510448,45.3317523],[-73.9511886,45.3315456],[-73.9508916,45.3315434],[-73.9508447,45.3316709]],[[-73.9515512,45.3319984],[-73.9519296,45.3316533],[-73.9517732,45.3316226],[-73.9514293,45.332016],[-73.9515512,45.3319984]],[[-73.9560288,45.3327694],[-73.9561317,45.3326406],[-73.955833,45.332473],[-73.9552758,45.3325065],[-73.9553536,45.3324695],[-73.9552934,45.3323689],[-73.9551679,45.3324818],[-73.9550524,45.3323671],[-73.9549897,45.3324077],[-73.9551052,45.3324589],[-73.9550775,45.3326336],[-73.9557326,45.3329317],[-73.955818,45.3327941],[-73.9560288,45.3327694]]],[[[-73.96542451884605,45.331856049212334],[-73.96558825330936,45.33180376029352],[-73.96542606049996,45.33185773769043],[-73.96542451884605,45.331856049212334]]],[[[-73.96561157495245,45.33179631248151],[-73.9656232,45.3317926],[-73.96561175373562,45.3317963820083],[-73.96561157495245,45.33179631248151]]]]}},{"type":"Feature","properties":{"id":"parc-saint-francois-2-771687","name":"Parc Saint-François (2)","type":"park"},"geometry":{"type":"Polygon","coordinates":[[[-73.9888055,45.3280783],[-73.988542,45.3281025],[-73.9884297,45.3280215],[-73.9887636,45.3278478],[-73.9888818,45.3279531],[-73.9888055,45.3280783]]]}},{"type":"Feature","properties":{"id":"parc-lucerne-157249","name":"Parc Lucerne","type":"park"},"geometry":{"type":"Polygon","coordinates":[[[-74.0018007,45.3320553],[-74.0018398,45.3319222],[-74.0022193,45.3317732],[-74.0023572,45.331972],[-74.0018592,45.3321411],[-74.0018007,45.3320553]]]}},{"type":"Feature","properties":{"id":"parc-des-cedres-5-914677","name":"Parc des Cèdres (5)","type":"park"},"geometry":{"type":"Polygon","coordinates":[[[-74.0531391,45.303503],[-74.0527393,45.3035712],[-74.0526839,45.3033752],[-74.0531316,45.3033507],[-74.0531391,45.303503]]]}},{"type":"Feature","properties":{"id":"parc-des-cedres-6-602008","name":"Parc des Cèdres (6)","type":"park"},"geometry":{"type":"Polygon","coordinates":[[[-74.0713981,45.3334372],[-74.0716063,45.3336933],[-74.0710856,45.3339107],[-74.0708777,45.3336556],[-74.0708839,45.3335545],[-74.0713981,45.3334372]]]}},{"type":"Feature","properties":{"id":"parc-besner-957517","name":"Parc Besner","type":"park"},"geometry":{"type":"Polygon","coordinates":[[[-74.0786245,45.341012],[-74.0787572,45.3406253],[-74.0789907,45.340513],[-74.0791905,45.3407737],[-74.0786245,45.341012]]]}},{"type":"Feature","properties":{"id":"parc-jack-layton-557122","name":"Parc Jack Layton","type":"park"},"geometry":{"type":"Polygon","coordinates":[[[-74.1350761,45.4604011],[-74.1350535,45.4601923],[-74.13528,45.4599654],[-74.1358139,45.4599291],[-74.1361278,45.4600448],[-74.1363802,45.4599472],[-74.1365258,45.4597429],[-74.1363672,45.4595682],[-74.1364805,45.459491],[-74.1368332,45.4595387],[-74.1371762,45.4594706],[-74.1373574,45.4596612],[-74.1365519,45.4605241],[-74.136474,45.4605017],[-74.1357291,45.4612632],[-74.1357608,45.4613036],[-74.1349941,45.4615974],[-74.1350506,45.4613291],[-74.1355799,45.4607661],[-74.1352284,45.4605803],[-74.1349091,45.4606775],[-74.13480712263593,45.460594334717214],[-74.1350761,45.4604011]]]}},{"type":"Feature","properties":{"id":"parc-sandy-beach-892390","name":"Parc Sandy Beach","type":"park"},"geometry":{"type":"Polygon","coordinates":[[[-74.1282458,45.4584279],[-74.1288517,45.4579772],[-74.129228,45.4578674],[-74.1297099,45.4579693],[-74.129806,45.4578716],[-74.1298452,45.4576351],[-74.1300378,45.457443],[-74.1307964,45.4569531],[-74.1314226,45.4567335],[-74.1319404,45.4567757],[-74.1321361,45.4564716],[-74.1326207,45.4563175],[-74.1331445,45.4562689],[-74.1336563,45.4563703],[-74.1342644,45.4566659],[-74.1344871,45.4568686],[-74.1344179,45.4571199],[-74.1344661,45.4571938],[-74.1347852,45.4573036],[-74.1352909,45.4577196],[-74.135873,45.4577381],[-74.1359483,45.4577928],[-74.1357918,45.4579502],[-74.1363033,45.458272],[-74.1368371,45.4577438],[-74.1399776,45.4591917],[-74.1390315,45.4602444],[-74.1387555,45.4604024],[-74.1369985,45.4605505],[-74.1366367,45.4604826],[-74.1366777,45.4603518],[-74.1373574,45.4596612],[-74.1371762,45.4594706],[-74.1368332,45.4595387],[-74.1365517,45.4594706],[-74.1363672,45.4595682],[-74.1365258,45.4597429],[-74.1363802,45.4599472],[-74.1361278,45.4600448],[-74.1358139,45.4599291],[-74.13528,45.4599654],[-74.1350535,45.4601923],[-74.1350761,45.4604011],[-74.13480712263593,45.460594334717214],[-74.1344982,45.4603424],[-74.1346071,45.4599396],[-74.1347213,45.4598196],[-74.1345452,45.4598633],[-74.1342655,45.4601914],[-74.1338348,45.4600976],[-74.1337556,45.459891],[-74.1327134,45.4594015],[-74.1323448,45.458782],[-74.1320377,45.4585734],[-74.1315905,45.4585114],[-74.1307834,45.4586088],[-74.12895749954778,45.45917851749837],[-74.1282458,45.4584279]]]}},{"type":"Feature","properties":{"id":"royal-oak-tennis-club-019757","name":"Royal Oak Tennis Club","type":"park"},"geometry":{"type":"Polygon","coordinates":[[[-74.1134603,45.4489728],[-74.1121278,45.4496599],[-74.1116469,45.4491894],[-74.1129498,45.4484837],[-74.1134603,45.4489728]]]}},{"type":"Feature","properties":{"id":"parc-crevier-3-410967","name":"Parc Crevier (3)","type":"park"},"geometry":{"type":"Polygon","coordinates":[[[-74.1347961,45.4330703],[-74.1352634,45.4332513],[-74.1348328,45.433449],[-74.1345778,45.4333227],[-74.1347961,45.4330703]]]}},{"type":"Feature","properties":{"id":"parc-de-hudson-651406","name":"Parc de Hudson","type":"park"},"geometry":{"type":"Polygon","coordinates":[[[-74.1445514,45.4594647],[-74.1440533,45.4592119],[-74.1442861,45.4589716],[-74.1448145,45.4592282],[-74.1445514,45.4594647]]]}},{"type":"Feature","properties":{"id":"aire-de-repos-du-lac-pine-583727","name":"Aire de Repos du Lac Pine","type":"park"},"geometry":{"type":"Polygon","coordinates":[[[-74.146387,45.4533383],[-74.1456825,45.4534844],[-74.1476214,45.4523397],[-74.1477979,45.4524778],[-74.1473888,45.4525189],[-74.1468368,45.4531138],[-74.146387,45.4533383]]]}},{"type":"Feature","properties":{"id":"parc-de-vaudreuil-dorion-11-428091","name":"Parc de Vaudreuil-Dorion (11)","type":"park"},"geometry":{"type":"Polygon","coordinates":[[[-74.1899495,45.4548503],[-74.1888779,45.4567371],[-74.188902,45.4580377],[-74.1915385,45.4588484],[-74.1911426,45.4595966],[-74.1903393,45.459504],[-74.1890466,45.4591121],[-74.1876751,45.4588649],[-74.1869085,45.4589313],[-74.1869684,45.4596303],[-74.1866367,45.4597253],[-74.1861224,45.459377],[-74.1865612,45.4587872],[-74.1860799,45.458632],[-74.1845337,45.4583722],[-74.1817979,45.4580613],[-74.1816957,45.4580262],[-74.1818098,45.4578772],[-74.1813986,45.4576721],[-74.1821337,45.456347],[-74.1826828,45.4557113],[-74.1833124,45.455253],[-74.1842146,45.4544289],[-74.183665,45.4541299],[-74.1844978,45.4537413],[-74.1853323,45.4532218],[-74.1861347,45.4536352],[-74.1869524,45.4539208],[-74.1869631,45.4540158],[-74.1899495,45.4548503]]]}},{"type":"Feature","properties":{"id":"parc-de-hudson-2-573497","name":"Parc de Hudson (2)","type":"park"},"geometry":{"type":"Polygon","coordinates":[[[-74.1755965,45.4576543],[-74.175163,45.4584035],[-74.1744741,45.4588676],[-74.1740573,45.4585768],[-74.1742311,45.4583799],[-74.1747646,45.4580295],[-74.1749641,45.4579834],[-74.1752216,45.457741],[-74.1755965,45.4576543]]]}},{"type":"Feature","properties":{"id":"parc-de-hudson-3-600388","name":"Parc de Hudson (3)","type":"park"},"geometry":{"type":"Polygon","coordinates":[[[-74.1644055,45.4629454],[-74.1630937,45.4642799],[-74.1625373,45.4646944],[-74.160179,45.4673998],[-74.1596509,45.4672423],[-74.1600081,45.4667081],[-74.1599585,45.4666912],[-74.1609352,45.4656649],[-74.1600541,45.4652619],[-74.1590076,45.4663828],[-74.1589232,45.4662513],[-74.1583649,45.4660008],[-74.1587538,45.4655626],[-74.158021,45.4652224],[-74.1597755,45.4634154],[-74.1610501,45.4640274],[-74.1622669,45.462781],[-74.1624145,45.4628515],[-74.1630582,45.4621945],[-74.1644055,45.4629454]]]}},{"type":"Feature","properties":{"id":"parc-saint-fereol-959574","name":"Parc Saint-Féréol","type":"park"},"geometry":{"type":"Polygon","coordinates":[[[-74.0890317,45.3459798],[-74.0905716,45.3452762],[-74.0907838,45.3452784],[-74.0918575,45.3448448],[-74.0923345,45.3453694],[-74.0913681,45.3459413],[-74.0913214,45.3460584],[-74.0910838,45.3461439],[-74.0903695,45.3461925],[-74.0903033,45.3461132],[-74.0900248,45.3462282],[-74.0899673,45.3461566],[-74.0893891,45.3464035],[-74.0890317,45.3459798]]]}},{"type":"Feature","properties":{"id":"parc-nature-les-forestiers-de-saint-lazare-565005","name":"Parc nature les Forestiers-de-Saint-Lazare","type":"park"},"geometry":{"type":"Polygon","coordinates":[[[-74.19330254235015,45.38326966541497],[-74.180057,45.3816932],[-74.1796301,45.3815737],[-74.1796415,45.3814299],[-74.1798064,45.3813141],[-74.180375,45.3813181],[-74.1805683,45.3812302],[-74.180773,45.3806551],[-74.1809891,45.3804954],[-74.18108,45.3802517],[-74.1809265,45.3798164],[-74.1807957,45.3796766],[-74.1802044,45.379421],[-74.1796813,45.3790336],[-74.1796188,45.3784226],[-74.1798525,45.377915],[-74.1798141,45.3777827],[-74.1790427,45.3774891],[-74.1795379,45.3773476],[-74.1798838,45.3773387],[-74.183659,45.3773744],[-74.1892748,45.3773031],[-74.18998182046035,45.37760012592459],[-74.19486621344602,45.3834466992658],[-74.20562505609762,45.38466478109267],[-74.2099129,45.3852337],[-74.2098236,45.3857573],[-74.2101171,45.3858702],[-74.209711,45.386545],[-74.216217,45.387601],[-74.2140922,45.396968],[-74.2084284,45.396174],[-74.2062531,45.3956898],[-74.1948272,45.3921914],[-74.1945892,45.3920521],[-74.1945438,45.391857],[-74.1947707,45.3902812],[-74.1939039,45.3901753],[-74.1932862,45.3926964],[-74.1930401,45.3933083],[-74.1921707,45.3931952],[-74.1919727,45.3938846],[-74.1851396,45.3930208],[-74.1862503,45.3881916],[-74.1873132,45.3842184],[-74.18763058622062,45.38260611542425],[-74.19330254235015,45.38326966541497]],[[-74.1888452,45.384118],[-74.1889089,45.3839817],[-74.1892454,45.3840201],[-74.1893969,45.3838838],[-74.1892029,45.3837284],[-74.1892878,45.3836773],[-74.189206,45.3835495],[-74.1894303,45.3835453],[-74.1892757,45.3834388],[-74.1893454,45.3833174],[-74.1892332,45.3832131],[-74.1892545,45.3830619],[-74.1888998,45.3830918],[-74.1885845,45.3833174],[-74.1885754,45.3832323],[-74.1882632,45.38326],[-74.1881632,45.3833643],[-74.1882571,45.3834324],[-74.1881025,45.3835474],[-74.1882329,45.3840243],[-74.1888452,45.384118]]]}},{"type":"Feature","properties":{"id":"place-seraphin-bedard-131492","name":"Place Séraphin-Bédard","type":"park"},"geometry":{"type":"Polygon","coordinates":[[[-74.207117,45.4177501],[-74.2072356,45.4176169],[-74.2073959,45.4177398],[-74.2071681,45.4179706],[-74.207117,45.4177501]]]}},{"type":"Feature","properties":{"id":"reserve-naturelle-du-marecage-des-chenaux-de-vaudreuil-219491","name":"Réserve naturelle du Marécage-des-Chenaux-de-Vaudreuil","type":"park"},"geometry":{"type":"Polygon","coordinates":[[[-74.0145307,45.4173678],[-74.0149752,45.4183206],[-74.0156725,45.4180752],[-74.0157396,45.41822],[-74.0151968,45.4184004],[-74.015485,45.4189123],[-74.0160893,45.4187827],[-74.0161146,45.4187015],[-74.0162814,45.4188725],[-74.0147632,45.4192279],[-74.0144351,45.418662],[-74.0135233,45.4189859],[-74.0140724,45.4193981],[-74.0141014,45.4195741],[-74.0135584,45.4201483],[-74.0132436,45.4203587],[-74.0129948,45.4204575],[-74.0124022,45.4204586],[-74.0124653,45.4212745],[-74.0107804,45.4216831],[-74.0100526,45.4219899],[-74.0099047,45.4219595],[-74.009266,45.4225542],[-74.0090643,45.4224493],[-74.0084477,45.4224317],[-74.0081346,45.4226653],[-74.0080765,45.4228667],[-74.0076229,45.4228697],[-74.0075998,45.422545],[-74.0077972,45.4222106],[-74.0078444,45.4219666],[-74.0083894,45.4217016],[-74.0083765,45.4214877],[-74.0082006,45.4211473],[-74.0087456,45.4205901],[-74.0087842,45.4201864],[-74.0089252,45.4198398],[-74.008996,45.4197608],[-74.0093756,45.4196782],[-74.0093946,45.419465],[-74.0095401,45.4192588],[-74.0103114,45.4191678],[-74.0103662,45.4190756],[-74.0100781,45.4188236],[-74.0108412,45.4185166],[-74.0098874,45.4181768],[-74.0095118,45.4182206],[-74.0092008,45.4181091],[-74.0145307,45.4173678]]]}},{"type":"Feature","properties":{"id":"parc-nature-de-l-ile-aux-tourtes-400413","name":"Parc nature de l'Île-aux-Tourtes","type":"park"},"geometry":{"type":"Polygon","coordinates":[[[-74.00439362518559,45.418771086156845],[-74.0081095,45.4182594],[-74.0079848,45.4184892],[-74.008196,45.418793],[-74.0078265,45.4190879],[-74.0074829,45.4195483],[-74.0068559,45.4197435],[-74.0067831,45.4198384],[-74.0068084,45.4200599],[-74.0071288,45.4202721],[-74.0070474,45.4204968],[-74.0068328,45.4206199],[-74.0063049,45.4205754],[-74.0062073,45.4204207],[-74.0059435,45.4202815],[-74.0057989,45.4203212],[-74.0057029,45.4204828],[-74.0048476,45.4206185],[-74.0048249,45.4205555],[-74.0050136,45.4204137],[-74.0050309,45.4202961],[-74.0049649,45.4201584],[-74.0045877,45.4200755],[-74.0044704,45.4199173],[-74.0044519,45.4194633],[-74.004351,45.419233],[-74.00439362518559,45.418771086156845]]]}},{"type":"Feature","properties":{"id":"parc-de-notre-dame-de-l-ile-perrot-2-762302","name":"Parc de Notre-Dame-de-l'Île-Perrot (2)","type":"park"},"geometry":{"type":"Polygon","coordinates":[[[-73.937863,45.3791976],[-73.9378518,45.3789744],[-73.938023,45.3789777],[-73.9380357,45.3791987],[-73.937863,45.3791976]]]}},{"type":"Feature","properties":{"id":"parc-des-colibris-2-689021","name":"Parc des Colibris (2)","type":"park"},"geometry":{"type":"Polygon","coordinates":[[[-73.9985254,45.3314473],[-73.9979638,45.3316497],[-73.9971871,45.3306314],[-73.9977555,45.3304102],[-73.9985254,45.3314473]]]}},{"type":"Feature","properties":{"id":"parc-de-pincourt-4-891580","name":"Parc de Pincourt (4)","type":"park"},"geometry":{"type":"Polygon","coordinates":[[[-73.998502,45.3809723],[-73.9981284,45.3807502],[-73.9976533,45.3806467],[-73.9983112,45.3804738],[-73.9985101,45.3808391],[-73.998502,45.3809723]]]}},{"type":"Feature","properties":{"id":"parc-de-picardie-2-596024","name":"Parc de Picardie (2)","type":"park"},"geometry":{"type":"Polygon","coordinates":[[[-74.0145209,45.4243158],[-74.0140369,45.4239139],[-74.0138945,45.4239809],[-74.0134288,45.4234889],[-74.0129946,45.4231637],[-74.0132954,45.4230155],[-74.0137199,45.4229491],[-74.0137369,45.4231058],[-74.014222,45.4231569],[-74.0142285,45.4234011],[-74.0143943,45.4237987],[-74.0142968,45.4239303],[-74.0146471,45.4242863],[-74.0145209,45.4243158]]]}},{"type":"Feature","properties":{"id":"parc-de-notre-dame-de-l-ile-perrot-3-631265","name":"Parc de Notre-Dame-de-l'Île-Perrot (3)","type":"park"},"geometry":{"type":"Polygon","coordinates":[[[-73.9183865,45.356519],[-73.9182244,45.3561282],[-73.918309,45.355975],[-73.9185157,45.3562137],[-73.9183865,45.356519]]]}},{"type":"Feature","properties":{"id":"parc-du-suroit-667420","name":"Parc du Suroît","type":"park"},"geometry":{"type":"MultiPolygon","coordinates":[[[[-73.9784446,45.3689945],[-73.9785773,45.3688402],[-73.9792525,45.3689317],[-73.9791332,45.3690954],[-73.9784446,45.3689945]]],[[[-73.9787976,45.3692992],[-73.9786673,45.3692084],[-73.9786791,45.3691151],[-73.979128,45.3692121],[-73.9786334,45.3704314],[-73.9785633,45.3705618],[-73.9784788,45.3705497],[-73.9787622,45.36979],[-73.9787976,45.3692992]]]]}},{"type":"Feature","properties":{"id":"parc-de-l-ile-bray-004313","name":"Parc de l'Île-Bray","type":"park"},"geometry":{"type":"MultiPolygon","coordinates":[[[[-74.0078282,45.3778248],[-74.0086338,45.3783386],[-74.0091808,45.378873],[-74.0093007,45.3791257],[-74.0084083,45.3791434],[-74.0079272,45.3790344],[-74.0070873,45.3787337],[-74.0071011,45.3785896],[-74.006889,45.3786187],[-74.0065663,45.3783224],[-74.007168,45.3780584],[-74.0072994,45.3781102],[-74.007606,45.37846],[-74.0076752,45.3784228],[-74.0075622,45.3782511],[-74.0075991,45.3781394],[-74.0078282,45.3778248]]],[[[-74.0065979,45.3796311],[-74.006279,45.3789792],[-74.00640720559575,45.37887311927776],[-74.0075829,45.3791769],[-74.0077534,45.3791622],[-74.0079376,45.3792916],[-74.0085667,45.3794874],[-74.0089181,45.3795011],[-74.0089811,45.3795884],[-74.0087078,45.3797862],[-74.0076111,45.3799156],[-74.0070817,45.3795653],[-74.0065979,45.3796311]]],[[[-74.0077938,45.3806059],[-74.00721418806434,45.38023785890008],[-74.00709671022781,45.38005170081509],[-74.007363,45.3800212],[-74.00778083694846,45.380249674163686],[-74.0078913,45.3804261],[-74.0080601,45.3804494],[-74.0080725,45.3805297],[-74.0077938,45.3806059]]]]}},{"type":"Feature","properties":{"id":"place-du-marquis-330244","name":"Place du Marquis","type":"park"},"geometry":{"type":"MultiPolygon","coordinates":[[[[-74.0257518,45.3990119],[-74.0255965,45.3988721],[-74.0259804,45.3986515],[-74.026097,45.3987696],[-74.0257518,45.3990119]]],[[[-74.0260464,45.3991812],[-74.0258881,45.3990742],[-74.026204,45.3988917],[-74.0263175,45.3990077],[-74.0260464,45.3991812]]]]}},{"type":"Feature","properties":{"id":"parc-saint-pierre-5-444295","name":"Parc Saint-Pierre (5)","type":"park"},"geometry":{"type":"MultiPolygon","coordinates":[[[[-73.967111,45.3289625],[-73.9679726,45.3300597],[-73.9672399,45.3303082],[-73.9670026,45.3299074],[-73.9664454,45.3294576],[-73.9661745,45.3290114],[-73.9667807,45.3288845],[-73.967111,45.3289625]]],[[[-73.9661967,45.3310492],[-73.9665329,45.3309415],[-73.9663717,45.3307037],[-73.9666238,45.3305891],[-73.967344,45.3303563],[-73.9674929,45.3306869],[-73.9678038,45.3305869],[-73.9675922,45.3302699],[-73.9689465,45.3298253],[-73.9690893,45.329869],[-73.96967466172927,45.33064018430048],[-73.9685485,45.3310116],[-73.9678615,45.3310494],[-73.9680881,45.3308836],[-73.9680119,45.330719],[-73.96632983740173,45.33124637571337],[-73.9661967,45.3310492]]]]}},{"type":"Feature","properties":{"id":"parc-daoust-559243","name":"Parc Daoust","type":"park"},"geometry":{"type":"MultiPolygon","coordinates":[[[[-74.052168,45.3090529],[-74.0522783,45.308847],[-74.0524358,45.3087837],[-74.0526619,45.3088297],[-74.0527488,45.3089455],[-74.0526302,45.3092325],[-74.0521996,45.3091678],[-74.052168,45.3090529]]],[[[-74.052582,45.3093018],[-74.0524527,45.3096368],[-74.0522036,45.3096655],[-74.052028,45.3095478],[-74.0521178,45.3092281],[-74.052582,45.3093018]]]]}},{"type":"Feature","properties":{"id":"parc-thompson-661763","name":"Parc Thompson","type":"park"},"geometry":{"type":"MultiPolygon","coordinates":[[[[-74.1801033,45.4701358],[-74.1789253,45.4714139],[-74.1774406,45.4711561],[-74.1785597,45.4699642],[-74.1801033,45.4701358]]],[[[-74.1751969,45.4725983],[-74.175768,45.4719196],[-74.176612,45.4711389],[-74.1789111,45.4714678],[-74.177357,45.4731471],[-74.1751969,45.4725983]]]]}},{"type":"Feature","properties":{"id":"parc-de-saint-lazare-3-693125","name":"Parc de Saint-Lazare (3)","type":"park"},"geometry":{"type":"MultiPolygon","coordinates":[[[[-74.1770409,45.4259437],[-74.1775717,45.4260606],[-74.1781402,45.426233],[-74.1780465,45.4264262],[-74.1775016,45.4265939],[-74.1770549,45.4266217],[-74.1767012,45.4265436],[-74.1770409,45.4259437]],[[-74.1772807,45.4264721],[-74.1773371,45.426369],[-74.1772033,45.4262179],[-74.1768134,45.4264804],[-74.1772807,45.4264721]]],[[[-74.1784019,45.4271434],[-74.1765548,45.4266048],[-74.1773309,45.4266871],[-74.178138,45.4264934],[-74.1786295,45.426727],[-74.1784019,45.4271434]]]]}},{"type":"Feature","properties":{"id":"parc-de-ville-de-l-ile-perrot-836495","name":"Parc de Ville de l'Île-Perrot","type":"park"},"geometry":{"type":"MultiPolygon","coordinates":[[[[-73.961079,45.3951931],[-73.9598917,45.3950405],[-73.9598828,45.395012],[-73.9601355,45.3947837],[-73.9603635,45.3949007],[-73.9606147,45.3946843],[-73.9607454,45.3948056],[-73.9609425,45.3948457],[-73.9608342,45.3949392],[-73.9612578,45.3950468],[-73.961079,45.3951931]]],[[[-73.9614416,45.3950863],[-73.9618098,45.3951907],[-73.9624625,45.3953016],[-73.962187,45.3953693],[-73.9613022,45.3952316],[-73.9613195,45.3951209],[-73.9614416,45.3950863]]]]}},{"type":"Feature","properties":{"id":"parc-de-la-maison-valois-152301","name":"Parc de la Maison-Valois","type":"park"},"geometry":{"type":"MultiPolygon","coordinates":[[[[-74.015562,45.3920162],[-74.0145826,45.391449],[-74.0145319,45.3913157],[-74.0146966,45.3911434],[-74.0163941,45.3902412],[-74.0183841,45.391538],[-74.0181975,45.3916711],[-74.017403,45.391565],[-74.0160813,45.3920558],[-74.015562,45.3920162]]],[[[-74.0139228,45.3917043],[-74.0144051,45.3914757],[-74.0145934,45.3915507],[-74.0143836,45.391832],[-74.0139666,45.3918756],[-74.0139228,45.3917043]]]]}}]}
