{"type":"FeatureCollection","features":[{"type":"Feature","properties":{"category":"airport"},"geometry":{"type":"MultiPolygon","coordinates":[[[[-74.13257050667939,45.38918368183772],[-74.13436713724762,45.38918368183772],[-74.13616376781587,45.38918368183772],[-74.13616376781587,45.390445418867685],[-74.13436713724762,45.390445418867685],[-74.13436713724762,45.39170712773172],[-74.13436713724762,45.392968808429785],[-74.13436713724762,45.39423046096192],[-74.13257050667939,45.39423046096192],[-74.13257050667939,45.392968808429785],[-74.13257050667939,45.39170712773172],[-74.13257050667939,45.390445418867685],[-74.13257050667939,45.38918368183772]]],[[[-74.07687495906397,45.348793225151255],[-74.07507832849574,45.348793225151255],[-74.07507832849574,45.350055863500664],[-74.0732816979275,45.350055863500664],[-74.0732816979275,45.3513184736836],[-74.07148506735926,45.3513184736836],[-74.06968843679101,45.3513184736836],[-74.06789180622278,45.3513184736836],[-74.06789180622278,45.350055863500664],[-74.06789180622278,45.348793225151255],[-74.06968843679101,45.348793225151255],[-74.06968843679101,45.34753055863533],[-74.07148506735926,45.34753055863533],[-74.0732816979275,45.34753055863533],[-74.0732816979275,45.346267863952924],[-74.07507832849574,45.346267863952924],[-74.07687495906397,45.346267863952924],[-74.07687495906397,45.34500514110398],[-74.07867158963222,45.34500514110398],[-74.07867158963222,45.34374239008851],[-74.08046822020046,45.34374239008851],[-74.0822648507687,45.34374239008851],[-74.0822648507687,45.34500514110398],[-74.08406148133695,45.34500514110398],[-74.08406148133695,45.346267863952924],[-74.0822648507687,45.346267863952924],[-74.08046822020046,45.346267863952924],[-74.08046822020046,45.34753055863533],[-74.07867158963222,45.34753055863533],[-74.07687495906397,45.34753055863533],[-74.07687495906397,45.348793225151255]]]]}}]}
