{"type":"FeatureCollection","features":[{"type":"Feature","properties":{"category":"airport"},"geometry":{"type":"MultiPolygon","coordinates":[[[[-71.58315173034819,46.72437173897288],[-71.58135509977994,46.72437173897288],[-71.58135509977994,46.72560333083579],[-71.5795584692117,46.72560333083579],[-71.5795584692117,46.72683489458125],[-71.57776183864347,46.72683489458125],[-71.57596520807523,46.72683489458125],[-71.57596520807523,46.72560333083579],[-71.57776183864347,46.72560333083579],[-71.57776183864347,46.72437173897288],[-71.5795584692117,46.72437173897288],[-71.5795584692117,46.723140118992355],[-71.58135509977994,46.723140118992355],[-71.58135509977994,46.721908470894206],[-71.58315173034819,46.721908470894206],[-71.58315173034819,46.720676794678354],[-71.58494836091643,46.720676794678354],[-71.58494836091643,46.71944509034471],[-71.58674499148466,46.71944509034471],[-71.5885416220529,46.71944509034471],[-71.5885416220529,46.720676794678354],[-71.5885416220529,46.721908470894206],[-71.58674499148466,46.721908470894206],[-71.58674499148466,46.723140118992355],[-71.58494836091643,46.723140118992355],[-71.58315173034819,46.723140118992355],[-71.58315173034819,46.72437173897288]]],[[[-71.40887856522899,46.77976553752886],[-71.40887856522899,46.7809958641775],[-71.41067519579724,46.7809958641775],[-71.41067519579724,46.782226162712],[-71.41067519579724,46.78345643313238],[-71.40887856522899,46.78345643313238],[-71.40887856522899,46.78468667543877],[-71.40887856522899,46.785916889631245],[-71.40708193466075,46.785916889631245],[-71.40708193466075,46.787147075709804],[-71.40708193466075,46.7883772336746],[-71.40708193466075,46.78960736352571],[-71.40708193466075,46.79083746526316],[-71.40528530409252,46.79083746526316],[-71.40528530409252,46.78960736352571],[-71.40348867352428,46.78960736352571],[-71.40348867352428,46.79083746526316],[-71.40169204295604,46.79083746526316],[-71.40169204295604,46.792067538887046],[-71.3998954123878,46.792067538887046],[-71.3998954123878,46.793297584397486],[-71.39809878181956,46.793297584397486],[-71.39809878181956,46.794527601794485],[-71.39630215125132,46.794527601794485],[-71.39630215125132,46.79575759107816],[-71.39450552068308,46.79575759107816],[-71.39450552068308,46.796987552248574],[-71.39270889011485,46.796987552248574],[-71.39270889011485,46.79821748530581],[-71.39091225954661,46.79821748530581],[-71.39091225954661,46.79944739024995],[-71.38911562897837,46.79944739024995],[-71.38911562897837,46.80067726708104],[-71.38731899841012,46.80067726708104],[-71.38731899841012,46.80190711579919],[-71.38552236784189,46.80190711579919],[-71.38552236784189,46.80313693640446],[-71.38372573727365,46.80313693640446],[-71.38372573727365,46.80436672889693],[-71.38192910670541,46.80436672889693],[-71.38192910670541,46.80559649327668],[-71.38013247613718,46.80559649327668],[-71.37833584556894,46.80559649327668],[-71.37833584556894,46.80436672889693],[-71.37653921500069,46.80436672889693],[-71.37653921500069,46.80313693640446],[-71.37474258443245,46.80313693640446],[-71.37474258443245,46.80190711579919],[-71.37294595386422,46.80190711579919],[-71.37294595386422,46.80067726708104],[-71.37114932329598,46.80067726708104],[-71.37114932329598,46.79944739024995],[-71.36935269272774,46.79944739024995],[-71.36935269272774,46.79821748530581],[-71.36755606215951,46.79821748530581],[-71.36755606215951,46.796987552248574],[-71.36575943159126,46.796987552248574],[-71.36575943159126,46.79575759107816],[-71.36575943159126,46.794527601794485],[-71.36755606215951,46.794527601794485],[-71.36755606215951,46.793297584397486],[-71.36935269272774,46.793297584397486],[-71.36935269272774,46.792067538887046],[-71.37114932329598,46.792067538887046],[-71.37114932329598,46.79083746526316],[-71.37294595386422,46.79083746526316],[-71.37294595386422,46.78960736352571],[-71.37474258443245,46.78960736352571],[-71.37474258443245,46.7883772336746],[-71.37653921500069,46.7883772336746],[-71.37653921500069,46.787147075709804],[-71.37833584556894,46.787147075709804],[-71.37833584556894,46.785916889631245],[-71.38013247613718,46.785916889631245],[-71.38013247613718,46.78468667543877],[-71.38192910670541,46.78468667543877],[-71.38192910670541,46.78345643313238],[-71.38372573727365,46.78345643313238],[-71.38372573727365,46.782226162712],[-71.38372573727365,46.7809958641775],[-71.38552236784189,46.7809958641775],[-71.38731899841012,46.7809958641775],[-71.38911562897837,46.7809958641775],[-71.38911562897837,46.77976553752886],[-71.39091225954661,46.77976553752886],[-71.39270889011485,46.77976553752886],[-71.39450552068308,46.77976553752886],[-71.39630215125132,46.77976553752886],[-71.39809878181956,46.77976553752886],[-71.39809878181956,46.77853518276599],[-71.3998954123878,46.77853518276599],[-71.40169204295604,46.77853518276599],[-71.40348867352428,46.77853518276599],[-71.40528530409252,46.77853518276599],[-71.40708193466075,46.77853518276599],[-71.40708193466075,46.77976553752886],[-71.40887856522899,46.77976553752886]]]]}},{"type":"Feature","properties":{"category":"military"},"geometry":{"type":"MultiPolygon","coordinates":[[[[-71.68196641160134,46.98606608899652],[-71.68196641160134,46.98729169355941],[-71.68376304216957,46.98729169355941],[-71.68376304216957,46.988517270021475],[-71.68555967273781,46.988517270021475],[-71.68555967273781,46.9897428183828],[-71.68735630330605,46.9897428183828],[-71.68735630330605,46.99096833864344],[-71.68915293387428,46.99096833864344],[-71.68915293387428,46.99219383080352],[-71.69094956444253,46.99219383080352],[-71.69094956444253,46.9934192948631],[-71.69274619501077,46.9934192948631],[-71.69274619501077,46.99464473082228],[-71.69274619501077,46.99587013868112],[-71.694542825579,46.99587013868112],[-71.694542825579,46.997095518439714],[-71.69633945614724,46.997095518439714],[-71.69633945614724,46.998320870098134],[-71.69813608671548,46.998320870098134],[-71.69813608671548,46.999546193656506],[-71.69993271728372,46.999546193656506],[-71.69993271728372,47.000771489114854],[-71.70172934785197,47.000771489114854],[-71.70172934785197,47.00199675647331],[-71.70172934785197,47.00322199573195],[-71.69993271728372,47.00322199573195],[-71.69993271728372,47.00444720689084],[-71.69813608671548,47.00444720689084],[-71.69813608671548,47.005672389950064],[-71.69633945614724,47.005672389950064],[-71.69633945614724,47.00689754490973],[-71.694542825579,47.00689754490973],[-71.694542825579,47.0081226717699],[-71.69274619501077,47.0081226717699],[-71.69274619501077,47.00934777053066],[-71.69094956444253,47.00934777053066],[-71.69094956444253,47.01057284119211],[-71.68915293387428,47.01057284119211],[-71.68915293387428,47.011797883754326],[-71.68735630330605,47.011797883754326],[-71.68735630330605,47.013022898217386],[-71.68555967273781,47.013022898217386],[-71.68555967273781,47.014247884581394],[-71.68376304216957,47.014247884581394],[-71.68376304216957,47.015472842846414],[-71.68196641160134,47.015472842846414],[-71.68196641160134,47.01669777301251],[-71.6801697810331,47.01669777301251],[-71.6801697810331,47.01792267507983],[-71.67837315046485,47.01792267507983],[-71.67837315046485,47.019147549048405],[-71.67837315046485,47.020372394918354],[-71.6801697810331,47.020372394918354],[-71.6801697810331,47.021597212689755],[-71.67837315046485,47.021597212689755],[-71.67837315046485,47.02282200236263],[-71.67657651989661,47.02282200236263],[-71.67657651989661,47.02404676393717],[-71.67477988932838,47.02404676393717],[-71.67477988932838,47.025271497413385],[-71.67298325876014,47.025271497413385],[-71.67298325876014,47.02649620279139],[-71.6711866281919,47.02649620279139],[-71.6711866281919,47.02772088007126],[-71.66938999762367,47.02772088007126],[-71.66938999762367,47.02894552925308],[-71.66759336705542,47.02894552925308],[-71.66759336705542,47.03017015033694],[-71.66579673648718,47.03017015033694],[-71.66579673648718,47.03139474332292],[-71.66400010591894,47.03139474332292],[-71.66400010591894,47.03261930821109],[-71.66220347535071,47.03261930821109],[-71.66220347535071,47.03384384500158],[-71.66040684478247,47.03384384500158],[-71.66040684478247,47.035068353694435],[-71.65861021421424,47.035068353694435],[-71.65861021421424,47.03629283428979],[-71.65681358364598,47.03629283428979],[-71.65681358364598,47.03751728678767],[-71.65501695307775,47.03751728678767],[-71.65501695307775,47.038741711188166],[-71.65322032250951,47.038741711188166],[-71.65322032250951,47.039966107491395],[-71.65142369194128,47.039966107491395],[-71.65142369194128,47.04119047569745],[-71.64962706137304,47.04119047569745],[-71.64962706137304,47.042414815806374],[-71.6478304308048,47.042414815806374],[-71.6478304308048,47.04363912781829],[-71.64603380023655,47.04363912781829],[-71.64603380023655,47.04486341173328],[-71.64423716966832,47.04486341173328],[-71.64423716966832,47.046087667551404],[-71.64244053910008,47.046087667551404],[-71.64244053910008,47.04731189527276],[-71.64064390853184,47.04731189527276],[-71.64064390853184,47.048536094897436],[-71.6388472779636,47.048536094897436],[-71.6388472779636,47.049760266425515],[-71.63705064739537,47.049760266425515],[-71.63705064739537,47.050984409857115],[-71.63525401682712,47.050984409857115],[-71.63525401682712,47.05220852519228],[-71.63345738625888,47.05220852519228],[-71.63345738625888,47.0534326124311],[-71.63166075569065,47.0534326124311],[-71.63166075569065,47.054656671573674],[-71.62986412512241,47.054656671573674],[-71.62986412512241,47.055880702620094],[-71.62806749455417,47.055880702620094],[-71.62806749455417,47.05710470557043],[-71.62627086398594,47.05710470557043],[-71.62627086398594,47.05832868042479],[-71.62447423341769,47.05832868042479],[-71.62447423341769,47.05955262718323],[-71.62267760284945,47.05955262718323],[-71.62267760284945,47.06077654584587],[-71.62088097228121,47.06077654584587],[-71.62088097228121,47.06200043641278],[-71.61908434171298,47.06200043641278],[-71.61908434171298,47.06322429888405],[-71.61728771114473,47.06322429888405],[-71.61728771114473,47.06444813325975],[-71.61549108057649,47.06444813325975],[-71.61549108057649,47.06567193953998],[-71.61369445000825,47.06567193953998],[-71.61369445000825,47.06689571772482],[-71.61189781944,47.06689571772482],[-71.61189781944,47.0681194678144],[-71.61010118887177,47.0681194678144],[-71.61010118887177,47.069343189808734],[-71.60830455830353,47.069343189808734],[-71.60830455830353,47.07056688370793],[-71.6065079277353,47.07056688370793],[-71.6065079277353,47.071790549512116],[-71.60471129716706,47.071790549512116],[-71.60471129716706,47.073014187221375],[-71.6029146665988,47.073014187221375],[-71.6029146665988,47.074237796835725],[-71.60111803603057,47.074237796835725],[-71.60111803603057,47.075461378355335],[-71.59932140546233,47.075461378355335],[-71.59932140546233,47.07668493178023],[-71.5975247748941,47.07668493178023],[-71.5975247748941,47.07790845711054],[-71.59572814432586,47.07790845711054],[-71.59572814432586,47.079131954346316],[-71.59393151375762,47.079131954346316],[-71.59393151375762,47.080355423487674],[-71.59213488318937,47.080355423487674],[-71.59213488318937,47.08157886453471],[-71.59033825262114,47.08157886453471],[-71.59033825262114,47.082802277487474],[-71.5885416220529,47.082802277487474],[-71.5885416220529,47.08402566234609],[-71.58674499148466,47.08402566234609],[-71.58674499148466,47.08524901911062],[-71.58494836091643,47.08524901911062],[-71.58315173034819,47.08524901911062],[-71.58315173034819,47.08402566234609],[-71.58135509977994,47.08402566234609],[-71.58135509977994,47.082802277487474],[-71.5795584692117,47.082802277487474],[-71.5795584692117,47.08157886453471],[-71.57776183864347,47.08157886453471],[-71.57776183864347,47.080355423487674],[-71.57596520807523,47.080355423487674],[-71.57596520807523,47.079131954346316],[-71.574168577507,47.079131954346316],[-71.574168577507,47.07790845711054],[-71.57237194693876,47.07790845711054],[-71.57237194693876,47.07668493178023],[-71.57057531637051,47.07668493178023],[-71.57057531637051,47.075461378355335],[-71.56877868580227,47.075461378355335],[-71.56877868580227,47.074237796835725],[-71.57057531637051,47.074237796835725],[-71.57237194693876,47.074237796835725],[-71.57237194693876,47.073014187221375],[-71.57057531637051,47.073014187221375],[-71.57057531637051,47.071790549512116],[-71.57057531637051,47.07056688370793],[-71.56877868580227,47.07056688370793],[-71.56877868580227,47.069343189808734],[-71.56877868580227,47.0681194678144],[-71.56698205523404,47.0681194678144],[-71.56698205523404,47.06689571772482],[-71.56698205523404,47.06567193953998],[-71.5651854246658,47.06567193953998],[-71.5651854246658,47.06444813325975],[-71.56338879409756,47.06444813325975],[-71.56159216352933,47.06444813325975],[-71.55979553296108,47.06444813325975],[-71.55799890239284,47.06444813325975],[-71.55799890239284,47.06567193953998],[-71.5562022718246,47.06567193953998],[-71.5562022718246,47.06444813325975],[-71.55440564125637,47.06444813325975],[-71.55440564125637,47.06322429888405],[-71.55260901068813,47.06322429888405],[-71.55260901068813,47.06200043641278],[-71.5508123801199,47.06200043641278],[-71.5508123801199,47.06077654584587],[-71.54901574955164,47.06077654584587],[-71.54901574955164,47.05955262718323],[-71.5472191189834,47.05955262718323],[-71.5472191189834,47.05832868042479],[-71.54542248841517,47.05832868042479],[-71.54542248841517,47.05710470557043],[-71.54542248841517,47.055880702620094],[-71.5472191189834,47.055880702620094],[-71.5472191189834,47.054656671573674],[-71.54901574955164,47.054656671573674],[-71.54901574955164,47.0534326124311],[-71.5472191189834,47.0534326124311],[-71.5472191189834,47.05220852519228],[-71.54542248841517,47.05220852519228],[-71.54542248841517,47.050984409857115],[-71.54362585784693,47.050984409857115],[-71.54362585784693,47.049760266425515],[-71.5418292272787,47.049760266425515],[-71.5418292272787,47.048536094897436],[-71.54003259671046,47.048536094897436],[-71.54003259671046,47.04731189527276],[-71.53823596614221,47.04731189527276],[-71.53823596614221,47.046087667551404],[-71.53643933557397,47.046087667551404],[-71.53643933557397,47.04486341173328],[-71.53464270500574,47.04486341173328],[-71.53464270500574,47.04363912781829],[-71.5328460744375,47.04363912781829],[-71.5328460744375,47.042414815806374],[-71.53104944386926,47.042414815806374],[-71.53104944386926,47.04119047569745],[-71.52925281330103,47.04119047569745],[-71.52925281330103,47.039966107491395],[-71.52745618273278,47.039966107491395],[-71.52745618273278,47.038741711188166],[-71.52565955216454,47.038741711188166],[-71.52565955216454,47.03751728678767],[-71.5238629215963,47.03751728678767],[-71.5238629215963,47.03629283428979],[-71.52206629102807,47.03629283428979],[-71.52206629102807,47.035068353694435],[-71.52026966045982,47.035068353694435],[-71.52026966045982,47.03384384500158],[-71.51847302989158,47.03384384500158],[-71.51667639932334,47.03384384500158],[-71.5148797687551,47.03384384500158],[-71.5148797687551,47.03261930821109],[-71.51308313818686,47.03261930821109],[-71.51308313818686,47.03139474332292],[-71.51128650761862,47.03139474332292],[-71.51128650761862,47.03017015033694],[-71.50948987705038,47.03017015033694],[-71.50948987705038,47.02894552925308],[-71.50769324648215,47.02894552925308],[-71.5058966159139,47.02894552925308],[-71.50409998534566,47.02894552925308],[-71.50230335477742,47.02894552925308],[-71.50230335477742,47.02772088007126],[-71.50230335477742,47.02649620279139],[-71.50050672420919,47.02649620279139],[-71.50050672420919,47.025271497413385],[-71.50050672420919,47.02404676393717],[-71.49871009364095,47.02404676393717],[-71.49871009364095,47.02282200236263],[-71.49691346307272,47.02282200236263],[-71.49691346307272,47.021597212689755],[-71.49691346307272,47.020372394918354],[-71.49691346307272,47.019147549048405],[-71.49691346307272,47.01792267507983],[-71.49871009364095,47.01792267507983],[-71.49871009364095,47.01669777301251],[-71.50050672420919,47.01669777301251],[-71.50050672420919,47.015472842846414],[-71.50050672420919,47.014247884581394],[-71.50230335477742,47.014247884581394],[-71.50230335477742,47.013022898217386],[-71.50230335477742,47.011797883754326],[-71.50409998534566,47.011797883754326],[-71.50409998534566,47.01057284119211],[-71.5058966159139,47.01057284119211],[-71.5058966159139,47.00934777053066],[-71.50769324648215,47.00934777053066],[-71.50769324648215,47.0081226717699],[-71.50948987705038,47.0081226717699],[-71.50948987705038,47.00689754490973],[-71.51128650761862,47.00689754490973],[-71.51128650761862,47.005672389950064],[-71.51308313818686,47.005672389950064],[-71.51308313818686,47.00444720689084],[-71.5148797687551,47.00444720689084],[-71.5148797687551,47.00322199573195],[-71.51667639932334,47.00322199573195],[-71.51667639932334,47.00199675647331],[-71.51847302989158,47.00199675647331],[-71.51847302989158,47.000771489114854],[-71.52026966045982,47.000771489114854],[-71.52026966045982,46.999546193656506],[-71.52206629102807,46.999546193656506],[-71.52206629102807,46.998320870098134],[-71.5238629215963,46.998320870098134],[-71.5238629215963,46.997095518439714],[-71.52206629102807,46.997095518439714],[-71.52206629102807,46.99587013868112],[-71.52026966045982,46.99587013868112],[-71.51847302989158,46.99587013868112],[-71.51847302989158,46.99464473082228],[-71.51667639932334,46.99464473082228],[-71.51667639932334,46.9934192948631],[-71.5148797687551,46.9934192948631],[-71.5148797687551,46.99219383080352],[-71.51308313818686,46.99219383080352],[-71.51308313818686,46.99096833864344],[-71.51128650761862,46.99096833864344],[-71.51128650761862,46.9897428183828],[-71.50948987705038,46.9897428183828],[-71.50948987705038,46.988517270021475],[-71.50769324648215,46.988517270021475],[-71.50769324648215,46.98729169355941],[-71.5058966159139,46.98729169355941],[-71.5058966159139,46.98606608899652],[-71.50769324648215,46.98606608899652],[-71.50769324648215,46.98484045633271],[-71.50948987705038,46.98484045633271],[-71.50948987705038,46.98361479556789],[-71.51128650761862,46.98361479556789],[-71.51128650761862,46.982389106701994],[-71.51308313818686,46.982389106701994],[-71.51308313818686,46.98116338973494],[-71.5148797687551,46.98116338973494],[-71.5148797687551,46.979937644666634],[-71.51667639932334,46.979937644666634],[-71.51667639932334,46.97871187149702],[-71.51847302989158,46.97871187149702],[-71.51847302989158,46.97748607022595],[-71.52026966045982,46.97748607022595],[-71.52026966045982,46.97626024085341],[-71.52206629102807,46.97626024085341],[-71.52206629102807,46.97503438337929],[-71.52206629102807,46.973808497803496],[-71.52026966045982,46.973808497803496],[-71.52026966045982,46.97258258412595],[-71.51847302989158,46.97258258412595],[-71.51847302989158,46.9713566423466],[-71.51667639932334,46.9713566423466],[-71.5148797687551,46.9713566423466],[-71.5148797687551,46.970130672465324],[-71.51308313818686,46.970130672465324],[-71.51308313818686,46.96890467448203],[-71.51128650761862,46.96890467448203],[-71.51128650761862,46.96767864839669],[-71.51128650761862,46.96645259420919],[-71.51308313818686,46.96645259420919],[-71.51308313818686,46.96522651191942],[-71.51128650761862,46.96522651191942],[-71.51128650761862,46.964000401527336],[-71.50948987705038,46.964000401527336],[-71.50948987705038,46.96277426303285],[-71.50769324648215,46.96277426303285],[-71.50769324648215,46.96154809643586],[-71.5058966159139,46.96154809643586],[-71.5058966159139,46.960321901736314],[-71.5058966159139,46.95909567893409],[-71.50409998534566,46.95909567893409],[-71.50409998534566,46.95786942802913],[-71.50230335477742,46.95786942802913],[-71.50230335477742,46.95664314902137],[-71.50230335477742,46.95541684191068],[-71.50050672420919,46.95541684191068],[-71.50050672420919,46.954190506697024],[-71.49871009364095,46.954190506697024],[-71.49871009364095,46.95296414338029],[-71.49871009364095,46.95173775196041],[-71.49691346307272,46.95173775196041],[-71.49511683250446,46.95173775196041],[-71.49511683250446,46.950511332437294],[-71.49332020193623,46.950511332437294],[-71.49332020193623,46.94928488481087],[-71.49152357136799,46.94928488481087],[-71.49152357136799,46.94805840908105],[-71.49152357136799,46.946831905247734],[-71.49152357136799,46.94560537331087],[-71.49152357136799,46.94437881327037],[-71.48972694079976,46.94437881327037],[-71.48972694079976,46.94315222512615],[-71.48793031023152,46.94315222512615],[-71.48793031023152,46.941925608878094],[-71.48613367966328,46.941925608878094],[-71.48613367966328,46.94069896452618],[-71.48433704909503,46.94069896452618],[-71.48433704909503,46.93947229207029],[-71.4825404185268,46.93947229207029],[-71.4825404185268,46.93824559151034],[-71.48074378795856,46.93824559151034],[-71.48074378795856,46.937018862846266],[-71.47894715739032,46.937018862846266],[-71.47894715739032,46.935792106078],[-71.47715052682209,46.935792106078],[-71.47715052682209,46.934565321205405],[-71.47535389625385,46.934565321205405],[-71.4735572656856,46.934565321205405],[-71.4735572656856,46.935792106078],[-71.47176063511736,46.935792106078],[-71.47176063511736,46.934565321205405],[-71.46996400454913,46.934565321205405],[-71.46816737398089,46.934565321205405],[-71.46816737398089,46.93333850822844],[-71.46637074341265,46.93333850822844],[-71.46637074341265,46.932111667147026],[-71.46457411284442,46.932111667147026],[-71.46457411284442,46.93088479796106],[-71.46277748227617,46.93088479796106],[-71.46277748227617,46.92965790067049],[-71.46098085170793,46.92965790067049],[-71.46098085170793,46.92843097527519],[-71.4591842211397,46.92843097527519],[-71.4591842211397,46.92720402177514],[-71.45738759057146,46.92720402177514],[-71.45738759057146,46.92597704017023],[-71.45559096000322,46.92597704017023],[-71.45559096000322,46.92475003046034],[-71.45379432943498,46.92475003046034],[-71.45379432943498,46.92352299264543],[-71.45199769886673,46.92352299264543],[-71.4502010682985,46.92352299264543],[-71.4502010682985,46.92229592672544],[-71.44840443773026,46.92229592672544],[-71.44840443773026,46.921068832700236],[-71.44840443773026,46.9198417105698],[-71.44660780716202,46.9198417105698],[-71.44660780716202,46.918614560333964],[-71.44481117659379,46.918614560333964],[-71.44481117659379,46.91738738199272],[-71.44660780716202,46.91738738199272],[-71.44660780716202,46.916160175545976],[-71.44840443773026,46.916160175545976],[-71.44840443773026,46.91493294099361],[-71.44840443773026,46.9137056783356],[-71.44660780716202,46.9137056783356],[-71.44660780716202,46.91247838757182],[-71.44481117659379,46.91247838757182],[-71.44481117659379,46.91125106870224],[-71.44301454602555,46.91125106870224],[-71.44301454602555,46.91002372172668],[-71.4412179154573,46.91002372172668],[-71.4412179154573,46.908796346645175],[-71.4412179154573,46.90756894345759],[-71.43942128488906,46.90756894345759],[-71.43942128488906,46.90634151216385],[-71.4412179154573,46.90634151216385],[-71.4412179154573,46.90511405276388],[-71.44301454602555,46.90511405276388],[-71.44301454602555,46.90388656525757],[-71.44481117659379,46.90388656525757],[-71.44481117659379,46.90265904964488],[-71.44660780716202,46.90265904964488],[-71.44660780716202,46.901431505925714],[-71.44660780716202,46.90020393409998],[-71.44840443773026,46.90020393409998],[-71.4502010682985,46.90020393409998],[-71.4502010682985,46.89897633416761],[-71.44840443773026,46.89897633416761],[-71.44840443773026,46.89774870612852],[-71.44660780716202,46.89774870612852],[-71.44660780716202,46.89652104998264],[-71.44481117659379,46.89652104998264],[-71.44481117659379,46.89529336572989],[-71.44301454602555,46.89529336572989],[-71.44301454602555,46.894065653370205],[-71.4412179154573,46.894065653370205],[-71.4412179154573,46.892837912903445],[-71.44301454602555,46.892837912903445],[-71.44301454602555,46.89161014432959],[-71.44301454602555,46.89038234764854],[-71.44481117659379,46.89038234764854],[-71.44481117659379,46.88915452286021],[-71.44660780716202,46.88915452286021],[-71.44660780716202,46.887926669964536],[-71.44840443773026,46.887926669964536],[-71.44840443773026,46.886698788961404],[-71.4502010682985,46.886698788961404],[-71.4502010682985,46.88547087985077],[-71.45199769886673,46.88547087985077],[-71.45199769886673,46.88424294263256],[-71.45379432943498,46.88424294263256],[-71.45379432943498,46.883014977306665],[-71.45559096000322,46.883014977306665],[-71.45559096000322,46.88178698387301],[-71.45738759057146,46.88178698387301],[-71.4591842211397,46.88178698387301],[-71.4591842211397,46.88055896233153],[-71.46098085170793,46.88055896233153],[-71.46098085170793,46.87933091268213],[-71.46277748227617,46.87933091268213],[-71.46457411284442,46.87933091268213],[-71.46457411284442,46.88055896233153],[-71.46637074341265,46.88055896233153],[-71.46816737398089,46.88055896233153],[-71.46996400454913,46.88055896233153],[-71.47176063511736,46.88055896233153],[-71.47176063511736,46.88178698387301],[-71.4735572656856,46.88178698387301],[-71.47535389625385,46.88178698387301],[-71.47715052682209,46.88178698387301],[-71.47894715739032,46.88178698387301],[-71.47894715739032,46.883014977306665],[-71.48074378795856,46.883014977306665],[-71.4825404185268,46.883014977306665],[-71.48433704909503,46.883014977306665],[-71.48433704909503,46.88424294263256],[-71.48613367966328,46.88424294263256],[-71.48793031023152,46.88424294263256],[-71.48972694079976,46.88424294263256],[-71.48972694079976,46.88547087985077],[-71.49152357136799,46.88547087985077],[-71.49332020193623,46.88547087985077],[-71.49511683250446,46.88547087985077],[-71.49691346307272,46.88547087985077],[-71.49871009364095,46.88547087985077],[-71.49871009364095,46.886698788961404],[-71.50050672420919,46.886698788961404],[-71.50050672420919,46.88547087985077],[-71.50050672420919,46.88424294263256],[-71.50050672420919,46.883014977306665],[-71.50230335477742,46.883014977306665],[-71.50230335477742,46.88178698387301],[-71.50230335477742,46.88055896233153],[-71.50230335477742,46.87933091268213],[-71.50230335477742,46.878102834924775],[-71.50050672420919,46.878102834924775],[-71.50050672420919,46.87687472905933],[-71.50050672420919,46.87564659508572],[-71.50230335477742,46.87564659508572],[-71.50230335477742,46.87687472905933],[-71.50409998534566,46.87687472905933],[-71.50409998534566,46.878102834924775],[-71.5058966159139,46.878102834924775],[-71.5058966159139,46.87933091268213],[-71.50769324648215,46.87933091268213],[-71.50769324648215,46.88055896233153],[-71.50948987705038,46.88055896233153],[-71.50948987705038,46.88178698387301],[-71.51128650761862,46.88178698387301],[-71.51128650761862,46.883014977306665],[-71.51308313818686,46.883014977306665],[-71.51308313818686,46.88424294263256],[-71.5148797687551,46.88424294263256],[-71.5148797687551,46.88547087985077],[-71.51667639932334,46.88547087985077],[-71.51667639932334,46.886698788961404],[-71.5148797687551,46.886698788961404],[-71.5148797687551,46.887926669964536],[-71.51667639932334,46.887926669964536],[-71.51667639932334,46.88915452286021],[-71.51847302989158,46.88915452286021],[-71.51847302989158,46.89038234764854],[-71.52026966045982,46.89038234764854],[-71.52026966045982,46.89161014432959],[-71.52206629102807,46.89161014432959],[-71.52206629102807,46.892837912903445],[-71.52206629102807,46.894065653370205],[-71.52026966045982,46.894065653370205],[-71.52026966045982,46.89529336572989],[-71.52026966045982,46.89652104998264],[-71.51847302989158,46.89652104998264],[-71.51847302989158,46.89774870612852],[-71.51847302989158,46.89897633416761],[-71.52026966045982,46.89897633416761],[-71.52026966045982,46.90020393409998],[-71.52206629102807,46.90020393409998],[-71.52206629102807,46.901431505925714],[-71.5238629215963,46.901431505925714],[-71.5238629215963,46.90265904964488],[-71.52565955216454,46.90265904964488],[-71.52565955216454,46.90388656525757],[-71.52745618273278,46.90388656525757],[-71.52745618273278,46.90511405276388],[-71.52925281330103,46.90511405276388],[-71.52925281330103,46.90634151216385],[-71.53104944386926,46.90634151216385],[-71.53104944386926,46.90756894345759],[-71.5328460744375,46.90756894345759],[-71.5328460744375,46.908796346645175],[-71.53464270500574,46.908796346645175],[-71.53464270500574,46.91002372172668],[-71.53464270500574,46.91125106870224],[-71.5328460744375,46.91125106870224],[-71.5328460744375,46.91247838757182],[-71.53464270500574,46.91247838757182],[-71.53464270500574,46.9137056783356],[-71.53643933557397,46.9137056783356],[-71.53643933557397,46.91493294099361],[-71.53823596614221,46.91493294099361],[-71.53823596614221,46.916160175545976],[-71.54003259671046,46.916160175545976],[-71.54003259671046,46.91738738199272],[-71.5418292272787,46.91738738199272],[-71.5418292272787,46.918614560333964],[-71.54362585784693,46.918614560333964],[-71.54362585784693,46.9198417105698],[-71.54542248841517,46.9198417105698],[-71.54542248841517,46.921068832700236],[-71.5472191189834,46.921068832700236],[-71.5472191189834,46.92229592672544],[-71.54901574955164,46.92229592672544],[-71.54901574955164,46.92352299264543],[-71.5508123801199,46.92352299264543],[-71.55260901068813,46.92352299264543],[-71.55260901068813,46.92229592672544],[-71.55260901068813,46.921068832700236],[-71.55440564125637,46.921068832700236],[-71.55440564125637,46.9198417105698],[-71.5562022718246,46.9198417105698],[-71.5562022718246,46.918614560333964],[-71.55799890239284,46.918614560333964],[-71.55799890239284,46.91738738199272],[-71.55979553296108,46.91738738199272],[-71.55979553296108,46.916160175545976],[-71.56159216352933,46.916160175545976],[-71.56159216352933,46.91493294099361],[-71.56338879409756,46.91493294099361],[-71.56338879409756,46.9137056783356],[-71.5651854246658,46.9137056783356],[-71.5651854246658,46.91247838757182],[-71.56698205523404,46.91247838757182],[-71.56698205523404,46.91125106870224],[-71.56877868580227,46.91125106870224],[-71.56877868580227,46.91002372172668],[-71.57057531637051,46.91002372172668],[-71.57057531637051,46.908796346645175],[-71.57237194693876,46.908796346645175],[-71.57237194693876,46.90756894345759],[-71.574168577507,46.90756894345759],[-71.574168577507,46.90634151216385],[-71.57596520807523,46.90634151216385],[-71.57596520807523,46.90511405276388],[-71.57776183864347,46.90511405276388],[-71.57776183864347,46.90388656525757],[-71.5795584692117,46.90388656525757],[-71.5795584692117,46.90511405276388],[-71.58135509977994,46.90511405276388],[-71.58135509977994,46.90634151216385],[-71.58315173034819,46.90634151216385],[-71.58315173034819,46.90756894345759],[-71.58494836091643,46.90756894345759],[-71.58494836091643,46.908796346645175],[-71.58674499148466,46.908796346645175],[-71.58674499148466,46.91002372172668],[-71.5885416220529,46.91002372172668],[-71.5885416220529,46.91125106870224],[-71.59033825262114,46.91125106870224],[-71.59033825262114,46.91247838757182],[-71.59213488318937,46.91247838757182],[-71.59213488318937,46.9137056783356],[-71.59393151375762,46.9137056783356],[-71.59393151375762,46.91493294099361],[-71.59572814432586,46.91493294099361],[-71.59572814432586,46.916160175545976],[-71.5975247748941,46.916160175545976],[-71.5975247748941,46.91738738199272],[-71.59932140546233,46.91738738199272],[-71.59932140546233,46.918614560333964],[-71.60111803603057,46.918614560333964],[-71.60111803603057,46.9198417105698],[-71.6029146665988,46.9198417105698],[-71.6029146665988,46.921068832700236],[-71.60471129716706,46.921068832700236],[-71.60471129716706,46.92229592672544],[-71.60471129716706,46.92352299264543],[-71.6065079277353,46.92352299264543],[-71.6065079277353,46.92475003046034],[-71.60830455830353,46.92475003046034],[-71.60830455830353,46.92597704017023],[-71.61010118887177,46.92597704017023],[-71.61010118887177,46.92720402177514],[-71.61189781944,46.92720402177514],[-71.61189781944,46.92843097527519],[-71.61189781944,46.92965790067049],[-71.61189781944,46.93088479796106],[-71.61369445000825,46.93088479796106],[-71.61369445000825,46.932111667147026],[-71.61369445000825,46.93333850822844],[-71.61369445000825,46.934565321205405],[-71.61369445000825,46.935792106078],[-71.61549108057649,46.935792106078],[-71.61549108057649,46.937018862846266],[-71.61549108057649,46.93824559151034],[-71.61549108057649,46.93947229207029],[-71.61549108057649,46.94069896452618],[-71.61728771114473,46.94069896452618],[-71.61728771114473,46.941925608878094],[-71.61728771114473,46.94315222512615],[-71.61728771114473,46.94437881327037],[-71.61728771114473,46.94560537331087],[-71.61908434171298,46.94560537331087],[-71.61908434171298,46.946831905247734],[-71.61908434171298,46.94805840908105],[-71.62088097228121,46.94805840908105],[-71.62088097228121,46.94928488481087],[-71.62267760284945,46.94928488481087],[-71.62447423341769,46.94928488481087],[-71.62447423341769,46.950511332437294],[-71.62627086398594,46.950511332437294],[-71.62806749455417,46.950511332437294],[-71.62806749455417,46.95173775196041],[-71.62986412512241,46.95173775196041],[-71.63166075569065,46.95173775196041],[-71.63166075569065,46.95296414338029],[-71.63345738625888,46.95296414338029],[-71.63525401682712,46.95296414338029],[-71.63525401682712,46.954190506697024],[-71.63705064739537,46.954190506697024],[-71.63705064739537,46.95541684191068],[-71.6388472779636,46.95541684191068],[-71.6388472779636,46.95664314902137],[-71.64064390853184,46.95664314902137],[-71.64064390853184,46.95786942802913],[-71.64244053910008,46.95786942802913],[-71.64244053910008,46.95909567893409],[-71.64423716966832,46.95909567893409],[-71.64423716966832,46.960321901736314],[-71.64603380023655,46.960321901736314],[-71.64603380023655,46.96154809643586],[-71.6478304308048,46.96154809643586],[-71.6478304308048,46.96277426303285],[-71.64962706137304,46.96277426303285],[-71.64962706137304,46.964000401527336],[-71.65142369194128,46.964000401527336],[-71.65142369194128,46.96522651191942],[-71.65322032250951,46.96522651191942],[-71.65322032250951,46.96645259420919],[-71.65501695307775,46.96645259420919],[-71.65501695307775,46.96767864839669],[-71.65681358364598,46.96767864839669],[-71.65681358364598,46.96890467448203],[-71.65861021421424,46.96890467448203],[-71.65861021421424,46.970130672465324],[-71.66040684478247,46.970130672465324],[-71.66040684478247,46.9713566423466],[-71.66220347535071,46.9713566423466],[-71.66220347535071,46.97258258412595],[-71.66400010591894,46.97258258412595],[-71.66400010591894,46.973808497803496],[-71.66579673648718,46.973808497803496],[-71.66579673648718,46.97503438337929],[-71.66759336705542,46.97503438337929],[-71.66759336705542,46.97626024085341],[-71.66938999762367,46.97626024085341],[-71.66938999762367,46.97748607022595],[-71.6711866281919,46.97748607022595],[-71.6711866281919,46.97871187149702],[-71.67298325876014,46.97871187149702],[-71.67298325876014,46.979937644666634],[-71.67298325876014,46.98116338973494],[-71.67477988932838,46.98116338973494],[-71.67477988932838,46.982389106701994],[-71.67657651989661,46.982389106701994],[-71.67657651989661,46.98361479556789],[-71.67837315046485,46.98361479556789],[-71.67837315046485,46.98484045633271],[-71.6801697810331,46.98484045633271],[-71.6801697810331,46.98606608899652],[-71.68196641160134,46.98606608899652]]],[[[-71.5472191189834,46.85844976805578],[-71.5472191189834,46.85967829555173],[-71.54542248841517,46.85967829555173],[-71.54362585784693,46.85967829555173],[-71.54362585784693,46.8609067949384],[-71.5418292272787,46.8609067949384],[-71.54003259671046,46.8609067949384],[-71.54003259671046,46.862135266215894],[-71.53823596614221,46.862135266215894],[-71.53643933557397,46.862135266215894],[-71.53643933557397,46.86336370938433],[-71.53464270500574,46.86336370938433],[-71.5328460744375,46.86336370938433],[-71.53104944386926,46.86336370938433],[-71.53104944386926,46.86459212444373],[-71.52925281330103,46.86459212444373],[-71.52745618273278,46.86459212444373],[-71.52745618273278,46.86582051139421],[-71.52565955216454,46.86582051139421],[-71.5238629215963,46.86582051139421],[-71.5238629215963,46.867048870235806],[-71.52206629102807,46.867048870235806],[-71.52026966045982,46.867048870235806],[-71.52026966045982,46.868277200968656],[-71.51847302989158,46.868277200968656],[-71.51667639932334,46.868277200968656],[-71.51667639932334,46.869505503592784],[-71.5148797687551,46.869505503592784],[-71.51308313818686,46.869505503592784],[-71.51128650761862,46.869505503592784],[-71.51128650761862,46.87073377810831],[-71.50948987705038,46.87073377810831],[-71.50769324648215,46.87073377810831],[-71.50769324648215,46.87196202451526],[-71.5058966159139,46.87196202451526],[-71.50409998534566,46.87196202451526],[-71.50409998534566,46.87319024281378],[-71.50230335477742,46.87319024281378],[-71.50050672420919,46.87319024281378],[-71.50050672420919,46.87441843300392],[-71.50050672420919,46.87564659508572],[-71.49871009364095,46.87564659508572],[-71.49871009364095,46.87687472905933],[-71.49691346307272,46.87687472905933],[-71.49691346307272,46.87564659508572],[-71.49511683250446,46.87564659508572],[-71.49511683250446,46.87441843300392],[-71.49691346307272,46.87441843300392],[-71.49691346307272,46.87319024281378],[-71.49511683250446,46.87319024281378],[-71.49332020193623,46.87319024281378],[-71.49152357136799,46.87319024281378],[-71.49152357136799,46.87441843300392],[-71.48972694079976,46.87441843300392],[-71.48793031023152,46.87441843300392],[-71.48793031023152,46.87564659508572],[-71.48613367966328,46.87564659508572],[-71.48613367966328,46.87687472905933],[-71.48433704909503,46.87687472905933],[-71.48433704909503,46.878102834924775],[-71.4825404185268,46.878102834924775],[-71.48074378795856,46.878102834924775],[-71.47894715739032,46.878102834924775],[-71.47715052682209,46.878102834924775],[-71.47715052682209,46.87687472905933],[-71.47535389625385,46.87687472905933],[-71.4735572656856,46.87687472905933],[-71.47176063511736,46.87687472905933],[-71.46996400454913,46.87687472905933],[-71.46816737398089,46.87687472905933],[-71.46637074341265,46.87687472905933],[-71.46637074341265,46.87564659508572],[-71.46457411284442,46.87564659508572],[-71.46457411284442,46.87441843300392],[-71.46637074341265,46.87441843300392],[-71.46637074341265,46.87319024281378],[-71.46816737398089,46.87319024281378],[-71.46816737398089,46.87196202451526],[-71.46996400454913,46.87196202451526],[-71.46996400454913,46.87073377810831],[-71.47176063511736,46.87073377810831],[-71.47176063511736,46.869505503592784],[-71.4735572656856,46.869505503592784],[-71.4735572656856,46.868277200968656],[-71.47535389625385,46.868277200968656],[-71.47535389625385,46.867048870235806],[-71.47715052682209,46.867048870235806],[-71.47715052682209,46.86582051139421],[-71.47894715739032,46.86582051139421],[-71.47894715739032,46.86459212444373],[-71.48074378795856,46.86459212444373],[-71.48074378795856,46.86336370938433],[-71.4825404185268,46.86336370938433],[-71.48433704909503,46.86336370938433],[-71.48433704909503,46.862135266215894],[-71.48613367966328,46.862135266215894],[-71.48793031023152,46.862135266215894],[-71.48793031023152,46.8609067949384],[-71.48972694079976,46.8609067949384],[-71.49152357136799,46.8609067949384],[-71.49332020193623,46.8609067949384],[-71.49332020193623,46.85967829555173],[-71.49511683250446,46.85967829555173],[-71.49691346307272,46.85967829555173],[-71.49871009364095,46.85967829555173],[-71.49871009364095,46.85844976805578],[-71.50050672420919,46.85844976805578],[-71.50230335477742,46.85844976805578],[-71.50409998534566,46.85844976805578],[-71.50409998534566,46.85722121245053],[-71.5058966159139,46.85722121245053],[-71.50769324648215,46.85722121245053],[-71.50769324648215,46.855992628735855],[-71.50948987705038,46.855992628735855],[-71.51128650761862,46.855992628735855],[-71.51128650761862,46.85476401691169],[-71.51308313818686,46.85476401691169],[-71.5148797687551,46.85476401691169],[-71.51667639932334,46.85476401691169],[-71.51667639932334,46.85353537697799],[-71.51847302989158,46.85353537697799],[-71.52026966045982,46.85353537697799],[-71.52026966045982,46.85230670893464],[-71.52206629102807,46.85230670893464],[-71.5238629215963,46.85230670893464],[-71.5238629215963,46.85107801278156],[-71.52565955216454,46.85107801278156],[-71.52745618273278,46.85107801278156],[-71.52925281330103,46.85107801278156],[-71.52925281330103,46.8498492885187],[-71.53104944386926,46.8498492885187],[-71.5328460744375,46.8498492885187],[-71.5328460744375,46.84862053614595],[-71.53464270500574,46.84862053614595],[-71.53643933557397,46.84862053614595],[-71.53643933557397,46.84739175566325],[-71.53823596614221,46.84739175566325],[-71.54003259671046,46.84739175566325],[-71.54003259671046,46.84616294707054],[-71.5418292272787,46.84616294707054],[-71.54362585784693,46.84616294707054],[-71.54362585784693,46.84739175566325],[-71.54542248841517,46.84739175566325],[-71.54542248841517,46.84862053614595],[-71.54542248841517,46.8498492885187],[-71.5472191189834,46.8498492885187],[-71.5472191189834,46.85107801278156],[-71.54901574955164,46.85107801278156],[-71.54901574955164,46.85230670893464],[-71.54901574955164,46.85353537697799],[-71.5508123801199,46.85353537697799],[-71.5508123801199,46.85476401691169],[-71.5508123801199,46.855992628735855],[-71.55260901068813,46.855992628735855],[-71.55260901068813,46.85722121245053],[-71.55260901068813,46.85844976805578],[-71.5508123801199,46.85844976805578],[-71.54901574955164,46.85844976805578],[-71.5472191189834,46.85844976805578]]],[[[-71.2022660498815,46.80928561774032],[-71.2022660498815,46.80805593769831],[-71.2022660498815,46.806826229543766],[-71.20406268044975,46.806826229543766],[-71.20406268044975,46.80805593769831],[-71.20585931101799,46.80805593769831],[-71.20585931101799,46.806826229543766],[-71.20585931101799,46.80559649327668],[-71.20765594158622,46.80559649327668],[-71.20945257215446,46.80559649327668],[-71.20945257215446,46.806826229543766],[-71.20945257215446,46.80805593769831],[-71.20765594158622,46.80805593769831],[-71.20765594158622,46.80928561774032],[-71.20585931101799,46.80928561774032],[-71.20406268044975,46.80928561774032],[-71.2022660498815,46.80928561774032]]]]}},{"type":"Feature","properties":{"category":"prison"},"geometry":{"type":"MultiPolygon","coordinates":[[[[-71.3172504062488,46.88547087985077],[-71.3172504062488,46.886698788961404],[-71.31904703681704,46.886698788961404],[-71.31904703681704,46.887926669964536],[-71.31904703681704,46.88915452286021],[-71.3172504062488,46.88915452286021],[-71.3172504062488,46.89038234764854],[-71.31545377568057,46.89038234764854],[-71.31545377568057,46.88915452286021],[-71.31365714511233,46.88915452286021],[-71.31365714511233,46.887926669964536],[-71.31365714511233,46.886698788961404],[-71.31545377568057,46.886698788961404],[-71.31545377568057,46.88547087985077],[-71.31545377568057,46.88424294263256],[-71.3172504062488,46.88424294263256],[-71.3172504062488,46.88547087985077]]]]}}]}
