{"type":"FeatureCollection","features":[{"type":"Feature","properties":{"id":"parc-de-lausanne-940742","name":"Parc de Lausanne","type":"park"},"geometry":{"type":"Polygon","coordinates":[[[-73.7229808,45.6159078],[-73.7230475,45.615973],[-73.7227535,45.6180187],[-73.7224032,45.6180238],[-73.7215356,45.618711],[-73.7220749,45.6190302],[-73.7216442,45.6192858],[-73.722641,45.6200859],[-73.7235564,45.6195651],[-73.7237463,45.6197321],[-73.7222118,45.6206712],[-73.7230285,45.6214678],[-73.7212996,45.622366],[-73.7209346,45.6224283],[-73.7202353,45.622288],[-73.719274,45.6211534],[-73.7178299,45.6200206],[-73.7176204,45.6196307],[-73.7176513,45.6192532],[-73.7179641,45.618841],[-73.7192383,45.6180657],[-73.7204039,45.6165871],[-73.720798,45.6163056],[-73.7213079,45.6160669],[-73.7218581,45.6159222],[-73.7229808,45.6159078]],[[-73.7207508,45.6216315],[-73.7210483,45.6217684],[-73.7217561,45.6217908],[-73.7207508,45.6216315]]]}},{"type":"Feature","properties":{"id":"bois-papineau-907865","name":"Bois Papineau","type":"park"},"geometry":{"type":"Polygon","coordinates":[[[-73.6857898,45.5993695],[-73.6877059,45.5983752],[-73.686715,45.5974922],[-73.6870742,45.5972691],[-73.6884187,45.5984275],[-73.6889407,45.5980792],[-73.6890496,45.5977644],[-73.6890385,45.5975482],[-73.6887208,45.5972475],[-73.6883662,45.597178],[-73.6878598,45.5967195],[-73.6882079,45.5964889],[-73.6886023,45.5964633],[-73.6895056,45.5969531],[-73.6909282,45.5969926],[-73.6915605,45.597435],[-73.6952623,45.6027839],[-73.6951824,45.6034988],[-73.693921,45.6059676],[-73.6833915,45.6107515],[-73.6805102,45.6074448],[-73.6795695,45.6064907],[-73.6794701,45.6063292],[-73.6799982,45.6060707],[-73.6799961,45.6058156],[-73.679785,45.6056001],[-73.679654,45.6056639],[-73.6795627,45.6055738],[-73.679176,45.6055261],[-73.6790098,45.6049669],[-73.6787964,45.6048594],[-73.6791535,45.6043371],[-73.6789194,45.6040794],[-73.6790627,45.6039684],[-73.6786472,45.6035253],[-73.6798045,45.6024334],[-73.6807487,45.6012714],[-73.6815103,45.6006616],[-73.6823281,45.6015362],[-73.6830732,45.6016152],[-73.6852567,45.603468],[-73.6865959,45.6032267],[-73.6874099,45.6028075],[-73.6882148,45.6015844],[-73.6877927,45.601078],[-73.6857898,45.5993695]]]}},{"type":"Feature","properties":{"id":"bois-de-l-equerre-465137","name":"Bois de l'Équerre","type":"park"},"geometry":{"type":"Polygon","coordinates":[[[-73.7679328,45.6080563],[-73.7662744,45.6082589],[-73.7660395,45.6075386],[-73.7644963,45.6071923],[-73.7649616,45.6088627],[-73.7643305,45.6090063],[-73.7647612,45.6103814],[-73.7633137,45.6104662],[-73.7632454,45.6106098],[-73.7633434,45.6108391],[-73.7634667,45.6109159],[-73.7640146,45.6109099],[-73.7644108,45.6125817],[-73.764005,45.6126395],[-73.7634176,45.6120248],[-73.7632826,45.6113898],[-73.7628977,45.6114421],[-73.7628374,45.6115104],[-73.7628948,45.6119766],[-73.7630873,45.6121875],[-73.7628862,45.6122961],[-73.7630015,45.6128395],[-73.7626226,45.6130108],[-73.7609867,45.6143456],[-73.759846,45.6150567],[-73.7586089,45.6156553],[-73.7557828,45.6168347],[-73.7460584,45.6069142],[-73.7490426,45.6064346],[-73.7492376,45.606323],[-73.7480085,45.604967],[-73.7487878,45.6045882],[-73.7502846,45.6058421],[-73.7516641,45.6056017],[-73.7489205,45.6033997],[-73.7484078,45.6035302],[-73.7478578,45.6035247],[-73.7475786,45.6032946],[-73.7483917,45.6032761],[-73.7482803,45.6029454],[-73.7489953,45.6030942],[-73.7493676,45.6030901],[-73.7498404,45.6028999],[-73.750449,45.6031811],[-73.7511404,45.6030281],[-73.7527182,45.602995],[-73.7531909,45.6028958],[-73.7534568,45.6027304],[-73.7527806,45.6020337],[-73.7537701,45.6014926],[-73.7539291,45.6016321],[-73.7542375,45.6014762],[-73.7545921,45.6015937],[-73.7552145,45.6021292],[-73.7565801,45.6014225],[-73.7568172,45.6010315],[-73.7548178,45.5991112],[-73.7543164,45.5991229],[-73.7541492,45.5990703],[-73.7541743,45.5989475],[-73.755712,45.598813],[-73.7568214,45.5984995],[-73.7593473,45.5981289],[-73.7598155,45.5981758],[-73.7603707,45.6001175],[-73.7610384,45.599948],[-73.7624727,45.5997496],[-73.7625913,45.6003089],[-73.7625967,45.601042],[-73.7628297,45.6017981],[-73.7658657,45.6013679],[-73.7652761,45.5993569],[-73.7655642,45.5993187],[-73.7654812,45.5990541],[-73.7668895,45.5988334],[-73.7669835,45.5986683],[-73.7666147,45.5976906],[-73.7677271,45.5974472],[-73.7680479,45.5975911],[-73.7685004,45.5989727],[-73.7691504,45.6001153],[-73.76974,45.6022509],[-73.7699471,45.6026133],[-73.7705864,45.6025067],[-73.7708333,45.6027787],[-73.7722368,45.6035524],[-73.7679328,45.6080563]]]}},{"type":"Feature","properties":{"id":"bois-de-la-source-120283","name":"Bois de la Source","type":"park"},"geometry":{"type":"Polygon","coordinates":[[[-73.8443216,45.5623507],[-73.8441574,45.5625228],[-73.8442032,45.5628223],[-73.8436979,45.5629048],[-73.8436755,45.562546],[-73.8434279,45.5623428],[-73.8437651,45.5621926],[-73.8430961,45.5615158],[-73.842299,45.5617738],[-73.8421046,45.5620292],[-73.8425142,45.562518],[-73.8419895,45.5626029],[-73.8415407,45.5629693],[-73.8415405,45.5640492],[-73.8427134,45.5651545],[-73.8428556,45.5655504],[-73.844234,45.5669101],[-73.8441352,45.5669412],[-73.8411351,45.5640716],[-73.8406465,45.5643176],[-73.8400167,45.5640172],[-73.8389047,45.5638138],[-73.8378076,45.5626818],[-73.8405167,45.5611342],[-73.8407216,45.5609068],[-73.8415679,45.5604607],[-73.8440883,45.5588909],[-73.8432743,45.5581215],[-73.8445082,45.5576526],[-73.8438381,45.5570181],[-73.8454571,45.5564798],[-73.8462364,45.5573553],[-73.8507328,45.5556185],[-73.8515681,45.55652],[-73.8521838,45.556191],[-73.8527385,45.5567195],[-73.8527559,45.5571459],[-73.8530895,45.5572549],[-73.8528323,45.5582328],[-73.8523397,45.5582643],[-73.8516894,45.5572745],[-73.851253,45.5570038],[-73.8500855,45.5578865],[-73.8492438,45.5583465],[-73.8513555,45.5602658],[-73.8499721,45.5609831],[-73.849355,45.5608982],[-73.8476388,45.5617507],[-73.8466612,45.5607702],[-73.8454712,45.5613163],[-73.8458289,45.5616752],[-73.8443216,45.5623507]]]}},{"type":"Feature","properties":{"id":"le-boutillier-park-655404","name":"Le Boutillier Park","type":"park"},"geometry":{"type":"Polygon","coordinates":[[[-73.7714558,45.5396695],[-73.7731413,45.5414482],[-73.7731895,45.5421617],[-73.7739019,45.5427429],[-73.7744126,45.5428004],[-73.7766037,45.5414919],[-73.7751026,45.540229],[-73.775378,45.5400574],[-73.776105,45.5406287],[-73.7791483,45.5405788],[-73.7821718,45.5387887],[-73.7829034,45.539414],[-73.7827673,45.5398029],[-73.7819407,45.5398724],[-73.7818842,45.5395793],[-73.7812254,45.5396519],[-73.7808714,45.5397909],[-73.7792231,45.5408308],[-73.7793307,45.5412137],[-73.7791647,45.5414811],[-73.7792878,45.5420598],[-73.7788432,45.5420048],[-73.7787788,45.5422782],[-73.7776984,45.5421585],[-73.7778109,45.5425236],[-73.7776938,45.5425689],[-73.776744,45.541809],[-73.7747364,45.5430643],[-73.7746818,45.543202],[-73.7747721,45.5437413],[-73.7756048,45.5444179],[-73.7755763,45.5446159],[-73.77596,45.544703],[-73.7755553,45.5452321],[-73.7751298,45.5450873],[-73.7752318,45.5448533],[-73.7750438,45.5445639],[-73.774279,45.5439494],[-73.7742234,45.5436368],[-73.7736172,45.5431334],[-73.7730973,45.5431562],[-73.7716292,45.5439415],[-73.7715094,45.5438473],[-73.7729213,45.5430333],[-73.7731513,45.5426736],[-73.7716982,45.5410646],[-73.7710974,45.5399073],[-73.7708657,45.5388955],[-73.7711554,45.5387527],[-73.7708399,45.5383668],[-73.7704787,45.5381005],[-73.7706181,45.5379935],[-73.7717347,45.5389406],[-73.7714558,45.5396695]],[[-73.7782889,45.5420878],[-73.778675,45.5420389],[-73.7787183,45.5418328],[-73.778584,45.5417834],[-73.7783071,45.5418731],[-73.7782889,45.5420878]]]}},{"type":"Feature","properties":{"id":"bois-duvernay-649799","name":"Bois Duvernay","type":"park"},"geometry":{"type":"Polygon","coordinates":[[[-73.7020761,45.6230837],[-73.7046378,45.6253981],[-73.7059252,45.6248428],[-73.7077545,45.6264935],[-73.7066011,45.6270863],[-73.7077652,45.6282605],[-73.7074809,45.6293821],[-73.7068801,45.629776],[-73.7081997,45.6309351],[-73.7088113,45.6307251],[-73.7107586,45.6323306],[-73.7115632,45.6318242],[-73.7139826,45.6340486],[-73.7150233,45.6340898],[-73.7156402,45.633876],[-73.7162356,45.6332834],[-73.715962,45.6329082],[-73.7152754,45.6330808],[-73.7146692,45.632957],[-73.7140255,45.6324131],[-73.7137787,45.6321055],[-73.7141435,45.631918],[-73.7138431,45.6316816],[-73.7136607,45.6310589],[-73.7129311,45.6313553],[-73.7125717,45.6309014],[-73.7132959,45.6305938],[-73.7131886,45.6301249],[-73.7140362,45.6300123],[-73.7145995,45.6295322],[-73.7151949,45.6296447],[-73.7157582,45.6295247],[-73.7159084,45.6292283],[-73.7180112,45.6282942],[-73.7184672,45.6284668],[-73.7201409,45.6276415],[-73.7232129,45.6303428],[-73.7200873,45.6344724],[-73.7208973,45.6353539],[-73.7238011,45.6356147],[-73.7226764,45.6371245],[-73.7218736,45.6364004],[-73.7182473,45.6382908],[-73.7195329,45.6393299],[-73.7158582,45.6415203],[-73.7153934,45.6411488],[-73.7144479,45.6416896],[-73.7128453,45.6401099],[-73.7138485,45.6395398],[-73.7120031,45.637957],[-73.7100665,45.6387146],[-73.708307,45.6375632],[-73.7072395,45.6386171],[-73.7080924,45.6394498],[-73.7050562,45.6402524],[-73.7030284,45.6413776],[-73.7021862,45.6419626],[-73.7033503,45.6429528],[-73.7042515,45.6433578],[-73.7040799,45.6436691],[-73.7065099,45.6458292],[-73.7064402,45.646058],[-73.7061827,45.646133],[-73.7057482,45.6457317],[-73.7036775,45.6471156],[-73.7027978,45.6472318],[-73.7028943,45.6478881],[-73.6996542,45.6487581],[-73.6986135,45.6483568],[-73.6979376,45.6482931],[-73.6967199,45.6485481],[-73.6962854,45.6483231],[-73.6949282,45.6483943],[-73.6943147,45.6478395],[-73.6958347,45.6468493],[-73.6940826,45.645037],[-73.6953198,45.6453942],[-73.6963497,45.645143],[-73.6971866,45.6460693],[-73.6985813,45.6451692],[-73.6963712,45.6428702],[-73.6945741,45.6427952],[-73.6939626,45.6421127],[-73.6945044,45.6419101],[-73.6869459,45.6350501],[-73.6882495,45.6339323],[-73.6895798,45.6320717],[-73.6915969,45.6307588],[-73.6892311,45.6284743],[-73.6917578,45.6270713],[-73.6935227,45.6285831],[-73.6954378,45.627784],[-73.6989676,45.6310739],[-73.6968486,45.6316216],[-73.6968058,45.6317465],[-73.6977713,45.6325331],[-73.6989944,45.633831],[-73.699327,45.633876],[-73.7005876,45.6349451],[-73.7009363,45.6351401],[-73.7010168,45.6353089],[-73.7009739,45.635624],[-73.7014459,45.6360966],[-73.7018643,45.6361266],[-73.7021862,45.6367942],[-73.7025725,45.6371206],[-73.7021326,45.6375331],[-73.7023042,45.6379907],[-73.7017088,45.6387259],[-73.7017141,45.6389134],[-73.7025564,45.6396598],[-73.7043749,45.6388121],[-73.7042891,45.6386546],[-73.7061505,45.6376757],[-73.7064402,45.6378632],[-73.7081568,45.6369968],[-73.7083016,45.6368317],[-73.7091653,45.636663],[-73.7108176,45.6357703],[-73.7110858,45.6349451],[-73.7052868,45.6294571],[-73.706231,45.6285081],[-73.7047772,45.6268837],[-73.7040101,45.6272101],[-73.703125,45.6273339],[-73.7020038,45.6262572],[-73.6995737,45.6241863],[-73.7020761,45.6230837]]]}},{"type":"Feature","properties":{"id":"reserve-naturelle-de-l-ile-locas-398377","name":"Réserve naturelle de l'Île Locas","type":"park"},"geometry":{"type":"MultiPolygon","coordinates":[[[[-73.8152846,45.6037716],[-73.8155348,45.6036795],[-73.816546,45.6035993],[-73.8168027,45.6037836],[-73.81675,45.6040805],[-73.816504,45.6044712],[-73.8164646,45.6046868],[-73.816042,45.6052981],[-73.8161911,45.6054263],[-73.8166292,45.6053837],[-73.8171226,45.6060102],[-73.8171217,45.6063103],[-73.8169032,45.6064825],[-73.8165727,45.6071529],[-73.8153198,45.6073619],[-73.8142361,45.6080136],[-73.8140004,45.6080687],[-73.8136608,45.6079776],[-73.8132859,45.60802],[-73.8125003,45.608455],[-73.8115497,45.6084596],[-73.8111657,45.6083621],[-73.8115321,45.6075625],[-73.8121955,45.6067515],[-73.81315,45.6060782],[-73.8131149,45.6060036],[-73.8127958,45.605973],[-73.8117387,45.6061105],[-73.8110658,45.6060305],[-73.8110985,45.6059174],[-73.8124999,45.6058266],[-73.8130565,45.605661],[-73.8138095,45.6050556],[-73.8142412,45.6049468],[-73.8146653,45.6045127],[-73.814742,45.6042216],[-73.8150276,45.6041033],[-73.8152846,45.6037716]],[[-73.8140708,45.6069396],[-73.8147839,45.6065778],[-73.8152637,45.6061139],[-73.8152459,45.6058491],[-73.8146868,45.6059216],[-73.8137539,45.6067688],[-73.8140708,45.6069396]],[[-73.8133215,45.6078086],[-73.8139073,45.6071626],[-73.8139055,45.6070308],[-73.8137609,45.6069675],[-73.8135542,45.6070112],[-73.8128461,45.607441],[-73.8127024,45.6077897],[-73.8128941,45.6078787],[-73.8133215,45.6078086]]],[[[-73.817426,45.6072663],[-73.8168864,45.607276],[-73.8168198,45.6071942],[-73.8169969,45.6066178],[-73.817188,45.6066642],[-73.817397,45.6068369],[-73.8175004,45.6071154],[-73.817426,45.6072663]]]]}},{"type":"Feature","properties":{"id":"parc-bernard-landry-903245","name":"Parc Bernard-Landry","type":"park"},"geometry":{"type":"Polygon","coordinates":[[[-73.6908819,45.5544073],[-73.6897971,45.5534238],[-73.690928,45.5528419],[-73.6903275,45.5522918],[-73.6900717,45.5519223],[-73.6903472,45.5519095],[-73.6904716,45.5521363],[-73.6914329,45.5530355],[-73.6920511,45.5526906],[-73.6917553,45.552429],[-73.6920282,45.5523042],[-73.6953058,45.5521381],[-73.6961099,45.5520189],[-73.695859,45.5517281],[-73.696935,45.551551],[-73.6973734,45.5520579],[-73.6983223,45.5517515],[-73.6990516,45.5512857],[-73.6987456,45.5509671],[-73.6993843,45.5506765],[-73.6998176,45.5510937],[-73.6994767,45.5512624],[-73.7025707,45.5543707],[-73.7020393,45.5547165],[-73.7019367,45.5547152],[-73.7022353,45.5545291],[-73.7006255,45.5529202],[-73.6995172,45.5534502],[-73.69892,45.5528616],[-73.6977097,45.5534474],[-73.6981785,45.5539279],[-73.6944183,45.5557588],[-73.6943277,45.5556621],[-73.6941696,45.5557558],[-73.6926829,45.5567543],[-73.6931463,45.5571453],[-73.6912801,45.5581561],[-73.6893264,45.5564732],[-73.6910509,45.5554586],[-73.6902345,45.554744],[-73.6908819,45.5544073]],[[-73.6932584,45.5523965],[-73.6931365,45.5524039],[-73.6931513,45.5525146],[-73.6934512,45.5527092],[-73.6939707,45.5527524],[-73.6932584,45.5523965]],[[-73.6935059,45.5539771],[-73.693716,45.5540252],[-73.6939728,45.5539123],[-73.6939943,45.5537637],[-73.6942757,45.5536011],[-73.6940812,45.5534546],[-73.6935546,45.5535753],[-73.69352472452805,45.55378592648362],[-73.6931809,45.5539231],[-73.6932081,45.5540464],[-73.6935059,45.5539771]]]}},{"type":"Feature","properties":{"id":"centre-de-la-nature-590823","name":"Centre de la nature","type":"park"},"geometry":{"type":"Polygon","coordinates":[[[-73.656286,45.6003534],[-73.6564964,45.6003549],[-73.6577242,45.6014446],[-73.6657528,45.6087757],[-73.6666623,45.6095245],[-73.667261,45.6097657],[-73.6671966,45.6102986],[-73.6674166,45.6107737],[-73.6658461,45.6114916],[-73.6654892,45.6110827],[-73.6649572,45.6112867],[-73.664766,45.611116],[-73.6643943,45.6112477],[-73.6638196,45.6107734],[-73.6628281,45.6107954],[-73.6617049,45.6098141],[-73.6602121,45.609458],[-73.6599117,45.6093004],[-73.6573672,45.6071642],[-73.6585975,45.6064583],[-73.6582736,45.6062457],[-73.654941,45.6032067],[-73.6551343,45.6030952],[-73.6550838,45.6030485],[-73.6560367,45.6025249],[-73.6556175,45.6021368],[-73.6557037,45.6020811],[-73.6556947,45.6019549],[-73.6551076,45.6015416],[-73.656286,45.6003534]],[[-73.6613102,45.605689],[-73.6601263,45.6052922],[-73.6599291,45.6053302],[-73.6598111,45.6054822],[-73.6598399,45.605711],[-73.6601259,45.605968],[-73.660637,45.6061487],[-73.6614897,45.6068383],[-73.6616309,45.6067713],[-73.6615096,45.6061763],[-73.6613102,45.605689]],[[-73.6623719,45.6075686],[-73.66196,45.6073399],[-73.6620909,45.60768],[-73.6623673,45.6079307],[-73.6623727,45.6081012],[-73.6624991,45.6082073],[-73.6630384,45.6082791],[-73.6627145,45.6076258],[-73.6623719,45.6075686]]]}},{"type":"Feature","properties":{"id":"le-boise-sainte-dorothee-085293","name":"Le Boisé Sainte-Dorothée","type":"park"},"geometry":{"type":"Polygon","coordinates":[[[-73.8347483,45.5340211],[-73.8343503,45.533628],[-73.836633,45.5324964],[-73.8406454,45.536527],[-73.8423789,45.535777],[-73.8427756,45.536177],[-73.8419192,45.5365858],[-73.8441344,45.5388487],[-73.8439553,45.5391581],[-73.8435023,45.5394099],[-73.8439196,45.5399096],[-73.8412945,45.5400665],[-73.8378318,45.5405794],[-73.8362289,45.5412308],[-73.8357046,45.5407185],[-73.8345144,45.5413161],[-73.8349595,45.5417509],[-73.8283368,45.5444361],[-73.8205597,45.5453289],[-73.8188387,45.5454191],[-73.8185753,45.5449972],[-73.8171217,45.5439248],[-73.8155969,45.5442899],[-73.8152137,45.5447087],[-73.8150335,45.5447494],[-73.8145619,45.5440531],[-73.8135672,45.5441209],[-73.8116068,45.5440765],[-73.8112996,45.5436391],[-73.8090757,45.5438035],[-73.8086403,45.5436459],[-73.8081289,45.5437686],[-73.8077547,45.5441798],[-73.8055356,45.5435569],[-73.8043176,45.5431837],[-73.8037494,45.5428887],[-73.7997827,45.5396769],[-73.8042026,45.5376093],[-73.8064844,45.5369133],[-73.8074746,45.5367225],[-73.8090918,45.5365263],[-73.8107813,45.5364731],[-73.813419,45.5366807],[-73.815226,45.5366334],[-73.8164043,45.5364281],[-73.8172262,45.536183],[-73.8183471,45.535734],[-73.8192475,45.5352622],[-73.8210328,45.5371029],[-73.8213043,45.5367212],[-73.8213516,45.537103],[-73.8251224,45.5352226],[-73.8254753,45.5355657],[-73.8274284,45.5345975],[-73.8263879,45.5335294],[-73.8272852,45.5330805],[-73.8261957,45.5318993],[-73.8235331,45.5293093],[-73.8253281,45.5283825],[-73.835166,45.5380725],[-73.8353692,45.5381043],[-73.8359913,45.5376796],[-73.8359109,45.5361577],[-73.8340965,45.5343355],[-73.8347483,45.5340211]],[[-73.8290339,45.5349903],[-73.8286666,45.5350043],[-73.8280703,45.5353753],[-73.8285057,45.5358469],[-73.8287712,45.5359583],[-73.8294685,45.5357619],[-73.8295785,45.5356198],[-73.8295462,45.5353868],[-73.8290339,45.5349903]]]}}]}
