{"type":"FeatureCollection","features":[{"type":"Feature","properties":{"id":"parc-de-la-terre-562360","name":"Parc de la Terre","type":"park"},"geometry":{"type":"Polygon","coordinates":[[[-73.4802654,45.4648255],[-73.4824659,45.4641159],[-73.4847232,45.4641161],[-73.485311,45.4639311],[-73.4855592,45.4642078],[-73.4863914,45.4638235],[-73.4880242,45.4636949],[-73.4887204,45.4634028],[-73.4883825,45.463163],[-73.4885874,45.4629322],[-73.4886738,45.4626747],[-73.4896463,45.4626958],[-73.4896621,45.4624196],[-73.4897327,45.4624211],[-73.4897157,45.4627036],[-73.4908202,45.4627415],[-73.4908294,45.4631872],[-73.4913666,45.4632066],[-73.4912869,45.4643837],[-73.4892247,45.4643042],[-73.48684,45.4648721],[-73.4846473,45.4652904],[-73.4819499,45.4651194],[-73.4819585,45.4650557],[-73.4813637,45.4650627],[-73.4813527,45.4651362],[-73.4786033,45.4650138],[-73.4786139,45.464918],[-73.4794438,45.4649242],[-73.4802654,45.4648255]]]}},{"type":"Feature","properties":{"id":"parc-de-la-cite-479305","name":"Parc de la Cité","type":"park"},"geometry":{"type":"Polygon","coordinates":[[[-73.409492,45.4894452],[-73.4073003,45.4923472],[-73.4063167,45.4934186],[-73.4036113,45.4921806],[-73.4022467,45.4914138],[-73.4013736,45.4907148],[-73.4000022,45.4893532],[-73.4014135,45.4877863],[-73.4021173,45.4879969],[-73.402289,45.4878946],[-73.4021688,45.4875456],[-73.4023148,45.4871725],[-73.4000665,45.4863069],[-73.4001755,45.4861445],[-73.4005724,45.4862723],[-73.4007103,45.4860662],[-73.4012676,45.4862518],[-73.4019963,45.4852458],[-73.4033925,45.4852614],[-73.4034354,45.4845092],[-73.404165,45.4845318],[-73.4075982,45.4820194],[-73.4055168,45.4805751],[-73.4044868,45.480229],[-73.4055168,45.4787546],[-73.407169,45.4794015],[-73.4080488,45.4796347],[-73.4160632,45.4812145],[-73.418234,45.4820288],[-73.4170053,45.4829305],[-73.4169795,45.4830869],[-73.4175192,45.4834302],[-73.4145905,45.4857911],[-73.4125905,45.4886322],[-73.4112102,45.4881559],[-73.4107461,45.4888302],[-73.4121639,45.4892811],[-73.4113918,45.4903997],[-73.4110541,45.4903011],[-73.4111639,45.490017],[-73.409492,45.4894452]],[[-73.4081029,45.484734],[-73.4081661,45.4848726],[-73.4087915,45.4853088],[-73.408934,45.4855938],[-73.4088975,45.4859201],[-73.4086511,45.4861335],[-73.4078067,45.4863615],[-73.4076292,45.4865498],[-73.4081192,45.4870694],[-73.4088677,45.4871417],[-73.4089708,45.4873239],[-73.4091822,45.4874175],[-73.4092543,45.4876019],[-73.4093968,45.4876699],[-73.409559,45.4880518],[-73.4094554,45.4881484],[-73.4094047,45.4883772],[-73.4092107,45.4885377],[-73.4086001,45.4887477],[-73.4074765,45.4887354],[-73.4073992,45.4890021],[-73.4078812,45.4895709],[-73.4082251,45.4896483],[-73.4084059,45.4895951],[-73.4087057,45.4893229],[-73.4088,45.489022],[-73.4091671,45.4890712],[-73.4096191,45.4886596],[-73.4098288,45.4882837],[-73.4097557,45.4880744],[-73.4096493,45.4880112],[-73.4095576,45.4876522],[-73.4097033,45.4871874],[-73.409682,45.4866823],[-73.4097617,45.4864617],[-73.4100248,45.4862311],[-73.4103968,45.4855776],[-73.4109019,45.4851325],[-73.4113679,45.4843175],[-73.4118956,45.4838953],[-73.4121497,45.483317],[-73.412403,45.4831544],[-73.4130755,45.4823885],[-73.4136776,45.4815393],[-73.4135825,45.4813011],[-73.4131895,45.481401],[-73.4127343,45.4819924],[-73.4122857,45.4828099],[-73.4116495,45.4831453],[-73.4112109,45.4835786],[-73.4110741,45.4838917],[-73.4111565,45.4842824],[-73.4109851,45.4844794],[-73.4095985,45.4844952],[-73.4095486,45.4845616],[-73.4097558,45.484849],[-73.4084219,45.4846276],[-73.4082325,45.4846243],[-73.4081029,45.484734]]]}},{"type":"Feature","properties":{"id":"parc-pierre-laporte-137090","name":"Parc Pierre-Laporte","type":"park"},"geometry":{"type":"Polygon","coordinates":[[[-73.4462593,45.604979],[-73.4457018,45.6057999],[-73.4445431,45.6054822],[-73.4442299,45.6061882],[-73.443379,45.6060758],[-73.44346,45.6055963],[-73.4436698,45.60515],[-73.4442432,45.6043133],[-73.4456154,45.6032298],[-73.4474782,45.6019579],[-73.4490328,45.6011179],[-73.4491608,45.6009665],[-73.4498438,45.6014286],[-73.4501298,45.6018377],[-73.4504888,45.6020104],[-73.452432,45.6035199],[-73.452417,45.6035931],[-73.4512409,45.6043612],[-73.450782,45.6040169],[-73.4504203,45.6038851],[-73.4481692,45.6040705],[-73.4478216,45.6041265],[-73.4465777,45.6047405],[-73.4462593,45.604979]]]}},{"type":"Feature","properties":{"id":"parc-du-boise-du-pays-brule-448607","name":"Parc du Boisé-Du-Pays-Brûlé","type":"park"},"geometry":{"type":"Polygon","coordinates":[[[-73.4153487,45.5990373],[-73.4166723,45.5978748],[-73.4162927,45.5976336],[-73.418035,45.5963901],[-73.4211517,45.5988191],[-73.420891,45.5989833],[-73.4214641,45.5997388],[-73.4219368,45.6001558],[-73.4200114,45.6015149],[-73.4190158,45.6008784],[-73.4162692,45.5995752],[-73.4153487,45.5990373]]]}},{"type":"Feature","properties":{"id":"parc-marie-victorin-728918","name":"Parc Marie-Victorin","type":"park"},"geometry":{"type":"Polygon","coordinates":[[[-73.3671353,45.525564],[-73.3643595,45.5273185],[-73.3642132,45.5275206],[-73.3633772,45.5297024],[-73.3667991,45.532437],[-73.3668435,45.5327142],[-73.3685618,45.5340914],[-73.3662639,45.5358281],[-73.3590055,45.5302964],[-73.3599244,45.5279184],[-73.3601785,45.5278601],[-73.360152,45.5277907],[-73.3608614,45.5262115],[-73.3605562,45.5261046],[-73.3616192,45.5238896],[-73.3613851,45.521193],[-73.3617261,45.5211625],[-73.3623082,45.5219498],[-73.3671353,45.525564]]]}},{"type":"Feature","properties":{"id":"parc-michel-chartrand-740215","name":"Parc Michel Chartrand","type":"park"},"geometry":{"type":"Polygon","coordinates":[[[-73.4719791,45.542136],[-73.474537,45.5437381],[-73.473696,45.5448338],[-73.4750199,45.5453731],[-73.4737958,45.5461659],[-73.4740601,45.5463686],[-73.4742444,45.5463746],[-73.474241,45.546443],[-73.4740515,45.5464407],[-73.4737339,45.5466451],[-73.4750612,45.5476614],[-73.4754567,45.5474203],[-73.4756914,45.5476006],[-73.4753132,45.5478412],[-73.4766521,45.5489172],[-73.4769555,45.5487086],[-73.4769754,45.5485603],[-73.4770889,45.5485487],[-73.4770899,45.5487128],[-73.4772787,45.548857],[-73.4792272,45.547599],[-73.4790955,45.5473814],[-73.4793587,45.5471813],[-73.4802262,45.5479134],[-73.4799288,45.5481127],[-73.4799117,45.5484063],[-73.4798272,45.5484026],[-73.479851,45.5480878],[-73.4795201,45.5481158],[-73.4776153,45.5493637],[-73.4777957,45.5494946],[-73.478017,45.5494988],[-73.4780277,45.5495871],[-73.4777876,45.5496135],[-73.4775358,45.5497956],[-73.4789025,45.5508795],[-73.4793021,45.5506106],[-73.4795824,45.5508247],[-73.4792013,45.551105],[-73.480525,45.5521614],[-73.4808578,45.5519525],[-73.4808746,45.5517756],[-73.480998,45.5517784],[-73.4809787,45.5519459],[-73.4811926,45.5521308],[-73.4832981,45.5508845],[-73.4832616,45.5505009],[-73.4837159,45.5510048],[-73.4756549,45.5552512],[-73.4732248,45.5568739],[-73.4717863,45.557636],[-73.4713433,45.5577802],[-73.4706409,45.557797],[-73.4702754,45.5576825],[-73.45719,45.5477667],[-73.4565117,45.5472111],[-73.4558887,45.5463848],[-73.4567363,45.5457086],[-73.4571333,45.5450924],[-73.4645576,45.5447768],[-73.4674222,45.5441156],[-73.4692783,45.5433266],[-73.4715377,45.5419812],[-73.4719791,45.542136]],[[-73.4707593,45.5459515],[-73.4713344,45.5455247],[-73.4714631,45.5456029],[-73.4714806,45.545768],[-73.4719609,45.5455848],[-73.4721154,45.5453264],[-73.4720313,45.5452093],[-73.471670835375,45.54516913686922],[-73.4716434,45.5447252],[-73.4715575,45.5447192],[-73.4715404,45.5448635],[-73.4713,45.5450498],[-73.4713405,45.5452269],[-73.4715389,45.5453023],[-73.4718087,45.5452793],[-73.4718361,45.5453691],[-73.4715661,45.5455848],[-73.4713687,45.5454165],[-73.4709396,45.5453925],[-73.4707765,45.5457051],[-73.4704675,45.5458974],[-73.4707593,45.5459515]],[[-73.4712249,45.5481746],[-73.4712425,45.5476884],[-73.4709828,45.5474556],[-73.4708923,45.5475148],[-73.471017,45.5476369],[-73.470781,45.54793],[-73.4708954,45.5482364],[-73.4710366,45.5482735],[-73.4712249,45.5481746]]]}},{"type":"Feature","properties":{"id":"parc-de-la-voie-maritime-649964","name":"Parc de la Voie maritime","type":"park"},"geometry":{"type":"Polygon","coordinates":[[[-73.5185752,45.5157847],[-73.5177109,45.5133634],[-73.5177288,45.5122867],[-73.5179701,45.5105627],[-73.5174172,45.5083357],[-73.517321,45.5076104],[-73.5173363,45.5064737],[-73.5176207,45.5049058],[-73.517721,45.5048464],[-73.5186199,45.5051682],[-73.5185175,45.5052461],[-73.5191156,45.5062038],[-73.5195019,45.5070932],[-73.5220678,45.5152385],[-73.5185752,45.5157847]]]}},{"type":"Feature","properties":{"id":"grand-parc-urbain-380604","name":"Grand Parc Urbain","type":"park"},"geometry":{"type":"Polygon","coordinates":[[[-73.4347303,45.4552763],[-73.4261909,45.4610314],[-73.4245387,45.4604317],[-73.4233907,45.4591877],[-73.4231117,45.4576826],[-73.4250751,45.4563303],[-73.4250985,45.4566658],[-73.424801,45.4596669],[-73.4252677,45.4602364],[-73.42567,45.4603353],[-73.4269345,45.4589866],[-73.4297246,45.4579385],[-73.4300799,45.4573887],[-73.4295365,45.4565604],[-73.4313935,45.4559286],[-73.4329723,45.4557964],[-73.4340691,45.455506],[-73.43465,45.4552112],[-73.4347303,45.4552763]],[[-73.4297346,45.4567082],[-73.430035,45.4567985],[-73.430344,45.4566841],[-73.4308075,45.456642],[-73.4309276,45.4564613],[-73.4308332,45.4562928],[-73.4306101,45.4562205],[-73.4298376,45.4564734],[-73.4297174,45.4565577],[-73.4297861,45.4566239],[-73.4297346,45.4567082]],[[-73.4241132,45.4583748],[-73.4243311,45.4578993],[-73.4242797,45.4578081],[-73.4240467,45.4579269],[-73.423853,45.4582538],[-73.4237864,45.4585425],[-73.4239649,45.4591941],[-73.4241495,45.4592662],[-73.4242161,45.4587823],[-73.4241132,45.4583748]]]}},{"type":"Feature","properties":{"id":"parc-jean-drapeau-607592","name":"Parc Jean-Drapeau","type":"park"},"geometry":{"type":"MultiPolygon","coordinates":[[[[-73.5287337107023,45.518549509759715],[-73.5258792,45.5187867],[-73.521686,45.5048211],[-73.5191307,45.4968473],[-73.5198315,45.4965083],[-73.5194403,45.4956594],[-73.520664,45.4958422],[-73.5242174,45.4970876],[-73.5261657,45.4983991],[-73.5272521,45.4992578],[-73.528027,45.5000003],[-73.5293402,45.5018524],[-73.5299114,45.503224],[-73.5302083,45.5052932],[-73.5301463,45.5061518],[-73.529968,45.5069534],[-73.5281643,45.5119433],[-73.5281455,45.5131318],[-73.5283043,45.5151157],[-73.5287337107023,45.518549509759715]],[[-73.5274173,45.5102699],[-73.5283319,45.5079636],[-73.5287047,45.5065669],[-73.5288686,45.50501],[-73.5266984,45.5049409],[-73.5267306,45.5040235],[-73.5258861,45.5039939],[-73.5261075,45.5028624],[-73.5263743,45.502753],[-73.5269754,45.5027501],[-73.5270575,45.5023854],[-73.526449,45.5020436],[-73.5261708,45.5016535],[-73.5259461,45.5006819],[-73.5259798,45.5002875],[-73.5257635,45.5001772],[-73.5256272,45.5002051],[-73.5253819,45.4999916],[-73.5254345,45.4996029],[-73.5253377,45.49936],[-73.5249785,45.4990693],[-73.5247117,45.49857],[-73.5242579,45.4984485],[-73.5238193,45.4986032],[-73.5237105,45.4988205],[-73.5236444,45.4993249],[-73.5239371,45.4999751],[-73.5237407,45.5006464],[-73.523804,45.5008214],[-73.5239519,45.500934],[-73.523744,45.501124],[-73.5238675,45.5011537],[-73.5237557,45.5013895],[-73.5236428,45.5013756],[-73.5236964,45.5014156],[-73.5236531,45.5017722],[-73.52402799752294,45.5029533719084],[-73.5240637,45.5045633],[-73.5241555,45.5049944],[-73.5240808,45.505021],[-73.5241702,45.5053628],[-73.5244637,45.5051345],[-73.5253219,45.5051346],[-73.5253774,45.505024],[-73.5270632,45.5050875],[-73.5269533,45.5063695],[-73.5266314,45.5076496],[-73.5264111,45.5078188],[-73.5265383,45.5078421],[-73.5263244,45.5080575],[-73.5264061,45.508253],[-73.5258777,45.5094861],[-73.5256309,45.5103658],[-73.5261178,45.5112731],[-73.5268165,45.5113845],[-73.5271356,45.5113413],[-73.5274173,45.5102699]],[[-73.5253037,45.5052616],[-73.5253142,45.5051791],[-73.5249586,45.5051549],[-73.5249543,45.5051853],[-73.5253037,45.5052616]],[[-73.5246515,45.5051748],[-73.5241913,45.5054347],[-73.5242644,45.5056882],[-73.5253868,45.5057499],[-73.5252841,45.5056147],[-73.5253135,45.5054042],[-73.5252452,45.5054044],[-73.5252164,45.5055412],[-73.5247051,45.505163],[-73.524927,45.5051827],[-73.524791,45.5051493],[-73.5247139,45.5051605],[-73.5246515,45.5051748]],[[-73.5268797,45.5162667],[-73.5213124,45.4978834],[-73.5199648,45.4980507],[-73.5257132,45.5172377],[-73.5270524,45.5170481],[-73.5267767,45.5162791],[-73.5268797,45.5162667]]],[[[-73.5372181,45.5098963],[-73.5385313,45.5139262],[-73.5384798,45.5153997],[-73.5381879,45.5176395],[-73.5382356,45.5184903],[-73.5381755,45.5184747],[-73.5380969,45.5186093],[-73.5382564,45.5186566],[-73.5383386,45.5192539],[-73.5390638,45.5210788],[-73.5390722,45.5215089],[-73.5362618,45.5209169],[-73.536164,45.5213105],[-73.5357924,45.5214696],[-73.5348047,45.521418],[-73.5337813,45.5210043],[-73.5335056,45.5209653],[-73.5331639,45.5209919],[-73.5329213,45.5211341],[-73.5314396,45.5212497],[-73.5312872,45.5205958],[-73.5311715,45.5194221],[-73.5305394,45.5180724],[-73.5302191,45.5161545],[-73.5298465,45.5150528],[-73.5298624,45.5143833],[-73.5303646,45.5134341],[-73.5306253,45.5119131],[-73.531512,45.5094478],[-73.5327206,45.5066422],[-73.5331703,45.5064169],[-73.533749,45.5063193],[-73.5346221,45.5065556],[-73.5351763,45.5071193],[-73.5369946,45.5094249],[-73.5372181,45.5098963]],[[-73.5336696,45.5091482],[-73.53380195722409,45.50926994324518],[-73.5337513,45.509361],[-73.5339311,45.509433],[-73.5347642,45.5094922],[-73.5354123,45.5091935],[-73.5357368,45.5091295],[-73.5358146,45.5090102],[-73.5355971,45.5087457],[-73.5355621,45.508479],[-73.5350834,45.5080077],[-73.5346007,45.507896],[-73.5336265,45.5082509],[-73.5331932,45.5090509],[-73.5332913,45.5092325],[-73.5334477,45.5092579],[-73.5336696,45.5091482]],[[-73.5316311,45.5139888],[-73.5317798,45.5139968],[-73.5320172,45.5135074],[-73.5316887,45.5134902],[-73.5316311,45.5139888]],[[-73.5346463,45.5179112],[-73.5350234,45.5176397],[-73.5354028,45.5171781],[-73.5352142,45.5171542],[-73.5345555,45.517748],[-73.5338792,45.517958],[-73.5329788,45.5184299],[-73.5328535,45.5185976],[-73.5329689,45.5186691],[-73.5332457,45.5185527],[-73.5335132,45.5182919],[-73.5346463,45.5179112]]],[[[-73.5264166,45.5043133],[-73.5264118,45.5044226],[-73.5264916,45.5044244],[-73.5264774,45.5047453],[-73.5263945,45.5047435],[-73.52639,45.5048448],[-73.5256358,45.5048284],[-73.5256383,45.5043001],[-73.5264166,45.5043133]]],[[[-73.5279457,45.5084485],[-73.5272724,45.5100744],[-73.5269774,45.5111233],[-73.5268996,45.5111721],[-73.5261486,45.5110763],[-73.5257758,45.5104429],[-73.5266046,45.5083207],[-73.5268406,45.5081365],[-73.5266794,45.5078854],[-73.5268379,45.5077079],[-73.5272295,45.5064278],[-73.5272832,45.5051514],[-73.5286266,45.5051463],[-73.5285867,45.5058206],[-73.52834,45.5072587],[-73.5278277,45.5072831],[-73.5277901,45.5074993],[-73.5282032,45.5076158],[-73.5281549,45.5078733],[-73.5280261,45.5080012],[-73.5280556,45.5082117],[-73.5279376,45.5083038],[-73.5279457,45.5084485]],[[-73.5273521,45.5058967],[-73.5273986,45.5057925],[-73.5273314,45.5058404],[-73.5273521,45.5058967]]],[[[-73.53375417605535,45.50860962206465],[-73.5335556,45.5088568],[-73.5334528,45.5088267],[-73.5335494,45.5086388],[-73.53375417605535,45.50860962206465]]],[[[-73.5348102,45.5093888],[-73.5342247,45.5094026],[-73.5344484,45.5092809],[-73.5348102,45.5093888]]]]}},{"type":"Feature","properties":{"id":"refuge-d-oiseaux-migrateurs-des-iles-de-la-couvee-419514","name":"Refuge d'oiseaux migrateurs des Îles-de-la-Couvée","type":"park"},"geometry":{"type":"MultiPolygon","coordinates":[[[[-73.5029067,45.4674918],[-73.5031467,45.4681844],[-73.5041714,45.4702227],[-73.5041409,45.4703373],[-73.5039221,45.4703208],[-73.503407,45.4695076],[-73.503392,45.4692972],[-73.5026542553592,45.46746273479879],[-73.5029067,45.4674918]]],[[[-73.5096949,45.4798835],[-73.5087767,45.4785668],[-73.5087777,45.478351],[-73.5086502,45.4781785],[-73.5083186,45.4780402],[-73.50801905485172,45.47770996295218],[-73.5072421,45.4768534],[-73.5051928,45.4748343],[-73.5038637,45.4730307],[-73.50332,45.4719005],[-73.503402,45.4716295],[-73.50379,45.4713872],[-73.5038,45.4709359],[-73.5039073,45.4709653],[-73.5046238,45.4722041],[-73.5055041,45.4732484],[-73.50609,45.4737597],[-73.5064719,45.474305],[-73.5066566,45.4744164],[-73.5068593,45.474786],[-73.5070363,45.4748861],[-73.5071233,45.4750861],[-73.50794300355655,45.47630258109246],[-73.50768460620228,45.47589890453906],[-73.5079033,45.4761714],[-73.5086193,45.4774381],[-73.50885199066981,45.47772262962975],[-73.5090331,45.4781604],[-73.5090317,45.4787241],[-73.5096949,45.4798835]],[[-73.50804130105597,45.477710301256266],[-73.50804130105587,45.47771030125615],[-73.50801905485172,45.47770996295218],[-73.50804130105597,45.477710301256266]]],[[[-73.5099195,45.4806677],[-73.5099811,45.4803575],[-73.5104297,45.4806851],[-73.5118464,45.4837315],[-73.5125441,45.4854634],[-73.5124441,45.4856144],[-73.5125065,45.4858863],[-73.512436,45.4859893],[-73.5123424,45.4859662],[-73.5121353,45.4856433],[-73.5116155,45.4856379],[-73.5114539,45.4855604],[-73.511272,45.4848014],[-73.5107083,45.4836569],[-73.5104895,45.4829452],[-73.5107012,45.4825748],[-73.5107076,45.4822945],[-73.5102067,45.4810246],[-73.5099195,45.4806677]]],[[[-73.5125949,45.4863778],[-73.5130872,45.4868095],[-73.5146284,45.4903563],[-73.5143859,45.4906174],[-73.5139105,45.4907238],[-73.5129871,45.4887483],[-73.5122559,45.4867356],[-73.5125095,45.4866292],[-73.5125181,45.4864246],[-73.5125949,45.4863778]]]]}},{"type":"Feature","properties":{"id":"reserve-naturelle-du-bois-de-brossard-248619","name":"Réserve naturelle du Bois-de-Brossard","type":"park"},"geometry":{"type":"MultiPolygon","coordinates":[[[[-73.4166218,45.4180383],[-73.4095663,45.4289115],[-73.4073202,45.4272978],[-73.4136295,45.4175795],[-73.4136206,45.4155108],[-73.4166139,45.4156407],[-73.4166218,45.4180383]]],[[[-73.4194926,45.4330077],[-73.4217969,45.4294961],[-73.4210941,45.4293232],[-73.4208836,45.4293839],[-73.4210244,45.4291433],[-73.4216277,45.4285574],[-73.4217802,45.4279128],[-73.4226483,45.4265807],[-73.4227244,45.426241],[-73.4222984,45.4260349],[-73.4210387,45.4279618],[-73.420946,45.4279294],[-73.4210335,45.4277559],[-73.4209676,45.4276137],[-73.4204326,45.4275973],[-73.4191579,45.4271519],[-73.4239803,45.4197985],[-73.4241909,45.4159685],[-73.4292892,45.416183],[-73.4309318,45.4181431],[-73.4307493,45.4210112],[-73.4227384,45.433116],[-73.4223139,45.4331018],[-73.422435,45.4326993],[-73.4218691,45.4326808],[-73.4217225,45.4330777],[-73.4194926,45.4330077]]],[[[-73.3931733,45.4302778],[-73.3899809,45.4279515],[-73.3815041,45.4337178],[-73.3814191,45.4336612],[-73.3851992,45.4310901],[-73.3836422,45.430052],[-73.3969478,45.4210194],[-73.4017138,45.4244447],[-73.3931733,45.4302778]]],[[[-73.4064726,45.4278642],[-73.4101307,45.4305238],[-73.399494,45.4378792],[-73.3956699,45.4352706],[-73.4064726,45.4278642]]]]}},{"type":"Feature","properties":{"id":"parc-marie-victorin-2-386897","name":"Parc Marie-Victorin (2)","type":"park"},"geometry":{"type":"MultiPolygon","coordinates":[[[[-73.5219709,45.5350663],[-73.5194613,45.5342021],[-73.5203965,45.5333297],[-73.5207921,45.5330737],[-73.5223105,45.5326959],[-73.5234532,45.5321138],[-73.523807,45.5322741],[-73.5243396,45.5328892],[-73.5244211,45.5330281],[-73.5244095,45.5332604],[-73.5238405,45.5332031],[-73.5234511,45.5332621],[-73.5216518,45.5341172],[-73.5214494,45.5344613],[-73.5214681,45.5347351],[-73.5219709,45.5350663]]],[[[-73.5133375,45.5431729],[-73.5125411,45.5433301],[-73.5119398,45.5438385],[-73.5115629,45.5444877],[-73.5115189,45.5447506],[-73.5111933,45.5450999],[-73.5103986,45.5453174],[-73.5091396,45.5461133],[-73.5087861,45.5464566],[-73.5086072,45.5465097],[-73.5080728,45.5460602],[-73.5081191,45.545963],[-73.508401,45.5458318],[-73.5083211,45.5455916],[-73.5074583,45.5458804],[-73.50699419521912,45.5458804],[-73.5068586,45.5458421],[-73.5067274,45.5456775],[-73.5090671,45.5431992],[-73.5104564,45.5419187],[-73.5122865,45.543183],[-73.5126242,45.5431459],[-73.512809,45.5430192],[-73.5134856,45.5429336],[-73.5140899,45.5426419],[-73.5157472,45.5415726],[-73.5166829,45.5407641],[-73.516831,45.5408176],[-73.5158836,45.5416424],[-73.51448,45.5425926],[-73.5133375,45.5431729]]]]}}]}
