{"type":"FeatureCollection","features":[{"type":"Feature","properties":{"category":"airport"},"geometry":{"type":"MultiPolygon","coordinates":[[[[-73.42829132392968,45.50892294117817],[-73.43008795449792,45.50892294117817],[-73.43188458506616,45.50892294117817],[-73.43188458506616,45.51018200252478],[-73.43188458506616,45.51144103570729],[-73.43188458506616,45.51270004072569],[-73.43008795449792,45.51270004072569],[-73.43008795449792,45.51395901758004],[-73.43008795449792,45.515217966270335],[-73.43008795449792,45.51647688679661],[-73.42829132392968,45.51647688679661],[-73.42829132392968,45.51773577915887],[-73.42829132392968,45.51899464335717],[-73.42829132392968,45.5202534793915],[-73.42649469336145,45.5202534793915],[-73.42649469336145,45.52151228726189],[-73.42649469336145,45.522771066968396],[-73.42649469336145,45.52402981851101],[-73.42469806279321,45.52402981851101],[-73.42469806279321,45.525288541889736],[-73.42290143222498,45.525288541889736],[-73.42110480165672,45.525288541889736],[-73.42110480165672,45.52402981851101],[-73.41930817108849,45.52402981851101],[-73.41751154052025,45.52402981851101],[-73.41751154052025,45.525288541889736],[-73.41571490995202,45.525288541889736],[-73.41571490995202,45.52654723710463],[-73.41391827938378,45.52654723710463],[-73.41391827938378,45.527805904155684],[-73.41212164881554,45.527805904155684],[-73.41212164881554,45.52906454304295],[-73.41212164881554,45.53032315376646],[-73.41032501824729,45.53032315376646],[-73.41032501824729,45.5315817363262],[-73.41032501824729,45.53284029072221],[-73.40852838767906,45.53284029072221],[-73.40852838767906,45.53409881695452],[-73.40673175711082,45.53409881695452],[-73.40673175711082,45.53284029072221],[-73.40493512654258,45.53284029072221],[-73.40493512654258,45.5315817363262],[-73.40313849597435,45.5315817363262],[-73.40313849597435,45.53032315376646],[-73.40134186540611,45.53032315376646],[-73.40134186540611,45.52906454304295],[-73.40134186540611,45.527805904155684],[-73.39954523483786,45.527805904155684],[-73.39954523483786,45.52654723710463],[-73.39774860426962,45.52654723710463],[-73.39774860426962,45.525288541889736],[-73.39595197370139,45.525288541889736],[-73.39595197370139,45.52402981851101],[-73.39415534313315,45.52402981851101],[-73.39415534313315,45.522771066968396],[-73.39595197370139,45.522771066968396],[-73.39595197370139,45.52151228726189],[-73.39774860426962,45.52151228726189],[-73.39774860426962,45.5202534793915],[-73.39954523483786,45.5202534793915],[-73.39954523483786,45.51899464335717],[-73.40134186540611,45.51899464335717],[-73.40134186540611,45.51773577915887],[-73.40313849597435,45.51773577915887],[-73.40313849597435,45.51647688679661],[-73.40493512654258,45.51647688679661],[-73.40493512654258,45.515217966270335],[-73.40673175711082,45.515217966270335],[-73.40673175711082,45.51395901758004],[-73.40852838767906,45.51395901758004],[-73.40852838767906,45.51270004072569],[-73.41032501824729,45.51270004072569],[-73.41032501824729,45.51144103570729],[-73.41212164881554,45.51144103570729],[-73.41212164881554,45.51018200252478],[-73.41391827938378,45.51018200252478],[-73.41571490995202,45.51018200252478],[-73.41751154052025,45.51018200252478],[-73.41751154052025,45.50892294117817],[-73.41930817108849,45.50892294117817],[-73.42110480165672,45.50892294117817],[-73.42290143222498,45.50892294117817],[-73.42469806279321,45.50892294117817],[-73.42649469336145,45.50892294117817],[-73.42829132392968,45.50892294117817]]]]}},{"type":"Feature","properties":{"category":"military"},"geometry":{"type":"MultiPolygon","coordinates":[[[[-73.29713729244824,45.54416601292229],[-73.29713729244824,45.545424285682294],[-73.29893392301648,45.545424285682294],[-73.29893392301648,45.546682530278794],[-73.30073055358471,45.546682530278794],[-73.30073055358471,45.547940746711866],[-73.30252718415295,45.547940746711866],[-73.30252718415295,45.546682530278794],[-73.3043238147212,45.546682530278794],[-73.3043238147212,45.547940746711866],[-73.3043238147212,45.549198934981504],[-73.3043238147212,45.55045709508774],[-73.3043238147212,45.55171522703059],[-73.3043238147212,45.5529733308101],[-73.3043238147212,45.55423140642624],[-73.3043238147212,45.55548945387911],[-73.30612044528944,45.55548945387911],[-73.30612044528944,45.55674747316868],[-73.30612044528944,45.55800546429499],[-73.30791707585767,45.55800546429499],[-73.30791707585767,45.55926342725809],[-73.30971370642591,45.55926342725809],[-73.30971370642591,45.56052136205795],[-73.31151033699415,45.56052136205795],[-73.31330696756238,45.56052136205795],[-73.31330696756238,45.56177926869461],[-73.31330696756238,45.563037147168124],[-73.31330696756238,45.564294997478534],[-73.31330696756238,45.56555281962577],[-73.31330696756238,45.56681061360996],[-73.31151033699415,45.56681061360996],[-73.31151033699415,45.568068379431075],[-73.31151033699415,45.56932611708911],[-73.31151033699415,45.57058382658418],[-73.31151033699415,45.57184150791623],[-73.31151033699415,45.5730991610853],[-73.31151033699415,45.57435678609146],[-73.30971370642591,45.57435678609146],[-73.30971370642591,45.5730991610853],[-73.30791707585767,45.5730991610853],[-73.30612044528944,45.5730991610853],[-73.30612044528944,45.57435678609146],[-73.3043238147212,45.57435678609146],[-73.30252718415295,45.57435678609146],[-73.30252718415295,45.57561438293469],[-73.30073055358471,45.57561438293469],[-73.30073055358471,45.576871951615026],[-73.29893392301648,45.576871951615026],[-73.29893392301648,45.57561438293469],[-73.29713729244824,45.57561438293469],[-73.29534066188,45.57561438293469],[-73.29534066188,45.57435678609146],[-73.29354403131175,45.57435678609146],[-73.29354403131175,45.5730991610853],[-73.29354403131175,45.57184150791623],[-73.29354403131175,45.57058382658418],[-73.29354403131175,45.56932611708911],[-73.29174740074352,45.56932611708911],[-73.29174740074352,45.568068379431075],[-73.28995077017528,45.568068379431075],[-73.28995077017528,45.56681061360996],[-73.28995077017528,45.56555281962577],[-73.28995077017528,45.564294997478534],[-73.28995077017528,45.563037147168124],[-73.29174740074352,45.563037147168124],[-73.29174740074352,45.56177926869461],[-73.29174740074352,45.56052136205795],[-73.29174740074352,45.55926342725809],[-73.29174740074352,45.55800546429499],[-73.29174740074352,45.55674747316868],[-73.29174740074352,45.55548945387911],[-73.29174740074352,45.55423140642624],[-73.29174740074352,45.5529733308101],[-73.29174740074352,45.55171522703059],[-73.28995077017528,45.55171522703059],[-73.28995077017528,45.55045709508774],[-73.28815413960703,45.55045709508774],[-73.28815413960703,45.549198934981504],[-73.28995077017528,45.549198934981504],[-73.28995077017528,45.547940746711866],[-73.28995077017528,45.546682530278794],[-73.28995077017528,45.545424285682294],[-73.29174740074352,45.545424285682294],[-73.29174740074352,45.54416601292229],[-73.29174740074352,45.5429077119988],[-73.29354403131175,45.5429077119988],[-73.29534066188,45.5429077119988],[-73.29534066188,45.54416601292229],[-73.29713729244824,45.54416601292229]]],[[[-73.53429252745579,45.5730991610853],[-73.53429252745579,45.57435678609146],[-73.53429252745579,45.57561438293469],[-73.53429252745579,45.576871951615026],[-73.53249589688755,45.576871951615026],[-73.53249589688755,45.57812949213249],[-73.53249589688755,45.57938700448713],[-73.53249589688755,45.580644488678914],[-73.53069926631932,45.580644488678914],[-73.52890263575107,45.580644488678914],[-73.52890263575107,45.57938700448713],[-73.52890263575107,45.57812949213249],[-73.52710600518283,45.57812949213249],[-73.52710600518283,45.57938700448713],[-73.52710600518283,45.580644488678914],[-73.5253093746146,45.580644488678914],[-73.52351274404636,45.580644488678914],[-73.52351274404636,45.57938700448713],[-73.52171611347812,45.57938700448713],[-73.51991948290988,45.57938700448713],[-73.51991948290988,45.57812949213249],[-73.51812285234163,45.57812949213249],[-73.5163262217734,45.57812949213249],[-73.5163262217734,45.576871951615026],[-73.5163262217734,45.57561438293469],[-73.51812285234163,45.57561438293469],[-73.51812285234163,45.57435678609146],[-73.51812285234163,45.5730991610853],[-73.51991948290988,45.5730991610853],[-73.51991948290988,45.57184150791623],[-73.52171611347812,45.57184150791623],[-73.52171611347812,45.5730991610853],[-73.52351274404636,45.5730991610853],[-73.5253093746146,45.5730991610853],[-73.5253093746146,45.57435678609146],[-73.52710600518283,45.57435678609146],[-73.52710600518283,45.5730991610853],[-73.52710600518283,45.57184150791623],[-73.52890263575107,45.57184150791623],[-73.53069926631932,45.57184150791623],[-73.53069926631932,45.5730991610853],[-73.53249589688755,45.5730991610853],[-73.53429252745579,45.5730991610853]],[[-73.52890263575107,45.57561438293469],[-73.52890263575107,45.576871951615026],[-73.53069926631932,45.576871951615026],[-73.53069926631932,45.57561438293469],[-73.53069926631932,45.57435678609146],[-73.52890263575107,45.57435678609146],[-73.52890263575107,45.57561438293469]]]]}}]}
