{"type":"FeatureCollection","features":[{"type":"Feature","properties":{"category":"airport"},"geometry":{"type":"MultiPolygon","coordinates":[[[[2.7578279222469306,41.89858464066629],[2.7578279222469306,41.89992190917975],[2.7578279222469306,41.9012591496894],[2.7578279222469306,41.902596362195105],[2.7596245528151697,41.902596362195105],[2.7596245528151697,41.903933546696685],[2.7596245528151697,41.90527070319404],[2.7596245528151697,41.90660783168702],[2.7614211833834093,41.90660783168702],[2.7614211833834093,41.90794493217549],[2.7614211833834093,41.90928200465928],[2.7614211833834093,41.91061904913826],[2.7614211833834093,41.91195606561231],[2.763217813951648,41.91195606561231],[2.763217813951648,41.913293054081265],[2.763217813951648,41.91463001454501],[2.763217813951648,41.915966947003355],[2.765014444519887,41.915966947003355],[2.765014444519887,41.917303851456204],[2.766811075088126,41.917303851456204],[2.768607705656365,41.917303851456204],[2.768607705656365,41.915966947003355],[2.768607705656365,41.91463001454501],[2.768607705656365,41.913293054081265],[2.768607705656365,41.91195606561231],[2.766811075088126,41.91195606561231],[2.766811075088126,41.91061904913826],[2.766811075088126,41.90928200465928],[2.766811075088126,41.90794493217549],[2.766811075088126,41.90660783168702],[2.765014444519887,41.90660783168702],[2.765014444519887,41.90527070319404],[2.765014444519887,41.903933546696685],[2.766811075088126,41.903933546696685],[2.766811075088126,41.902596362195105],[2.766811075088126,41.9012591496894],[2.765014444519887,41.9012591496894],[2.765014444519887,41.89992190917975],[2.765014444519887,41.89858464066629],[2.766811075088126,41.89858464066629],[2.766811075088126,41.897247344149164],[2.765014444519887,41.897247344149164],[2.765014444519887,41.89591001962852],[2.765014444519887,41.894572667104505],[2.763217813951648,41.894572667104505],[2.763217813951648,41.89591001962852],[2.7614211833834093,41.89591001962852],[2.7614211833834093,41.894572667104505],[2.7596245528151697,41.894572667104505],[2.7596245528151697,41.893235286577195],[2.7578279222469306,41.893235286577195],[2.7578279222469306,41.894572667104505],[2.756031291678692,41.894572667104505],[2.756031291678692,41.89591001962852],[2.756031291678692,41.897247344149164],[2.7578279222469306,41.897247344149164],[2.7578279222469306,41.89858464066629]]],[[[1.8577160075591705,42.386153298203425],[1.8595126381274094,42.386153298203425],[1.8595126381274094,42.38748030835436],[1.8613092686956483,42.38748030835436],[1.8631058992638876,42.38748030835436],[1.8631058992638876,42.38880729045375],[1.8649025298321265,42.38880729045375],[1.8666991604003655,42.38880729045375],[1.8666991604003655,42.39013424450153],[1.8684957909686049,42.39013424450153],[1.8702924215368437,42.39013424450153],[1.8702924215368437,42.38880729045375],[1.8702924215368437,42.38748030835436],[1.8684957909686049,42.38748030835436],[1.8684957909686049,42.386153298203425],[1.8684957909686049,42.38482626000109],[1.8666991604003655,42.38482626000109],[1.8649025298321265,42.38482626000109],[1.8631058992638876,42.38482626000109],[1.8613092686956483,42.38482626000109],[1.8595126381274094,42.38482626000109],[1.8595126381274094,42.38349919374746],[1.8577160075591705,42.38349919374746],[1.8559193769909312,42.38349919374746],[1.8559193769909312,42.38482626000109],[1.8577160075591705,42.38482626000109],[1.8577160075591705,42.386153298203425]]],[[[3.050678704869895,42.142838291388806],[3.052475335438134,42.142838291388806],[3.052475335438134,42.14150612184456],[3.050678704869895,42.14150612184456],[3.048882074301656,42.14150612184456],[3.0470854437334167,42.14150612184456],[3.0470854437334167,42.142838291388806],[3.048882074301656,42.142838291388806],[3.048882074301656,42.14417043290451],[3.050678704869895,42.14417043290451],[3.050678704869895,42.142838291388806]]],[[[3.108170883053544,42.26128911112451],[3.108170883053544,42.262618757579894],[3.108170883053544,42.263948375995206],[3.1099675136217835,42.263948375995206],[3.1099675136217835,42.262618757579894],[3.1099675136217835,42.26128911112451],[3.1117641441900226,42.26128911112451],[3.1117641441900226,42.259959436629174],[3.1117641441900226,42.25862973409402],[3.1117641441900226,42.25730000351912],[3.1117641441900226,42.25597024490465],[3.1099675136217835,42.25597024490465],[3.1099675136217835,42.25730000351912],[3.1099675136217835,42.25862973409402],[3.108170883053544,42.25862973409402],[3.108170883053544,42.259959436629174],[3.108170883053544,42.26128911112451]]]]}},{"type":"Feature","properties":{"category":"military"},"geometry":{"type":"MultiPolygon","coordinates":[[[[2.9518640236167477,42.37420894454582],[2.9500673930485086,42.37420894454582],[2.9500673930485086,42.375536207155164],[2.9500673930485086,42.37686344171406],[2.948270762480269,42.37686344171406],[2.948270762480269,42.378190648222365],[2.948270762480269,42.37951782667999],[2.9464741319120304,42.37951782667999],[2.9464741319120304,42.38084497708677],[2.9464741319120304,42.382172099442634],[2.9446775013437914,42.382172099442634],[2.9446775013437914,42.38349919374746],[2.9446775013437914,42.38482626000109],[2.9446775013437914,42.386153298203425],[2.9428808707755523,42.386153298203425],[2.9428808707755523,42.38748030835436],[2.9446775013437914,42.38748030835436],[2.9446775013437914,42.38880729045375],[2.9464741319120304,42.38880729045375],[2.9464741319120304,42.39013424450153],[2.9464741319120304,42.391461170497486],[2.948270762480269,42.391461170497486],[2.948270762480269,42.39278806844161],[2.948270762480269,42.39411493833369],[2.948270762480269,42.39544178017368],[2.9500673930485086,42.39544178017368],[2.9500673930485086,42.39676859396141],[2.9500673930485086,42.39809537969676],[2.9518640236167477,42.39809537969676],[2.9518640236167477,42.39942213737967],[2.9518640236167477,42.40074886700996],[2.9536606541849864,42.40074886700996],[2.9536606541849864,42.40207556858753],[2.9536606541849864,42.40340224211227],[2.955457284753226,42.40340224211227],[2.955457284753226,42.404728887584064],[2.955457284753226,42.40605550500278],[2.955457284753226,42.407382094368316],[2.955457284753226,42.40870865568057],[2.955457284753226,42.41003518893937],[2.9536606541849864,42.41003518893937],[2.9536606541849864,42.41136169414463],[2.9536606541849864,42.41268817129623],[2.9536606541849864,42.41401462039406],[2.9518640236167477,42.41401462039406],[2.9518640236167477,42.415341041438005],[2.9518640236167477,42.41666743442793],[2.9518640236167477,42.41799379936373],[2.9518640236167477,42.41932013624528],[2.9518640236167477,42.420646445072464],[2.9518640236167477,42.421972725845194],[2.9518640236167477,42.42329897856327],[2.9518640236167477,42.42462520322668],[2.9518640236167477,42.42595139983524],[2.9518640236167477,42.42727756838884],[2.9518640236167477,42.42860370888737],[2.9518640236167477,42.429929821330745],[2.9518640236167477,42.43125590571881],[2.9536606541849864,42.43125590571881],[2.955457284753226,42.43125590571881],[2.955457284753226,42.432581962051444],[2.9572539153214645,42.432581962051444],[2.9590505458897036,42.432581962051444],[2.9590505458897036,42.43390799032856],[2.9608471764579427,42.43390799032856],[2.962643807026182,42.43390799032856],[2.964440437594421,42.43390799032856],[2.964440437594421,42.43523399055],[2.96623706816266,42.43523399055],[2.968033698730899,42.43523399055],[2.9698303292991377,42.43523399055],[2.9716269598673772,42.43523399055],[2.9716269598673772,42.4365599627157],[2.9716269598673772,42.43788590682549],[2.9734235904356163,42.43788590682549],[2.9734235904356163,42.4365599627157],[2.975220221003855,42.4365599627157],[2.975220221003855,42.43523399055],[2.975220221003855,42.43390799032856],[2.977016851572094,42.43390799032856],[2.977016851572094,42.432581962051444],[2.977016851572094,42.43125590571881],[2.977016851572094,42.429929821330745],[2.978813482140333,42.429929821330745],[2.978813482140333,42.42860370888737],[2.9806101127085722,42.42860370888737],[2.9806101127085722,42.42727756838884],[2.9824067432768113,42.42727756838884],[2.9824067432768113,42.42595139983524],[2.9842033738450504,42.42595139983524],[2.9842033738450504,42.42462520322668],[2.9842033738450504,42.42329897856327],[2.9860000044132895,42.42329897856327],[2.987796634981528,42.42329897856327],[2.9895932655497677,42.42329897856327],[2.9913898961180063,42.42329897856327],[2.9931865266862454,42.42329897856327],[2.9931865266862454,42.421972725845194],[2.9913898961180063,42.421972725845194],[2.9913898961180063,42.420646445072464],[2.9931865266862454,42.420646445072464],[2.9931865266862454,42.41932013624528],[2.9931865266862454,42.41799379936373],[2.9931865266862454,42.41666743442793],[2.9913898961180063,42.41666743442793],[2.9913898961180063,42.415341041438005],[2.9895932655497677,42.415341041438005],[2.9895932655497677,42.41401462039406],[2.9913898961180063,42.41401462039406],[2.9913898961180063,42.41268817129623],[2.9895932655497677,42.41268817129623],[2.9895932655497677,42.41136169414463],[2.987796634981528,42.41136169414463],[2.987796634981528,42.41003518893937],[2.9860000044132895,42.41003518893937],[2.9860000044132895,42.40870865568057],[2.9842033738450504,42.40870865568057],[2.9842033738450504,42.407382094368316],[2.9824067432768113,42.407382094368316],[2.9824067432768113,42.40605550500278],[2.9806101127085722,42.40605550500278],[2.9806101127085722,42.404728887584064],[2.9806101127085722,42.40340224211227],[2.978813482140333,42.40340224211227],[2.977016851572094,42.40340224211227],[2.975220221003855,42.40340224211227],[2.975220221003855,42.40207556858753],[2.9734235904356163,42.40207556858753],[2.9734235904356163,42.40074886700996],[2.9734235904356163,42.39942213737967],[2.9734235904356163,42.39809537969676],[2.9716269598673772,42.39809537969676],[2.9716269598673772,42.39676859396141],[2.9734235904356163,42.39676859396141],[2.9734235904356163,42.39544178017368],[2.9734235904356163,42.39411493833369],[2.9716269598673772,42.39411493833369],[2.9698303292991377,42.39411493833369],[2.9698303292991377,42.39278806844161],[2.9716269598673772,42.39278806844161],[2.9716269598673772,42.391461170497486],[2.9698303292991377,42.391461170497486],[2.9698303292991377,42.39013424450153],[2.9698303292991377,42.38880729045375],[2.9716269598673772,42.38880729045375],[2.9716269598673772,42.38748030835436],[2.9716269598673772,42.386153298203425],[2.9716269598673772,42.38482626000109],[2.9716269598673772,42.38349919374746],[2.9716269598673772,42.382172099442634],[2.9716269598673772,42.38084497708677],[2.9716269598673772,42.37951782667999],[2.9734235904356163,42.37951782667999],[2.975220221003855,42.37951782667999],[2.975220221003855,42.378190648222365],[2.975220221003855,42.37686344171406],[2.975220221003855,42.375536207155164],[2.977016851572094,42.375536207155164],[2.977016851572094,42.37420894454582],[2.977016851572094,42.37288165388612],[2.977016851572094,42.371554335176214],[2.975220221003855,42.371554335176214],[2.975220221003855,42.370226988416206],[2.977016851572094,42.370226988416206],[2.977016851572094,42.36889961360623],[2.975220221003855,42.36889961360623],[2.9734235904356163,42.36889961360623],[2.9716269598673772,42.36889961360623],[2.9716269598673772,42.36757221074638],[2.9698303292991377,42.36757221074638],[2.968033698730899,42.36757221074638],[2.968033698730899,42.36889961360623],[2.96623706816266,42.36889961360623],[2.96623706816266,42.36757221074638],[2.964440437594421,42.36757221074638],[2.962643807026182,42.36757221074638],[2.9608471764579427,42.36757221074638],[2.9590505458897036,42.36757221074638],[2.9572539153214645,42.36757221074638],[2.955457284753226,42.36757221074638],[2.955457284753226,42.36889961360623],[2.9536606541849864,42.36889961360623],[2.9536606541849864,42.370226988416206],[2.9518640236167477,42.370226988416206],[2.9500673930485086,42.370226988416206],[2.9500673930485086,42.371554335176214],[2.9500673930485086,42.37288165388612],[2.9518640236167477,42.37288165388612],[2.9518640236167477,42.37420894454582]]],[[[3.233935022830277,42.27990160980694],[3.2357316533985165,42.27990160980694],[3.237528283966755,42.27990160980694],[3.237528283966755,42.27857232788236],[3.2393249145349943,42.27857232788236],[3.2393249145349943,42.2772430179162],[3.237528283966755,42.2772430179162],[3.2357316533985165,42.2772430179162],[3.233935022830277,42.2772430179162],[3.233935022830277,42.27857232788236],[3.2321383922620384,42.27857232788236],[3.2321383922620384,42.27990160980694],[3.233935022830277,42.27990160980694]]]]}},{"type":"Feature","properties":{"category":"prison"},"geometry":{"type":"Polygon","coordinates":[[[2.9374909790708355,42.2825600895309],[2.9374909790708355,42.283889287330034],[2.935694348502596,42.283889287330034],[2.935694348502596,42.28521845708707],[2.935694348502596,42.28654759880194],[2.9374909790708355,42.28654759880194],[2.939287609639074,42.28654759880194],[2.939287609639074,42.28521845708707],[2.939287609639074,42.283889287330034],[2.939287609639074,42.2825600895309],[2.941084240207313,42.2825600895309],[2.941084240207313,42.28123086368985],[2.939287609639074,42.28123086368985],[2.9374909790708355,42.28123086368985],[2.9374909790708355,42.2825600895309]]]}}]}
