{"type":"FeatureCollection","features":[{"type":"Feature","properties":{"category":"airport"},"geometry":{"type":"MultiPolygon","coordinates":[[[[2.001446453018294,42.44716673001961],[2.0032430835865327,42.44716673001961],[2.0050397141547722,42.44716673001961],[2.006836344723011,42.44716673001961],[2.00863297529125,42.44716673001961],[2.010429605859489,42.44716673001961],[2.012226236427728,42.44716673001961],[2.014022866995967,42.44716673001961],[2.014022866995967,42.445840982304254],[2.014022866995967,42.444515206532216],[2.012226236427728,42.444515206532216],[2.012226236427728,42.445840982304254],[2.010429605859489,42.445840982304254],[2.010429605859489,42.444515206532216],[2.00863297529125,42.444515206532216],[2.006836344723011,42.444515206532216],[2.0050397141547722,42.444515206532216],[2.0032430835865327,42.444515206532216],[2.0032430835865327,42.44318940270356],[2.001446453018294,42.44318940270356],[2.001446453018294,42.444515206532216],[2.001446453018294,42.445840982304254],[1.999649822450055,42.445840982304254],[1.999649822450055,42.44716673001961],[2.001446453018294,42.44716673001961]]],[[[2.1200240705220708,42.54122309774178],[2.1200240705220708,42.54254682507384],[2.1182274399538317,42.54254682507384],[2.1182274399538317,42.54387052434091],[2.1182274399538317,42.54519419554285],[2.1164308093855926,42.54519419554285],[2.1164308093855926,42.54651783867954],[2.1146341788173535,42.54651783867954],[2.1146341788173535,42.54784145375092],[2.1164308093855926,42.54784145375092],[2.1182274399538317,42.54784145375092],[2.1182274399538317,42.54651783867954],[2.1200240705220708,42.54651783867954],[2.1200240705220708,42.54519419554285],[2.1200240705220708,42.54387052434091],[2.12182070109031,42.54387052434091],[2.12182070109031,42.54254682507384],[2.1236173316585485,42.54254682507384],[2.1236173316585485,42.54122309774178],[2.125413962226788,42.54122309774178],[2.125413962226788,42.53989934234481],[2.125413962226788,42.53857555888309],[2.1236173316585485,42.53857555888309],[2.12182070109031,42.53857555888309],[2.12182070109031,42.53989934234481],[2.1200240705220708,42.53989934234481],[2.1200240705220708,42.54122309774178]]],[[[2.8602358646365564,42.75530085399431],[2.8602358646365564,42.75662003338504],[2.862032495204795,42.75662003338504],[2.862032495204795,42.75530085399431],[2.8638291257730346,42.75530085399431],[2.8638291257730346,42.75398164652143],[2.8638291257730346,42.752662410966494],[2.8656257563412737,42.752662410966494],[2.8656257563412737,42.75134314732961],[2.8674223869095123,42.75134314732961],[2.8674223869095123,42.75002385561086],[2.8674223869095123,42.74870453581039],[2.869219017477752,42.74870453581039],[2.869219017477752,42.747385187928266],[2.8710156480459905,42.747385187928266],[2.8710156480459905,42.74606581196459],[2.8710156480459905,42.74474640791947],[2.8728122786142296,42.74474640791947],[2.8728122786142296,42.74342697579303],[2.8746089091824687,42.74342697579303],[2.8746089091824687,42.74210751558534],[2.876405539750708,42.74210751558534],[2.876405539750708,42.74078802729651],[2.876405539750708,42.73946851092666],[2.876405539750708,42.73814896647588],[2.878202170318947,42.73814896647588],[2.878202170318947,42.73682939394426],[2.8799988008871855,42.73682939394426],[2.8799988008871855,42.73550979333193],[2.8799988008871855,42.73419016463896],[2.8799988008871855,42.73287050786549],[2.8799988008871855,42.73155082301159],[2.878202170318947,42.73155082301159],[2.878202170318947,42.730231110077355],[2.876405539750708,42.730231110077355],[2.876405539750708,42.73155082301159],[2.8746089091824687,42.73155082301159],[2.8746089091824687,42.73287050786549],[2.8728122786142296,42.73287050786549],[2.8728122786142296,42.73419016463896],[2.8710156480459905,42.73419016463896],[2.8710156480459905,42.73550979333193],[2.869219017477752,42.73550979333193],[2.869219017477752,42.73682939394426],[2.8674223869095123,42.73682939394426],[2.8674223869095123,42.73814896647588],[2.8656257563412737,42.73814896647588],[2.8656257563412737,42.73946851092666],[2.8638291257730346,42.73946851092666],[2.8638291257730346,42.74078802729651],[2.8656257563412737,42.74078802729651],[2.8674223869095123,42.74078802729651],[2.869219017477752,42.74078802729651],[2.869219017477752,42.74210751558534],[2.8674223869095123,42.74210751558534],[2.8674223869095123,42.74342697579303],[2.8656257563412737,42.74342697579303],[2.8656257563412737,42.74474640791947],[2.8656257563412737,42.74606581196459],[2.8656257563412737,42.747385187928266],[2.8638291257730346,42.747385187928266],[2.8638291257730346,42.74870453581039],[2.862032495204795,42.74870453581039],[2.862032495204795,42.75002385561086],[2.862032495204795,42.75134314732961],[2.8602358646365564,42.75134314732961],[2.8602358646365564,42.752662410966494],[2.8602358646365564,42.75398164652143],[2.8602358646365564,42.75530085399431]]],[[[2.9985764183909627,42.796182356404515],[2.9985764183909627,42.797500665198456],[2.9967797878227236,42.797500665198456],[2.9967797878227236,42.79881894590703],[2.9967797878227236,42.800137198530116],[2.9967797878227236,42.80145542306765],[2.9985764183909627,42.80145542306765],[3.0003730489592018,42.80145542306765],[3.002169679527441,42.80145542306765],[3.0039663100956795,42.80145542306765],[3.0039663100956795,42.800137198530116],[3.0057629406639186,42.800137198530116],[3.007559571232158,42.800137198530116],[3.0093562018003968,42.800137198530116],[3.011152832368636,42.800137198530116],[3.011152832368636,42.79881894590703],[3.011152832368636,42.797500665198456],[3.011152832368636,42.796182356404515],[3.011152832368636,42.794864019525306],[3.011152832368636,42.79354565456091],[3.011152832368636,42.79222726151145],[3.0093562018003968,42.79222726151145],[3.0093562018003968,42.790908840377035],[3.007559571232158,42.790908840377035],[3.007559571232158,42.79222726151145],[3.0057629406639186,42.79222726151145],[3.0039663100956795,42.79222726151145],[3.002169679527441,42.79222726151145],[3.0003730489592018,42.79222726151145],[2.9985764183909627,42.79222726151145],[2.9967797878227236,42.79222726151145],[2.9967797878227236,42.79354565456091],[2.9967797878227236,42.794864019525306],[2.9967797878227236,42.796182356404515],[2.9985764183909627,42.796182356404515]]],[[[3.014746093505114,42.74870453581039],[3.016542724073353,42.74870453581039],[3.016542724073353,42.747385187928266],[3.016542724073353,42.74606581196459],[3.016542724073353,42.74474640791947],[3.014746093505114,42.74474640791947],[3.014746093505114,42.74606581196459],[3.012949462936875,42.74606581196459],[3.012949462936875,42.747385187928266],[3.014746093505114,42.747385187928266],[3.014746093505114,42.74870453581039]]]]}},{"type":"Feature","properties":{"category":"military"},"geometry":{"type":"MultiPolygon","coordinates":[[[[2.1146341788173535,42.51076962342049],[2.1146341788173535,42.51209399621673],[2.1164308093855926,42.51209399621673],[2.1164308093855926,42.51341834095056],[2.1182274399538317,42.51341834095056],[2.1200240705220708,42.51341834095056],[2.1200240705220708,42.51209399621673],[2.12182070109031,42.51209399621673],[2.1236173316585485,42.51209399621673],[2.1236173316585485,42.51076962342049],[2.12182070109031,42.51076962342049],[2.12182070109031,42.50944522256193],[2.1200240705220708,42.50944522256193],[2.1200240705220708,42.50812079364116],[2.1182274399538317,42.50812079364116],[2.1164308093855926,42.50812079364116],[2.1164308093855926,42.50944522256193],[2.1146341788173535,42.50944522256193],[2.1146341788173535,42.51076962342049]]],[[[2.1433802679091785,42.52666024483075],[2.145176898477417,42.52666024483075],[2.145176898477417,42.527984280870506],[2.1433802679091785,42.527984280870506],[2.1433802679091785,42.52930828884644],[2.1433802679091785,42.53063226875853],[2.1433802679091785,42.5319562206066],[2.1433802679091785,42.53328014439056],[2.1433802679091785,42.534604040110295],[2.1433802679091785,42.535927907765725],[2.145176898477417,42.535927907765725],[2.145176898477417,42.537251747356684],[2.145176898477417,42.53857555888309],[2.146973529045656,42.53857555888309],[2.146973529045656,42.53989934234481],[2.1487701596138953,42.53989934234481],[2.1487701596138953,42.54122309774178],[2.1505667901821344,42.54122309774178],[2.1523634207503735,42.54122309774178],[2.1541600513186125,42.54122309774178],[2.1559566818868516,42.54122309774178],[2.1577533124550903,42.54122309774178],[2.15954994302333,42.54122309774178],[2.15954994302333,42.54254682507384],[2.161346573591569,42.54254682507384],[2.161346573591569,42.54387052434091],[2.161346573591569,42.54519419554285],[2.1631432041598075,42.54519419554285],[2.1631432041598075,42.54651783867954],[2.1631432041598075,42.54784145375092],[2.1649398347280466,42.54784145375092],[2.1649398347280466,42.54916504075688],[2.1667364652962857,42.54916504075688],[2.1667364652962857,42.55048859969722],[2.168533095864525,42.55048859969722],[2.168533095864525,42.55181213057191],[2.170329726432764,42.55181213057191],[2.172126357001003,42.55181213057191],[2.173922987569242,42.55181213057191],[2.1757196181374807,42.55181213057191],[2.1775162487057202,42.55181213057191],[2.1775162487057202,42.55048859969722],[2.1757196181374807,42.55048859969722],[2.1757196181374807,42.54916504075688],[2.1775162487057202,42.54916504075688],[2.1775162487057202,42.54784145375092],[2.1775162487057202,42.54651783867954],[2.179312879273959,42.54651783867954],[2.179312879273959,42.54519419554285],[2.179312879273959,42.54387052434091],[2.179312879273959,42.54254682507384],[2.179312879273959,42.54122309774178],[2.1775162487057202,42.54122309774178],[2.1775162487057202,42.53989934234481],[2.1775162487057202,42.53857555888309],[2.1775162487057202,42.537251747356684],[2.1775162487057202,42.535927907765725],[2.1775162487057202,42.534604040110295],[2.1775162487057202,42.53328014439056],[2.1775162487057202,42.5319562206066],[2.1775162487057202,42.53063226875853],[2.179312879273959,42.53063226875853],[2.179312879273959,42.52930828884644],[2.181109509842198,42.52930828884644],[2.181109509842198,42.527984280870506],[2.179312879273959,42.527984280870506],[2.1775162487057202,42.527984280870506],[2.1757196181374807,42.527984280870506],[2.1757196181374807,42.52666024483075],[2.173922987569242,42.52666024483075],[2.172126357001003,42.52666024483075],[2.172126357001003,42.525336180727365],[2.170329726432764,42.525336180727365],[2.168533095864525,42.525336180727365],[2.1667364652962857,42.525336180727365],[2.1667364652962857,42.52401208856042],[2.1649398347280466,42.52401208856042],[2.1631432041598075,42.52401208856042],[2.161346573591569,42.52401208856042],[2.161346573591569,42.52268796833004],[2.15954994302333,42.52268796833004],[2.1577533124550903,42.52268796833004],[2.1559566818868516,42.52268796833004],[2.1541600513186125,42.52268796833004],[2.1523634207503735,42.52268796833004],[2.1505667901821344,42.52268796833004],[2.1505667901821344,42.52136382003633],[2.1487701596138953,42.52136382003633],[2.1487701596138953,42.52268796833004],[2.146973529045656,42.52268796833004],[2.145176898477417,42.52268796833004],[2.145176898477417,42.52136382003633],[2.1433802679091785,42.52136382003633],[2.1433802679091785,42.52268796833004],[2.141583637340939,42.52268796833004],[2.141583637340939,42.52401208856042],[2.141583637340939,42.525336180727365],[2.141583637340939,42.52666024483075],[2.1433802679091785,42.52666024483075]]],[[[2.7578279222469306,42.80277361951951],[2.7596245528151697,42.80277361951951],[2.7596245528151697,42.80409178788563],[2.7614211833834093,42.80409178788563],[2.7614211833834093,42.80540992816582],[2.763217813951648,42.80540992816582],[2.763217813951648,42.80672804036011],[2.765014444519887,42.80672804036011],[2.766811075088126,42.80672804036011],[2.768607705656365,42.80672804036011],[2.768607705656365,42.808046124468305],[2.768607705656365,42.809364180490334],[2.7704043362246042,42.809364180490334],[2.7704043362246042,42.81068220842608],[2.7722009667928433,42.81068220842608],[2.7722009667928433,42.8120002082755],[2.7739975973610824,42.8120002082755],[2.7739975973610824,42.81331818003843],[2.7739975973610824,42.81463612371482],[2.7739975973610824,42.81595403930452],[2.775794227929321,42.81595403930452],[2.775794227929321,42.817271926807486],[2.775794227929321,42.818589786223576],[2.775794227929321,42.81990761755273],[2.7775908584975606,42.81990761755273],[2.7775908584975606,42.82122542079483],[2.7775908584975606,42.82254319594976],[2.7793874890657992,42.82254319594976],[2.7793874890657992,42.82386094301744],[2.7811841196340383,42.82386094301744],[2.7811841196340383,42.8251786619978],[2.782980750202278,42.8251786619978],[2.7847773807705165,42.8251786619978],[2.7865740113387556,42.8251786619978],[2.7883706419069942,42.8251786619978],[2.7883706419069942,42.82649635289068],[2.7883706419069942,42.82781401569603],[2.7901672724752338,42.82781401569603],[2.7901672724752338,42.82913165041372],[2.791963903043473,42.82913165041372],[2.7937605336117115,42.82913165041372],[2.7937605336117115,42.830449257043675],[2.795557164179951,42.830449257043675],[2.7973537947481897,42.830449257043675],[2.7973537947481897,42.8317668355858],[2.7991504253164288,42.8317668355858],[2.800947055884668,42.8317668355858],[2.802743686452907,42.8317668355858],[2.802743686452907,42.833084386039964],[2.802743686452907,42.834401908406115],[2.802743686452907,42.83571940268413],[2.804540317021146,42.83571940268413],[2.804540317021146,42.837036868873916],[2.806336947589385,42.837036868873916],[2.808133578157624,42.837036868873916],[2.809930208725863,42.837036868873916],[2.809930208725863,42.83835430697537],[2.8117268392941024,42.83835430697537],[2.8135234698623415,42.83835430697537],[2.81532010043058,42.83835430697537],[2.81532010043058,42.83967171698838],[2.8135234698623415,42.83967171698838],[2.8135234698623415,42.84098909891286],[2.8135234698623415,42.842306452748744],[2.81532010043058,42.842306452748744],[2.81532010043058,42.8436237784959],[2.8171167309988197,42.8436237784959],[2.8189133615670583,42.8436237784959],[2.8189133615670583,42.844941076154235],[2.8207099921352974,42.844941076154235],[2.8225066227035365,42.844941076154235],[2.8225066227035365,42.84625834572364],[2.8207099921352974,42.84625834572364],[2.8207099921352974,42.84757558720404],[2.8189133615670583,42.84757558720404],[2.8171167309988197,42.84757558720404],[2.8171167309988197,42.84625834572364],[2.81532010043058,42.84625834572364],[2.8135234698623415,42.84625834572364],[2.8135234698623415,42.844941076154235],[2.8117268392941024,42.844941076154235],[2.809930208725863,42.844941076154235],[2.809930208725863,42.8436237784959],[2.808133578157624,42.8436237784959],[2.806336947589385,42.8436237784959],[2.806336947589385,42.842306452748744],[2.804540317021146,42.842306452748744],[2.804540317021146,42.8436237784959],[2.804540317021146,42.844941076154235],[2.806336947589385,42.844941076154235],[2.806336947589385,42.84625834572364],[2.808133578157624,42.84625834572364],[2.809930208725863,42.84625834572364],[2.809930208725863,42.84757558720404],[2.809930208725863,42.84889280059536],[2.8117268392941024,42.84889280059536],[2.8135234698623415,42.84889280059536],[2.81532010043058,42.84889280059536],[2.81532010043058,42.85020998589744],[2.8171167309988197,42.85020998589744],[2.8189133615670583,42.85020998589744],[2.8207099921352974,42.85020998589744],[2.8225066227035365,42.85020998589744],[2.8243032532717756,42.85020998589744],[2.8243032532717756,42.85152714311022],[2.8260998838400146,42.85152714311022],[2.8278965144082533,42.85152714311022],[2.829693144976493,42.85152714311022],[2.8314897755447315,42.85152714311022],[2.8314897755447315,42.852844272233604],[2.8332864061129706,42.852844272233604],[2.8332864061129706,42.8541613732675],[2.83508303668121,42.8541613732675],[2.8368796672494487,42.8541613732675],[2.8368796672494487,42.855478446211784],[2.838676297817688,42.855478446211784],[2.840472928385927,42.855478446211784],[2.840472928385927,42.8567954910664],[2.842269558954166,42.8567954910664],[2.844066189522405,42.8567954910664],[2.844066189522405,42.85811250783122],[2.845862820090644,42.85811250783122],[2.845862820090644,42.859429496506124],[2.8476594506588833,42.859429496506124],[2.8476594506588833,42.86074645709108],[2.849456081227122,42.86074645709108],[2.849456081227122,42.86206338958596],[2.851252711795361,42.86206338958596],[2.851252711795361,42.86338029399064],[2.8530493423636,42.86338029399064],[2.854845972931839,42.86338029399064],[2.8566426035000783,42.86338029399064],[2.8584392340683173,42.86338029399064],[2.8584392340683173,42.86206338958596],[2.8566426035000783,42.86206338958596],[2.8566426035000783,42.86074645709108],[2.854845972931839,42.86074645709108],[2.854845972931839,42.859429496506124],[2.8530493423636,42.859429496506124],[2.851252711795361,42.859429496506124],[2.849456081227122,42.859429496506124],[2.849456081227122,42.85811250783122],[2.849456081227122,42.8567954910664],[2.8476594506588833,42.8567954910664],[2.8476594506588833,42.855478446211784],[2.8476594506588833,42.8541613732675],[2.845862820090644,42.8541613732675],[2.845862820090644,42.852844272233604],[2.845862820090644,42.85152714311022],[2.845862820090644,42.85020998589744],[2.8476594506588833,42.85020998589744],[2.8476594506588833,42.84889280059536],[2.849456081227122,42.84889280059536],[2.849456081227122,42.85020998589744],[2.851252711795361,42.85020998589744],[2.8530493423636,42.85020998589744],[2.8530493423636,42.85152714311022],[2.854845972931839,42.85152714311022],[2.854845972931839,42.852844272233604],[2.8566426035000783,42.852844272233604],[2.8566426035000783,42.8541613732675],[2.8584392340683173,42.8541613732675],[2.8584392340683173,42.855478446211784],[2.8602358646365564,42.855478446211784],[2.8602358646365564,42.8567954910664],[2.862032495204795,42.8567954910664],[2.862032495204795,42.855478446211784],[2.862032495204795,42.8541613732675],[2.8602358646365564,42.8541613732675],[2.8602358646365564,42.852844272233604],[2.8584392340683173,42.852844272233604],[2.8584392340683173,42.85152714311022],[2.8602358646365564,42.85152714311022],[2.862032495204795,42.85152714311022],[2.862032495204795,42.852844272233604],[2.8638291257730346,42.852844272233604],[2.8656257563412737,42.852844272233604],[2.8656257563412737,42.8541613732675],[2.8674223869095123,42.8541613732675],[2.8674223869095123,42.855478446211784],[2.869219017477752,42.855478446211784],[2.869219017477752,42.8541613732675],[2.869219017477752,42.852844272233604],[2.8674223869095123,42.852844272233604],[2.8674223869095123,42.85152714311022],[2.8656257563412737,42.85152714311022],[2.8638291257730346,42.85152714311022],[2.8638291257730346,42.85020998589744],[2.862032495204795,42.85020998589744],[2.8602358646365564,42.85020998589744],[2.8602358646365564,42.84889280059536],[2.8584392340683173,42.84889280059536],[2.8584392340683173,42.84757558720404],[2.8566426035000783,42.84757558720404],[2.854845972931839,42.84757558720404],[2.854845972931839,42.84625834572364],[2.8530493423636,42.84625834572364],[2.851252711795361,42.84625834572364],[2.851252711795361,42.844941076154235],[2.8530493423636,42.844941076154235],[2.8530493423636,42.8436237784959],[2.8530493423636,42.842306452748744],[2.8530493423636,42.84098909891286],[2.8530493423636,42.83967171698838],[2.854845972931839,42.83967171698838],[2.854845972931839,42.83835430697537],[2.854845972931839,42.837036868873916],[2.8530493423636,42.837036868873916],[2.851252711795361,42.837036868873916],[2.849456081227122,42.837036868873916],[2.8476594506588833,42.837036868873916],[2.8476594506588833,42.83571940268413],[2.8476594506588833,42.834401908406115],[2.845862820090644,42.834401908406115],[2.844066189522405,42.834401908406115],[2.842269558954166,42.834401908406115],[2.842269558954166,42.833084386039964],[2.840472928385927,42.833084386039964],[2.840472928385927,42.8317668355858],[2.838676297817688,42.8317668355858],[2.838676297817688,42.830449257043675],[2.838676297817688,42.82913165041372],[2.8368796672494487,42.82913165041372],[2.8368796672494487,42.82781401569603],[2.8368796672494487,42.82649635289068],[2.83508303668121,42.82649635289068],[2.83508303668121,42.8251786619978],[2.83508303668121,42.82386094301744],[2.8332864061129706,42.82386094301744],[2.8332864061129706,42.82254319594976],[2.8314897755447315,42.82254319594976],[2.829693144976493,42.82254319594976],[2.8278965144082533,42.82254319594976],[2.8260998838400146,42.82254319594976],[2.8243032532717756,42.82254319594976],[2.8225066227035365,42.82254319594976],[2.8225066227035365,42.82122542079483],[2.8207099921352974,42.82122542079483],[2.8189133615670583,42.82122542079483],[2.8189133615670583,42.81990761755273],[2.8189133615670583,42.818589786223576],[2.8171167309988197,42.818589786223576],[2.8171167309988197,42.817271926807486],[2.81532010043058,42.817271926807486],[2.81532010043058,42.81595403930452],[2.8135234698623415,42.81595403930452],[2.8135234698623415,42.81463612371482],[2.8135234698623415,42.81331818003843],[2.8117268392941024,42.81331818003843],[2.8117268392941024,42.8120002082755],[2.8135234698623415,42.8120002082755],[2.8135234698623415,42.81068220842608],[2.8117268392941024,42.81068220842608],[2.809930208725863,42.81068220842608],[2.809930208725863,42.809364180490334],[2.808133578157624,42.809364180490334],[2.808133578157624,42.808046124468305],[2.808133578157624,42.80672804036011],[2.806336947589385,42.80672804036011],[2.804540317021146,42.80672804036011],[2.802743686452907,42.80672804036011],[2.802743686452907,42.80540992816582],[2.800947055884668,42.80540992816582],[2.800947055884668,42.80409178788563],[2.7991504253164288,42.80409178788563],[2.7973537947481897,42.80409178788563],[2.795557164179951,42.80409178788563],[2.7937605336117115,42.80409178788563],[2.791963903043473,42.80409178788563],[2.791963903043473,42.80277361951951],[2.7901672724752338,42.80277361951951],[2.7883706419069942,42.80277361951951],[2.7883706419069942,42.80145542306765],[2.7865740113387556,42.80145542306765],[2.7865740113387556,42.800137198530116],[2.7847773807705165,42.800137198530116],[2.782980750202278,42.800137198530116],[2.7811841196340383,42.800137198530116],[2.7793874890657992,42.800137198530116],[2.7793874890657992,42.79881894590703],[2.7775908584975606,42.79881894590703],[2.775794227929321,42.79881894590703],[2.775794227929321,42.797500665198456],[2.7739975973610824,42.797500665198456],[2.7722009667928433,42.797500665198456],[2.7722009667928433,42.796182356404515],[2.7704043362246042,42.796182356404515],[2.7704043362246042,42.794864019525306],[2.768607705656365,42.794864019525306],[2.768607705656365,42.79354565456091],[2.766811075088126,42.79354565456091],[2.765014444519887,42.79354565456091],[2.765014444519887,42.794864019525306],[2.763217813951648,42.794864019525306],[2.7614211833834093,42.794864019525306],[2.7596245528151697,42.794864019525306],[2.7596245528151697,42.796182356404515],[2.7596245528151697,42.797500665198456],[2.7578279222469306,42.797500665198456],[2.7578279222469306,42.79881894590703],[2.7578279222469306,42.800137198530116],[2.7578279222469306,42.80145542306765],[2.7578279222469306,42.80277361951951]],[[2.8566426035000783,42.85152714311022],[2.8566426035000783,42.85020998589744],[2.8584392340683173,42.85020998589744],[2.8584392340683173,42.85152714311022],[2.8566426035000783,42.85152714311022]],[[2.8171167309988197,42.82781401569603],[2.8171167309988197,42.82913165041372],[2.81532010043058,42.82913165041372],[2.81532010043058,42.82781401569603],[2.8171167309988197,42.82781401569603]],[[2.8117268392941024,42.833084386039964],[2.8117268392941024,42.834401908406115],[2.8117268392941024,42.83571940268413],[2.809930208725863,42.83571940268413],[2.809930208725863,42.834401908406115],[2.809930208725863,42.833084386039964],[2.809930208725863,42.8317668355858],[2.8117268392941024,42.8317668355858],[2.8117268392941024,42.833084386039964]],[[2.8117268392941024,42.830449257043675],[2.8135234698623415,42.830449257043675],[2.8135234698623415,42.8317668355858],[2.8117268392941024,42.8317668355858],[2.8117268392941024,42.830449257043675]]],[[[2.862032495204795,42.80145542306765],[2.862032495204795,42.80277361951951],[2.862032495204795,42.80409178788563],[2.8638291257730346,42.80409178788563],[2.8638291257730346,42.80540992816582],[2.8656257563412737,42.80540992816582],[2.8674223869095123,42.80540992816582],[2.8674223869095123,42.80672804036011],[2.869219017477752,42.80672804036011],[2.869219017477752,42.808046124468305],[2.8710156480459905,42.808046124468305],[2.8710156480459905,42.809364180490334],[2.8728122786142296,42.809364180490334],[2.8746089091824687,42.809364180490334],[2.8746089091824687,42.81068220842608],[2.876405539750708,42.81068220842608],[2.876405539750708,42.8120002082755],[2.876405539750708,42.81331818003843],[2.876405539750708,42.81463612371482],[2.878202170318947,42.81463612371482],[2.878202170318947,42.81595403930452],[2.878202170318947,42.817271926807486],[2.878202170318947,42.818589786223576],[2.8799988008871855,42.818589786223576],[2.8799988008871855,42.817271926807486],[2.881795431455425,42.817271926807486],[2.8835920620236637,42.817271926807486],[2.885388692591903,42.817271926807486],[2.885388692591903,42.81595403930452],[2.887185323160142,42.81595403930452],[2.888981953728381,42.81595403930452],[2.89077858429662,42.81595403930452],[2.89077858429662,42.81463612371482],[2.89077858429662,42.81331818003843],[2.892575214864859,42.81331818003843],[2.892575214864859,42.8120002082755],[2.89077858429662,42.8120002082755],[2.89077858429662,42.81068220842608],[2.888981953728381,42.81068220842608],[2.887185323160142,42.81068220842608],[2.887185323160142,42.809364180490334],[2.888981953728381,42.809364180490334],[2.888981953728381,42.808046124468305],[2.888981953728381,42.80672804036011],[2.89077858429662,42.80672804036011],[2.89077858429662,42.80540992816582],[2.888981953728381,42.80540992816582],[2.888981953728381,42.80409178788563],[2.887185323160142,42.80409178788563],[2.887185323160142,42.80277361951951],[2.885388692591903,42.80277361951951],[2.8835920620236637,42.80277361951951],[2.8835920620236637,42.80145542306765],[2.881795431455425,42.80145542306765],[2.881795431455425,42.800137198530116],[2.8799988008871855,42.800137198530116],[2.878202170318947,42.800137198530116],[2.878202170318947,42.80145542306765],[2.876405539750708,42.80145542306765],[2.876405539750708,42.800137198530116],[2.8746089091824687,42.800137198530116],[2.8746089091824687,42.79881894590703],[2.8728122786142296,42.79881894590703],[2.8710156480459905,42.79881894590703],[2.8710156480459905,42.797500665198456],[2.869219017477752,42.797500665198456],[2.869219017477752,42.796182356404515],[2.8674223869095123,42.796182356404515],[2.8674223869095123,42.797500665198456],[2.8656257563412737,42.797500665198456],[2.8656257563412737,42.79881894590703],[2.8638291257730346,42.79881894590703],[2.8638291257730346,42.800137198530116],[2.8638291257730346,42.80145542306765],[2.862032495204795,42.80145542306765]]],[[[3.0830180550981976,42.527984280870506],[3.081221424529959,42.527984280870506],[3.0794247939617194,42.527984280870506],[3.0794247939617194,42.52930828884644],[3.081221424529959,42.52930828884644],[3.081221424529959,42.53063226875853],[3.0830180550981976,42.53063226875853],[3.0830180550981976,42.52930828884644],[3.0848146856664367,42.52930828884644],[3.0848146856664367,42.527984280870506],[3.0830180550981976,42.527984280870506]]],[[[2.9069482594107714,42.69194722051122],[2.9051516288425323,42.69194722051122],[2.9051516288425323,42.693267747729664],[2.9033549982742937,42.693267747729664],[2.9033549982742937,42.6945882468708],[2.9051516288425323,42.6945882468708],[2.9069482594107714,42.6945882468708],[2.9069482594107714,42.693267747729664],[2.9069482594107714,42.69194722051122]]],[[[2.8997617371378155,42.69590871793454],[2.8997617371378155,42.6945882468708],[2.8997617371378155,42.693267747729664],[2.8979651065695764,42.693267747729664],[2.8979651065695764,42.69194722051122],[2.896168476001337,42.69194722051122],[2.8943718454330982,42.69194722051122],[2.8943718454330982,42.693267747729664],[2.896168476001337,42.693267747729664],[2.896168476001337,42.6945882468708],[2.896168476001337,42.69590871793454],[2.8979651065695764,42.69590871793454],[2.8997617371378155,42.69590871793454]]],[[[2.930304456797879,42.6945882468708],[2.92850782622964,42.6945882468708],[2.92850782622964,42.69590871793454],[2.926711195661401,42.69590871793454],[2.926711195661401,42.69722916092075],[2.92850782622964,42.69722916092075],[2.930304456797879,42.69722916092075],[2.930304456797879,42.69590871793454],[2.930304456797879,42.6945882468708]]]]}},{"type":"Feature","properties":{"category":"prison"},"geometry":{"type":"Polygon","coordinates":[[[2.869219017477752,42.67874040409741],[2.869219017477752,42.68006121208326],[2.8710156480459905,42.68006121208326],[2.8710156480459905,42.68138199199282],[2.8728122786142296,42.68138199199282],[2.8728122786142296,42.68006121208326],[2.8728122786142296,42.67874040409741],[2.8710156480459905,42.67874040409741],[2.869219017477752,42.67874040409741]]]}}]}
