{"type":"FeatureCollection","features":[{"type":"Feature","properties":{"category":"airport"},"geometry":{"type":"MultiPolygon","coordinates":[[[[-74.10202778701932,45.66734288618964],[-74.10202778701932,45.66859839904942],[-74.10382441758757,45.66859839904942],[-74.10562104815581,45.66859839904942],[-74.10741767872405,45.66859839904942],[-74.10921430929228,45.66859839904942],[-74.11101093986052,45.66859839904942],[-74.11101093986052,45.6698538837483],[-74.11101093986052,45.67110934028629],[-74.11280757042876,45.67110934028629],[-74.11280757042876,45.67236476866345],[-74.11280757042876,45.673620168879765],[-74.11280757042876,45.674875540935304],[-74.11280757042876,45.67613088483008],[-74.11280757042876,45.6773862005641],[-74.11101093986052,45.6773862005641],[-74.11101093986052,45.67864148813744],[-74.10921430929228,45.67864148813744],[-74.10921430929228,45.67989674755007],[-74.10741767872405,45.67989674755007],[-74.10741767872405,45.68115197880207],[-74.10562104815581,45.68115197880207],[-74.10562104815581,45.68240718189347],[-74.10382441758757,45.68240718189347],[-74.10382441758757,45.68366235682428],[-74.10202778701932,45.68366235682428],[-74.10023115645109,45.68366235682428],[-74.10023115645109,45.68491750359451],[-74.09843452588285,45.68491750359451],[-74.09663789531461,45.68491750359451],[-74.09484126474638,45.68491750359451],[-74.09304463417814,45.68491750359451],[-74.09124800360989,45.68491750359451],[-74.08945137304165,45.68491750359451],[-74.08765474247342,45.68491750359451],[-74.08585811190518,45.68491750359451],[-74.08406148133695,45.68491750359451],[-74.0822648507687,45.68491750359451],[-74.0822648507687,45.68366235682428],[-74.08046822020046,45.68366235682428],[-74.07867158963222,45.68366235682428],[-74.07687495906397,45.68366235682428],[-74.07507832849574,45.68366235682428],[-74.0732816979275,45.68366235682428],[-74.07148506735926,45.68366235682428],[-74.06968843679101,45.68366235682428],[-74.06968843679101,45.68240718189347],[-74.06789180622278,45.68240718189347],[-74.06609517565454,45.68240718189347],[-74.0642985450863,45.68240718189347],[-74.06250191451807,45.68240718189347],[-74.06070528394983,45.68240718189347],[-74.05890865338158,45.68240718189347],[-74.05711202281334,45.68240718189347],[-74.0553153922451,45.68240718189347],[-74.05351876167687,45.68240718189347],[-74.05172213110863,45.68240718189347],[-74.0499255005404,45.68240718189347],[-74.0499255005404,45.68115197880207],[-74.04812886997215,45.68115197880207],[-74.04633223940391,45.68115197880207],[-74.04453560883567,45.68115197880207],[-74.04273897826744,45.68115197880207],[-74.0409423476992,45.68115197880207],[-74.03914571713096,45.68115197880207],[-74.03734908656271,45.68115197880207],[-74.03555245599448,45.68115197880207],[-74.03375582542624,45.68115197880207],[-74.031959194858,45.68115197880207],[-74.03016256428977,45.68115197880207],[-74.03016256428977,45.68240718189347],[-74.02836593372153,45.68240718189347],[-74.02836593372153,45.68366235682428],[-74.02656930315328,45.68366235682428],[-74.02477267258504,45.68366235682428],[-74.02297604201681,45.68366235682428],[-74.02297604201681,45.68491750359451],[-74.02297604201681,45.68617262220421],[-74.02477267258504,45.68617262220421],[-74.02477267258504,45.68742771265344],[-74.02297604201681,45.68742771265344],[-74.02297604201681,45.68868277494219],[-74.02117941144857,45.68868277494219],[-74.02117941144857,45.68993780907048],[-74.01938278088033,45.68993780907048],[-74.01938278088033,45.69119281503837],[-74.0175861503121,45.69119281503837],[-74.01578951974385,45.69119281503837],[-74.01399288917561,45.69119281503837],[-74.01219625860737,45.69119281503837],[-74.01219625860737,45.68993780907048],[-74.01039962803914,45.68993780907048],[-74.01039962803914,45.68868277494219],[-74.01219625860737,45.68868277494219],[-74.01219625860737,45.68742771265344],[-74.01399288917561,45.68742771265344],[-74.01399288917561,45.68617262220421],[-74.01219625860737,45.68617262220421],[-74.01039962803914,45.68617262220421],[-74.0086029974709,45.68617262220421],[-74.0086029974709,45.68742771265344],[-74.00680636690267,45.68742771265344],[-74.00680636690267,45.68868277494219],[-74.00500973633442,45.68868277494219],[-74.00500973633442,45.68993780907048],[-74.00321310576618,45.68993780907048],[-74.00321310576618,45.69119281503837],[-74.00141647519794,45.69119281503837],[-73.9996198446297,45.69119281503837],[-73.9996198446297,45.69244779284589],[-73.99782321406147,45.69244779284589],[-73.99782321406147,45.69370274249305],[-73.99602658349323,45.69370274249305],[-73.99602658349323,45.694957663979885],[-73.99422995292498,45.694957663979885],[-73.99422995292498,45.69621255730645],[-73.99243332235675,45.69621255730645],[-73.99243332235675,45.69746742247274],[-73.99063669178851,45.69746742247274],[-73.99063669178851,45.69872225947878],[-73.98884006122027,45.69872225947878],[-73.98884006122027,45.69997706832464],[-73.98704343065204,45.69997706832464],[-73.98704343065204,45.701231849010334],[-73.9852468000838,45.701231849010334],[-73.9852468000838,45.70248660153588],[-73.98345016951555,45.70248660153588],[-73.98345016951555,45.703741325901305],[-73.98165353894731,45.703741325901305],[-73.98165353894731,45.70248660153588],[-73.97985690837908,45.70248660153588],[-73.97985690837908,45.701231849010334],[-73.97806027781083,45.701231849010334],[-73.97806027781083,45.69997706832464],[-73.97626364724259,45.69997706832464],[-73.97626364724259,45.69872225947878],[-73.97626364724259,45.69746742247274],[-73.97626364724259,45.69621255730645],[-73.97806027781083,45.69621255730645],[-73.97806027781083,45.694957663979885],[-73.97985690837908,45.694957663979885],[-73.97985690837908,45.69370274249305],[-73.98165353894731,45.69370274249305],[-73.98165353894731,45.69244779284589],[-73.98345016951555,45.69244779284589],[-73.98345016951555,45.69119281503837],[-73.9852468000838,45.69119281503837],[-73.9852468000838,45.68993780907048],[-73.98704343065204,45.68993780907048],[-73.98704343065204,45.68868277494219],[-73.98884006122027,45.68868277494219],[-73.98884006122027,45.68742771265344],[-73.99063669178851,45.68742771265344],[-73.99063669178851,45.68617262220421],[-73.99243332235675,45.68617262220421],[-73.99243332235675,45.68491750359451],[-73.99422995292498,45.68491750359451],[-73.99422995292498,45.68366235682428],[-73.99602658349323,45.68366235682428],[-73.99602658349323,45.68240718189347],[-73.99782321406147,45.68240718189347],[-73.99782321406147,45.68115197880207],[-73.9996198446297,45.68115197880207],[-73.9996198446297,45.67989674755007],[-74.00141647519794,45.67989674755007],[-74.00141647519794,45.67864148813744],[-74.00321310576618,45.67864148813744],[-74.00321310576618,45.6773862005641],[-74.00500973633442,45.6773862005641],[-74.00500973633442,45.67613088483008],[-74.00680636690267,45.67613088483008],[-74.00680636690267,45.674875540935304],[-74.0086029974709,45.674875540935304],[-74.0086029974709,45.673620168879765],[-74.01039962803914,45.673620168879765],[-74.01039962803914,45.67236476866345],[-74.01219625860737,45.67236476866345],[-74.01219625860737,45.67110934028629],[-74.01399288917561,45.67110934028629],[-74.01399288917561,45.6698538837483],[-74.01578951974385,45.6698538837483],[-74.01578951974385,45.66859839904942],[-74.0175861503121,45.66859839904942],[-74.0175861503121,45.66734288618964],[-74.0175861503121,45.66608734516894],[-74.01938278088033,45.66608734516894],[-74.01938278088033,45.66483177598725],[-74.02117941144857,45.66483177598725],[-74.02117941144857,45.66357617864458],[-74.02297604201681,45.66357617864458],[-74.02297604201681,45.66232055314087],[-74.02297604201681,45.66106489947612],[-74.02477267258504,45.66106489947612],[-74.02477267258504,45.659809217650285],[-74.02656930315328,45.659809217650285],[-74.02656930315328,45.658553507663356],[-74.02836593372153,45.658553507663356],[-74.03016256428977,45.658553507663356],[-74.03016256428977,45.659809217650285],[-74.031959194858,45.659809217650285],[-74.03375582542624,45.659809217650285],[-74.03555245599448,45.659809217650285],[-74.03734908656271,45.659809217650285],[-74.03734908656271,45.66106489947612],[-74.03914571713096,45.66106489947612],[-74.0409423476992,45.66106489947612],[-74.04273897826744,45.66106489947612],[-74.04273897826744,45.66232055314087],[-74.04453560883567,45.66232055314087],[-74.04633223940391,45.66232055314087],[-74.04812886997215,45.66232055314087],[-74.0499255005404,45.66232055314087],[-74.05172213110863,45.66232055314087],[-74.05351876167687,45.66232055314087],[-74.05351876167687,45.66357617864458],[-74.0553153922451,45.66357617864458],[-74.05711202281334,45.66357617864458],[-74.05890865338158,45.66357617864458],[-74.06070528394983,45.66357617864458],[-74.06250191451807,45.66357617864458],[-74.0642985450863,45.66357617864458],[-74.06609517565454,45.66357617864458],[-74.06609517565454,45.66483177598725],[-74.06789180622278,45.66483177598725],[-74.06968843679101,45.66483177598725],[-74.07148506735926,45.66483177598725],[-74.0732816979275,45.66483177598725],[-74.07507832849574,45.66483177598725],[-74.07687495906397,45.66483177598725],[-74.07867158963222,45.66483177598725],[-74.07867158963222,45.66608734516894],[-74.08046822020046,45.66608734516894],[-74.0822648507687,45.66608734516894],[-74.08406148133695,45.66608734516894],[-74.08585811190518,45.66608734516894],[-74.08765474247342,45.66608734516894],[-74.08945137304165,45.66608734516894],[-74.09124800360989,45.66608734516894],[-74.09124800360989,45.66734288618964],[-74.09304463417814,45.66734288618964],[-74.09484126474638,45.66734288618964],[-74.09663789531461,45.66734288618964],[-74.09843452588285,45.66734288618964],[-74.10023115645109,45.66734288618964],[-74.10202778701932,45.66734288618964]]],[[[-73.7786342847363,45.458537392494634],[-73.7786342847363,45.457277176401064],[-73.78043091530454,45.457277176401064],[-73.78043091530454,45.458537392494634],[-73.78043091530454,45.45979758042322],[-73.78222754587277,45.45979758042322],[-73.78222754587277,45.46105774018688],[-73.78222754587277,45.46231787178559],[-73.78222754587277,45.46357797521938],[-73.78222754587277,45.4648380504883],[-73.78043091530454,45.4648380504883],[-73.78043091530454,45.46609809759233],[-73.78043091530454,45.46735811653151],[-73.7786342847363,45.46735811653151],[-73.7786342847363,45.468618107305865],[-73.77683765416805,45.468618107305865],[-73.77504102359981,45.468618107305865],[-73.77504102359981,45.46735811653151],[-73.77504102359981,45.46609809759233],[-73.77324439303158,45.46609809759233],[-73.77144776246334,45.46609809759233],[-73.7696511318951,45.46609809759233],[-73.7696511318951,45.46735811653151],[-73.76785450132685,45.46735811653151],[-73.76605787075862,45.46735811653151],[-73.76426124019038,45.46735811653151],[-73.76246460962214,45.46735811653151],[-73.76246460962214,45.468618107305865],[-73.76246460962214,45.46987806991541],[-73.7606679790539,45.46987806991541],[-73.7606679790539,45.47113800436015],[-73.75887134848567,45.47113800436015],[-73.75887134848567,45.47239791064014],[-73.75707471791742,45.47239791064014],[-73.75707471791742,45.473657788755375],[-73.75527808734918,45.473657788755375],[-73.75527808734918,45.47491763870588],[-73.75348145678095,45.47491763870588],[-73.75348145678095,45.47617746049169],[-73.75168482621271,45.47617746049169],[-73.75168482621271,45.47743725411279],[-73.74988819564447,45.47743725411279],[-73.74809156507624,45.47743725411279],[-73.74629493450799,45.47743725411279],[-73.74629493450799,45.478697019569246],[-73.74449830393975,45.478697019569246],[-73.74449830393975,45.47995675686103],[-73.74270167337151,45.47995675686103],[-73.74270167337151,45.4812164659882],[-73.74090504280328,45.4812164659882],[-73.74090504280328,45.48247614695075],[-73.74090504280328,45.48373579974875],[-73.73910841223504,45.48373579974875],[-73.73910841223504,45.48499542438215],[-73.7373117816668,45.48499542438215],[-73.7373117816668,45.486255020851026],[-73.73551515109855,45.486255020851026],[-73.73551515109855,45.487514589155374],[-73.73371852053032,45.487514589155374],[-73.73192188996208,45.487514589155374],[-73.73192188996208,45.486255020851026],[-73.73012525939384,45.486255020851026],[-73.73012525939384,45.48499542438215],[-73.72832862882561,45.48499542438215],[-73.72832862882561,45.48373579974875],[-73.72653199825737,45.48373579974875],[-73.72653199825737,45.48247614695075],[-73.72473536768914,45.48247614695075],[-73.72293873712088,45.48247614695075],[-73.72293873712088,45.4812164659882],[-73.72114210655265,45.4812164659882],[-73.72114210655265,45.47995675686103],[-73.71934547598441,45.47995675686103],[-73.71754884541618,45.47995675686103],[-73.71754884541618,45.4812164659882],[-73.71575221484794,45.4812164659882],[-73.7139555842797,45.4812164659882],[-73.71215895371145,45.4812164659882],[-73.71215895371145,45.47995675686103],[-73.71036232314322,45.47995675686103],[-73.71036232314322,45.478697019569246],[-73.71215895371145,45.478697019569246],[-73.71215895371145,45.47743725411279],[-73.7139555842797,45.47743725411279],[-73.7139555842797,45.47617746049169],[-73.7139555842797,45.47491763870588],[-73.71215895371145,45.47491763870588],[-73.71215895371145,45.473657788755375],[-73.7139555842797,45.473657788755375],[-73.7139555842797,45.47239791064014],[-73.71575221484794,45.47239791064014],[-73.71575221484794,45.47113800436015],[-73.71575221484794,45.46987806991541],[-73.71754884541618,45.46987806991541],[-73.71754884541618,45.468618107305865],[-73.71934547598441,45.468618107305865],[-73.71934547598441,45.46735811653151],[-73.72114210655265,45.46735811653151],[-73.72114210655265,45.468618107305865],[-73.72293873712088,45.468618107305865],[-73.72293873712088,45.46735811653151],[-73.72473536768914,45.46735811653151],[-73.72653199825737,45.46735811653151],[-73.72653199825737,45.46609809759233],[-73.72832862882561,45.46609809759233],[-73.72832862882561,45.4648380504883],[-73.73012525939384,45.4648380504883],[-73.73012525939384,45.46357797521938],[-73.73012525939384,45.46231787178559],[-73.73192188996208,45.46231787178559],[-73.73192188996208,45.46105774018688],[-73.73371852053032,45.46105774018688],[-73.73371852053032,45.45979758042322],[-73.73192188996208,45.45979758042322],[-73.73192188996208,45.458537392494634],[-73.73371852053032,45.458537392494634],[-73.73371852053032,45.457277176401064],[-73.73551515109855,45.457277176401064],[-73.7373117816668,45.457277176401064],[-73.73910841223504,45.457277176401064],[-73.73910841223504,45.45601693214251],[-73.74090504280328,45.45601693214251],[-73.74090504280328,45.454756659718946],[-73.74270167337151,45.454756659718946],[-73.74270167337151,45.45349635913038],[-73.74270167337151,45.452236030376724],[-73.74270167337151,45.45097567345801],[-73.74449830393975,45.45097567345801],[-73.74629493450799,45.45097567345801],[-73.74629493450799,45.449715288374215],[-73.74809156507624,45.449715288374215],[-73.74988819564447,45.449715288374215],[-73.75168482621271,45.449715288374215],[-73.75348145678095,45.449715288374215],[-73.75527808734918,45.449715288374215],[-73.75707471791742,45.449715288374215],[-73.75887134848567,45.449715288374215],[-73.7606679790539,45.449715288374215],[-73.7606679790539,45.45097567345801],[-73.76246460962214,45.45097567345801],[-73.76246460962214,45.452236030376724],[-73.76246460962214,45.45349635913038],[-73.76246460962214,45.454756659718946],[-73.76246460962214,45.45601693214251],[-73.76426124019038,45.45601693214251],[-73.76426124019038,45.457277176401064],[-73.76605787075862,45.457277176401064],[-73.76785450132685,45.457277176401064],[-73.76785450132685,45.45601693214251],[-73.7696511318951,45.45601693214251],[-73.7696511318951,45.454756659718946],[-73.77144776246334,45.454756659718946],[-73.77144776246334,45.45601693214251],[-73.77324439303158,45.45601693214251],[-73.77324439303158,45.457277176401064],[-73.77324439303158,45.458537392494634],[-73.77324439303158,45.45979758042322],[-73.77504102359981,45.45979758042322],[-73.77504102359981,45.458537392494634],[-73.77683765416805,45.458537392494634],[-73.7786342847363,45.458537392494634]],[[-73.71754884541618,45.478697019569246],[-73.71575221484794,45.478697019569246],[-73.71575221484794,45.47995675686103],[-73.71754884541618,45.47995675686103],[-73.71754884541618,45.478697019569246]]],[[[-73.58100492223,45.68742771265344],[-73.58100492223,45.68868277494219],[-73.58100492223,45.68993780907048],[-73.58280155279824,45.68993780907048],[-73.58280155279824,45.69119281503837],[-73.58280155279824,45.69244779284589],[-73.58100492223,45.69244779284589],[-73.57920829166176,45.69244779284589],[-73.57920829166176,45.69119281503837],[-73.57920829166176,45.68993780907048],[-73.57920829166176,45.68868277494219],[-73.57920829166176,45.68742771265344],[-73.57920829166176,45.68617262220421],[-73.57920829166176,45.68491750359451],[-73.57920829166176,45.68366235682428],[-73.57920829166176,45.68240718189347],[-73.57920829166176,45.68115197880207],[-73.57920829166176,45.67989674755007],[-73.58100492223,45.67989674755007],[-73.58100492223,45.68115197880207],[-73.58100492223,45.68240718189347],[-73.58100492223,45.68366235682428],[-73.58100492223,45.68491750359451],[-73.58100492223,45.68617262220421],[-73.58100492223,45.68742771265344]]]]}},{"type":"Feature","properties":{"category":"military"},"geometry":{"type":"MultiPolygon","coordinates":[[[[-73.85588939917058,45.68993780907048],[-73.85588939917058,45.69119281503837],[-73.85768602973882,45.69119281503837],[-73.85768602973882,45.69244779284589],[-73.85948266030705,45.69244779284589],[-73.85948266030705,45.69370274249305],[-73.86127929087529,45.69370274249305],[-73.86127929087529,45.694957663979885],[-73.86307592144352,45.694957663979885],[-73.86307592144352,45.69621255730645],[-73.86307592144352,45.69746742247274],[-73.86127929087529,45.69746742247274],[-73.86127929087529,45.69872225947878],[-73.85948266030705,45.69872225947878],[-73.85768602973882,45.69872225947878],[-73.85768602973882,45.69997706832464],[-73.85588939917058,45.69997706832464],[-73.85409276860233,45.69997706832464],[-73.85409276860233,45.701231849010334],[-73.85229613803409,45.701231849010334],[-73.85229613803409,45.70248660153588],[-73.85049950746586,45.70248660153588],[-73.85049950746586,45.703741325901305],[-73.84870287689762,45.703741325901305],[-73.84870287689762,45.704996022106656],[-73.84870287689762,45.706250690151954],[-73.84870287689762,45.70750533003724],[-73.85049950746586,45.70750533003724],[-73.85049950746586,45.70875994176253],[-73.85049950746586,45.71001452532788],[-73.84870287689762,45.71001452532788],[-73.84870287689762,45.70875994176253],[-73.84690624632938,45.70875994176253],[-73.84690624632938,45.71001452532788],[-73.84510961576115,45.71001452532788],[-73.84510961576115,45.71126908073328],[-73.8433129851929,45.71126908073328],[-73.84151635462466,45.71126908073328],[-73.83971972405642,45.71126908073328],[-73.83792309348819,45.71126908073328],[-73.83792309348819,45.71001452532788],[-73.83612646291995,45.71001452532788],[-73.83432983235171,45.71001452532788],[-73.83253320178346,45.71001452532788],[-73.83073657121523,45.71001452532788],[-73.82893994064699,45.71001452532788],[-73.82893994064699,45.70875994176253],[-73.82893994064699,45.70750533003724],[-73.82893994064699,45.706250690151954],[-73.82893994064699,45.704996022106656],[-73.82893994064699,45.703741325901305],[-73.82893994064699,45.70248660153588],[-73.83073657121523,45.70248660153588],[-73.83073657121523,45.701231849010334],[-73.83073657121523,45.69997706832464],[-73.83073657121523,45.69872225947878],[-73.83073657121523,45.69746742247274],[-73.83073657121523,45.69621255730645],[-73.83073657121523,45.694957663979885],[-73.83253320178346,45.694957663979885],[-73.83253320178346,45.69370274249305],[-73.83253320178346,45.69244779284589],[-73.83253320178346,45.69119281503837],[-73.83432983235171,45.69119281503837],[-73.83432983235171,45.68993780907048],[-73.83612646291995,45.68993780907048],[-73.83612646291995,45.68868277494219],[-73.83792309348819,45.68868277494219],[-73.83792309348819,45.68742771265344],[-73.83971972405642,45.68742771265344],[-73.83971972405642,45.68617262220421],[-73.84151635462466,45.68617262220421],[-73.84151635462466,45.68491750359451],[-73.8433129851929,45.68491750359451],[-73.84510961576115,45.68491750359451],[-73.84510961576115,45.68617262220421],[-73.84690624632938,45.68617262220421],[-73.84870287689762,45.68617262220421],[-73.85049950746586,45.68617262220421],[-73.85049950746586,45.68742771265344],[-73.85229613803409,45.68742771265344],[-73.85229613803409,45.68868277494219],[-73.85409276860233,45.68868277494219],[-73.85409276860233,45.68993780907048],[-73.85588939917058,45.68993780907048]]],[[[-73.53429252745579,45.5730991610853],[-73.53429252745579,45.57435678609146],[-73.53429252745579,45.57561438293469],[-73.53429252745579,45.576871951615026],[-73.53249589688755,45.576871951615026],[-73.53249589688755,45.57812949213249],[-73.53249589688755,45.57938700448713],[-73.53249589688755,45.580644488678914],[-73.53069926631932,45.580644488678914],[-73.52890263575107,45.580644488678914],[-73.52890263575107,45.57938700448713],[-73.52890263575107,45.57812949213249],[-73.52710600518283,45.57812949213249],[-73.52710600518283,45.57938700448713],[-73.52710600518283,45.580644488678914],[-73.5253093746146,45.580644488678914],[-73.52351274404636,45.580644488678914],[-73.52351274404636,45.57938700448713],[-73.52171611347812,45.57938700448713],[-73.51991948290988,45.57938700448713],[-73.51991948290988,45.57812949213249],[-73.51812285234163,45.57812949213249],[-73.5163262217734,45.57812949213249],[-73.5163262217734,45.576871951615026],[-73.5163262217734,45.57561438293469],[-73.51812285234163,45.57561438293469],[-73.51812285234163,45.57435678609146],[-73.51812285234163,45.5730991610853],[-73.51991948290988,45.5730991610853],[-73.51991948290988,45.57184150791623],[-73.52171611347812,45.57184150791623],[-73.52171611347812,45.5730991610853],[-73.52351274404636,45.5730991610853],[-73.5253093746146,45.5730991610853],[-73.5253093746146,45.57435678609146],[-73.52710600518283,45.57435678609146],[-73.52710600518283,45.5730991610853],[-73.52710600518283,45.57184150791623],[-73.52890263575107,45.57184150791623],[-73.53069926631932,45.57184150791623],[-73.53069926631932,45.5730991610853],[-73.53249589688755,45.5730991610853],[-73.53429252745579,45.5730991610853]],[[-73.52890263575107,45.57561438293469],[-73.52890263575107,45.576871951615026],[-73.53069926631932,45.576871951615026],[-73.53069926631932,45.57561438293469],[-73.53069926631932,45.57435678609146],[-73.52890263575107,45.57435678609146],[-73.52890263575107,45.57561438293469]]],[[[-73.78402417644102,45.69370274249305],[-73.78222754587277,45.69370274249305],[-73.78222754587277,45.694957663979885],[-73.78043091530454,45.694957663979885],[-73.78043091530454,45.69621255730645],[-73.7786342847363,45.69621255730645],[-73.7786342847363,45.694957663979885],[-73.77683765416805,45.694957663979885],[-73.77683765416805,45.69370274249305],[-73.77504102359981,45.69370274249305],[-73.77504102359981,45.69244779284589],[-73.77504102359981,45.69119281503837],[-73.77324439303158,45.69119281503837],[-73.77324439303158,45.68993780907048],[-73.77144776246334,45.68993780907048],[-73.77144776246334,45.68868277494219],[-73.77324439303158,45.68868277494219],[-73.77324439303158,45.68742771265344],[-73.77504102359981,45.68742771265344],[-73.77683765416805,45.68742771265344],[-73.7786342847363,45.68742771265344],[-73.7786342847363,45.68868277494219],[-73.78043091530454,45.68868277494219],[-73.78043091530454,45.68993780907048],[-73.78043091530454,45.69119281503837],[-73.78222754587277,45.69119281503837],[-73.78222754587277,45.69244779284589],[-73.78402417644102,45.69244779284589],[-73.78402417644102,45.69370274249305]]]]}},{"type":"Feature","properties":{"category":"prison"},"geometry":{"type":"MultiPolygon","coordinates":[[[[-73.6546667755278,45.619612530005654],[-73.65287014495956,45.619612530005654],[-73.65287014495956,45.61835591884856],[-73.65287014495956,45.61709927952943],[-73.6546667755278,45.61709927952943],[-73.6546667755278,45.61584261204824],[-73.65646340609604,45.61584261204824],[-73.65646340609604,45.61709927952943],[-73.65826003666427,45.61709927952943],[-73.65826003666427,45.61835591884856],[-73.65826003666427,45.619612530005654],[-73.65646340609604,45.619612530005654],[-73.6546667755278,45.619612530005654]]],[[[-73.6456836226866,45.62338219450517],[-73.64388699211837,45.62338219450517],[-73.64388699211837,45.622125667833956],[-73.64209036155013,45.622125667833956],[-73.64209036155013,45.62086911300079],[-73.64388699211837,45.62086911300079],[-73.64388699211837,45.619612530005654],[-73.6456836226866,45.619612530005654],[-73.64748025325484,45.619612530005654],[-73.64748025325484,45.62086911300079],[-73.6456836226866,45.62086911300079],[-73.6456836226866,45.622125667833956],[-73.6456836226866,45.62338219450517]]],[[[-73.53788578859226,45.66106489947612],[-73.53608915802403,45.66106489947612],[-73.53608915802403,45.66232055314087],[-73.53429252745579,45.66232055314087],[-73.53429252745579,45.66106489947612],[-73.53249589688755,45.66106489947612],[-73.53249589688755,45.659809217650285],[-73.53429252745579,45.659809217650285],[-73.53608915802403,45.659809217650285],[-73.53608915802403,45.658553507663356],[-73.53788578859226,45.658553507663356],[-73.53788578859226,45.659809217650285],[-73.5396824191605,45.659809217650285],[-73.5396824191605,45.66106489947612],[-73.53788578859226,45.66106489947612]]]]}}]}
