{"type":"FeatureCollection","features":[{"type":"Feature","properties":{"category":"airport"},"geometry":{"type":"MultiPolygon","coordinates":[[[[2.051752108928987,42.91077014369318],[2.051752108928987,42.91208600869404],[2.0499554783607477,42.91208600869404],[2.0499554783607477,42.913401845601136],[2.051752108928987,42.913401845601136],[2.0535487394972263,42.913401845601136],[2.0535487394972263,42.91208600869404],[2.055345370065465,42.91208600869404],[2.055345370065465,42.91077014369318],[2.0571420006337044,42.91077014369318],[2.0571420006337044,42.90945425059861],[2.0571420006337044,42.9081383294104],[2.055345370065465,42.9081383294104],[2.055345370065465,42.90945425059861],[2.0535487394972263,42.90945425059861],[2.0535487394972263,42.91077014369318],[2.051752108928987,42.91077014369318]]],[[[2.292500605073019,43.21922578632497],[2.294297235641258,43.21922578632497],[2.2960938662094965,43.21922578632497],[2.297890496777736,43.21922578632497],[2.299687127345975,43.21922578632497],[2.301483757914214,43.21922578632497],[2.301483757914214,43.21791649771199],[2.3032803884824533,43.21791649771199],[2.305077019050692,43.21791649771199],[2.305077019050692,43.21922578632497],[2.306873649618931,43.21922578632497],[2.306873649618931,43.21791649771199],[2.30867028018717,43.21791649771199],[2.310466910755409,43.21791649771199],[2.3122635413236483,43.21791649771199],[2.3122635413236483,43.21660718098489],[2.3140601718918874,43.21660718098489],[2.3158568024601265,43.21660718098489],[2.317653433028365,43.21660718098489],[2.3194500635966047,43.21660718098489],[2.3194500635966047,43.21529783614379],[2.3194500635966047,43.21398846318876],[2.317653433028365,43.21398846318876],[2.317653433028365,43.21267906211986],[2.3158568024601265,43.21267906211986],[2.3140601718918874,43.21267906211986],[2.3140601718918874,43.21398846318876],[2.3122635413236483,43.21398846318876],[2.3122635413236483,43.21267906211986],[2.310466910755409,43.21267906211986],[2.310466910755409,43.21398846318876],[2.30867028018717,43.21398846318876],[2.306873649618931,43.21398846318876],[2.305077019050692,43.21398846318876],[2.3032803884824533,43.21398846318876],[2.301483757914214,43.21398846318876],[2.301483757914214,43.21529783614379],[2.299687127345975,43.21529783614379],[2.297890496777736,43.21529783614379],[2.2960938662094965,43.21529783614379],[2.294297235641258,43.21529783614379],[2.294297235641258,43.21660718098489],[2.292500605073019,43.21660718098489],[2.292500605073019,43.21791649771199],[2.292500605073019,43.21922578632497]]],[[[1.9170048163110587,43.31211341330882],[1.9188014468792978,43.31211341330882],[1.920598077447537,43.31211341330882],[1.922394708015776,43.31211341330882],[1.922394708015776,43.3108061209975],[1.9241913385840148,43.3108061209975],[1.9259879691522541,43.3108061209975],[1.927784599720493,43.3108061209975],[1.927784599720493,43.30949880056656],[1.9259879691522541,43.30949880056656],[1.9259879691522541,43.308191452016054],[1.9241913385840148,43.308191452016054],[1.9241913385840148,43.30949880056656],[1.922394708015776,43.30949880056656],[1.920598077447537,43.30949880056656],[1.9188014468792978,43.30949880056656],[1.9188014468792978,43.308191452016054],[1.9170048163110587,43.308191452016054],[1.9170048163110587,43.30949880056656],[1.9170048163110587,43.3108061209975],[1.9170048163110587,43.31211341330882]]],[[[1.9852767779041425,43.40746979588609],[1.9834801473359034,43.40746979588609],[1.9834801473359034,43.40877500713906],[1.9852767779041425,43.40877500713906],[1.9870734084723813,43.40877500713906],[1.9870734084723813,43.40746979588609],[1.9888700390406207,43.40746979588609],[1.9906666696088595,43.40746979588609],[1.9906666696088595,43.40616455650808],[1.9888700390406207,43.40616455650808],[1.9870734084723813,43.40616455650808],[1.9852767779041425,43.40616455650808],[1.9852767779041425,43.40746979588609]]],[[[2.7272852025868675,43.17207368495239],[2.725488572018628,43.17207368495239],[2.725488572018628,43.1733839575107],[2.725488572018628,43.174694201957664],[2.725488572018628,43.1760044182932],[2.7272852025868675,43.1760044182932],[2.729081833155106,43.1760044182932],[2.729081833155106,43.17731460651722],[2.730878463723345,43.17731460651722],[2.7326750942915843,43.17731460651722],[2.7344717248598234,43.17731460651722],[2.7362683554280625,43.17731460651722],[2.7380649859963015,43.17731460651722],[2.7398616165645406,43.17731460651722],[2.7398616165645406,43.1760044182932],[2.7416582471327793,43.1760044182932],[2.7416582471327793,43.174694201957664],[2.7416582471327793,43.1733839575107],[2.7398616165645406,43.1733839575107],[2.7398616165645406,43.17207368495239],[2.7380649859963015,43.17207368495239],[2.7362683554280625,43.17207368495239],[2.7344717248598234,43.17207368495239],[2.7326750942915843,43.17207368495239],[2.7326750942915843,43.170763384282864],[2.730878463723345,43.170763384282864],[2.730878463723345,43.16945305550212],[2.729081833155106,43.16945305550212],[2.729081833155106,43.170763384282864],[2.729081833155106,43.17207368495239],[2.7272852025868675,43.17207368495239]]],[[[3.048882074301656,43.19303467247862],[3.0470854437334167,43.19303467247862],[3.0470854437334167,43.19434449524566],[3.0470854437334167,43.195654289900055],[3.048882074301656,43.195654289900055],[3.050678704869895,43.195654289900055],[3.050678704869895,43.19434449524566],[3.052475335438134,43.19434449524566],[3.054271966006373,43.19434449524566],[3.0560685965746117,43.19434449524566],[3.0560685965746117,43.19303467247862],[3.0560685965746117,43.19172482159901],[3.054271966006373,43.19172482159901],[3.052475335438134,43.19172482159901],[3.050678704869895,43.19172482159901],[3.048882074301656,43.19172482159901],[3.048882074301656,43.19303467247862]]]]}},{"type":"Feature","properties":{"category":"military"},"geometry":{"type":"MultiPolygon","coordinates":[[[[1.9637172110852739,43.128818920607756],[1.9619205805170348,43.128818920607756],[1.960123949948796,43.128818920607756],[1.9583273193805566,43.128818920607756],[1.9583273193805566,43.13013012079382],[1.9583273193805566,43.13144129287129],[1.960123949948796,43.13144129287129],[1.960123949948796,43.13275243684008],[1.9583273193805566,43.13275243684008],[1.9583273193805566,43.13406355270013],[1.9565306888123177,43.13406355270013],[1.9565306888123177,43.13537464045129],[1.9565306888123177,43.13668570009353],[1.9565306888123177,43.137996731626735],[1.9565306888123177,43.13930773505086],[1.9583273193805566,43.13930773505086],[1.960123949948796,43.13930773505086],[1.960123949948796,43.137996731626735],[1.9619205805170348,43.137996731626735],[1.9619205805170348,43.13668570009353],[1.9637172110852739,43.13668570009353],[1.9637172110852739,43.13537464045129],[1.9655138416535132,43.13537464045129],[1.967310472221752,43.13537464045129],[1.969107102789991,43.13537464045129],[1.9709037333582302,43.13537464045129],[1.972700363926469,43.13537464045129],[1.9744969944947082,43.13537464045129],[1.9744969944947082,43.13406355270013],[1.9744969944947082,43.13275243684008],[1.9744969944947082,43.13144129287129],[1.9762936250629475,43.13144129287129],[1.9762936250629475,43.13013012079382],[1.9744969944947082,43.13013012079382],[1.9744969944947082,43.128818920607756],[1.972700363926469,43.128818920607756],[1.972700363926469,43.12750769231317],[1.972700363926469,43.12619643591017],[1.9709037333582302,43.12619643591017],[1.969107102789991,43.12619643591017],[1.969107102789991,43.12750769231317],[1.967310472221752,43.12750769231317],[1.9655138416535132,43.12750769231317],[1.9637172110852739,43.12750769231317],[1.9637172110852739,43.128818920607756]]],[[[1.922394708015776,43.391805067115925],[1.922394708015776,43.393110615864956],[1.920598077447537,43.393110615864956],[1.920598077447537,43.39441613648972],[1.9188014468792978,43.39441613648972],[1.9188014468792978,43.3957216289901],[1.9188014468792978,43.3970270933661],[1.920598077447537,43.3970270933661],[1.920598077447537,43.39833252961758],[1.922394708015776,43.39833252961758],[1.9241913385840148,43.39833252961758],[1.9241913385840148,43.3970270933661],[1.9259879691522541,43.3970270933661],[1.927784599720493,43.3970270933661],[1.927784599720493,43.3957216289901],[1.929581230288732,43.3957216289901],[1.929581230288732,43.39441613648972],[1.9313778608569714,43.39441613648972],[1.9313778608569714,43.393110615864956],[1.9331744914252103,43.393110615864956],[1.9331744914252103,43.391805067115925],[1.9349711219934491,43.391805067115925],[1.9367677525616884,43.391805067115925],[1.9367677525616884,43.390499490242696],[1.9349711219934491,43.390499490242696],[1.9331744914252103,43.390499490242696],[1.9331744914252103,43.38919388524533],[1.9313778608569714,43.38919388524533],[1.9313778608569714,43.390499490242696],[1.929581230288732,43.390499490242696],[1.927784599720493,43.390499490242696],[1.9259879691522541,43.390499490242696],[1.9241913385840148,43.390499490242696],[1.9241913385840148,43.391805067115925],[1.922394708015776,43.391805067115925]]],[[[1.9888700390406207,43.292501076112885],[1.9870734084723813,43.292501076112885],[1.9870734084723813,43.29380876209204],[1.9852767779041425,43.29380876209204],[1.9852767779041425,43.295116419952585],[1.9834801473359034,43.295116419952585],[1.9834801473359034,43.29642404969437],[1.981683516767664,43.29642404969437],[1.9798868861994252,43.29642404969437],[1.9798868861994252,43.29773165131741],[1.9780902556311863,43.29773165131741],[1.9780902556311863,43.29903922482158],[1.9762936250629475,43.29903922482158],[1.9762936250629475,43.30034677020679],[1.9744969944947082,43.30034677020679],[1.972700363926469,43.30034677020679],[1.972700363926469,43.30165428747299],[1.9744969944947082,43.30165428747299],[1.9744969944947082,43.30296177662009],[1.9762936250629475,43.30296177662009],[1.9762936250629475,43.30426923764803],[1.9780902556311863,43.30426923764803],[1.9798868861994252,43.30426923764803],[1.9798868861994252,43.30296177662009],[1.981683516767664,43.30296177662009],[1.981683516767664,43.30165428747299],[1.9834801473359034,43.30165428747299],[1.9834801473359034,43.30034677020679],[1.9852767779041425,43.30034677020679],[1.9852767779041425,43.29903922482158],[1.9870734084723813,43.29903922482158],[1.9870734084723813,43.29773165131741],[1.9888700390406207,43.29773165131741],[1.9888700390406207,43.29642404969437],[1.9888700390406207,43.295116419952585],[1.9906666696088595,43.295116419952585],[1.9924633001770984,43.295116419952585],[1.9924633001770984,43.29380876209204],[1.9924633001770984,43.292501076112885],[1.9906666696088595,43.292501076112885],[1.9888700390406207,43.292501076112885]]],[[[2.0912779814302462,43.386582590878454],[2.0912779814302462,43.387888252123886],[2.0912779814302462,43.38919388524533],[2.093074611998485,43.38919388524533],[2.093074611998485,43.390499490242696],[2.094871242566724,43.390499490242696],[2.094871242566724,43.391805067115925],[2.0966678731349635,43.391805067115925],[2.0966678731349635,43.393110615864956],[2.0966678731349635,43.39441613648972],[2.0966678731349635,43.3957216289901],[2.098464503703202,43.3957216289901],[2.1002611342714412,43.3957216289901],[2.10205776483968,43.3957216289901],[2.1038543954079194,43.3957216289901],[2.1038543954079194,43.39441613648972],[2.105651025976158,43.39441613648972],[2.105651025976158,43.393110615864956],[2.105651025976158,43.391805067115925],[2.105651025976158,43.390499490242696],[2.105651025976158,43.38919388524533],[2.1038543954079194,43.38919388524533],[2.1038543954079194,43.387888252123886],[2.1038543954079194,43.386582590878454],[2.1038543954079194,43.38527690150914],[2.10205776483968,43.38527690150914],[2.10205776483968,43.38397118401593],[2.10205776483968,43.38266543839898],[2.1002611342714412,43.38266543839898],[2.098464503703202,43.38266543839898],[2.0966678731349635,43.38266543839898],[2.094871242566724,43.38266543839898],[2.093074611998485,43.38266543839898],[2.093074611998485,43.38397118401593],[2.093074611998485,43.38527690150914],[2.0912779814302462,43.38527690150914],[2.0912779814302462,43.386582590878454]]],[[[2.1200240705220708,43.27942266981317],[2.1200240705220708,43.28073063697446],[2.1182274399538317,43.28073063697446],[2.1164308093855926,43.28073063697446],[2.1164308093855926,43.28203857601792],[2.1164308093855926,43.28334648694339],[2.1182274399538317,43.28334648694339],[2.1200240705220708,43.28334648694339],[2.12182070109031,43.28334648694339],[2.1236173316585485,43.28334648694339],[2.125413962226788,43.28334648694339],[2.125413962226788,43.28203857601792],[2.1272105927950267,43.28203857601792],[2.1272105927950267,43.28073063697446],[2.125413962226788,43.28073063697446],[2.125413962226788,43.27942266981317],[2.125413962226788,43.27811467453407],[2.125413962226788,43.27680665113727],[2.1236173316585485,43.27680665113727],[2.1236173316585485,43.27811467453407],[2.12182070109031,43.27811467453407],[2.12182070109031,43.27942266981317],[2.1200240705220708,43.27942266981317]]],[[[2.254771363139999,43.29642404969437],[2.2529747325717597,43.29642404969437],[2.251178102003521,43.29642404969437],[2.2493814714352816,43.29642404969437],[2.2493814714352816,43.29773165131741],[2.2493814714352816,43.29903922482158],[2.247584840867043,43.29903922482158],[2.247584840867043,43.30034677020679],[2.247584840867043,43.30165428747299],[2.247584840867043,43.30296177662009],[2.2493814714352816,43.30296177662009],[2.2493814714352816,43.30426923764803],[2.2493814714352816,43.30557667055672],[2.2493814714352816,43.30688407534609],[2.2493814714352816,43.308191452016054],[2.2493814714352816,43.30949880056656],[2.251178102003521,43.30949880056656],[2.2529747325717597,43.30949880056656],[2.2529747325717597,43.308191452016054],[2.254771363139999,43.308191452016054],[2.256567993708238,43.308191452016054],[2.258364624276477,43.308191452016054],[2.258364624276477,43.30688407534609],[2.260161254844716,43.30688407534609],[2.2619578854129547,43.30688407534609],[2.2619578854129547,43.30557667055672],[2.2637545159811943,43.30557667055672],[2.2637545159811943,43.30426923764803],[2.265551146549433,43.30426923764803],[2.267347777117672,43.30426923764803],[2.267347777117672,43.30296177662009],[2.2691444076859115,43.30296177662009],[2.2691444076859115,43.30165428747299],[2.267347777117672,43.30165428747299],[2.267347777117672,43.30034677020679],[2.265551146549433,43.30034677020679],[2.265551146549433,43.29903922482158],[2.2637545159811943,43.29903922482158],[2.2637545159811943,43.29773165131741],[2.2637545159811943,43.29642404969437],[2.2637545159811943,43.295116419952585],[2.2637545159811943,43.29380876209204],[2.2637545159811943,43.292501076112885],[2.2619578854129547,43.292501076112885],[2.260161254844716,43.292501076112885],[2.260161254844716,43.29380876209204],[2.258364624276477,43.29380876209204],[2.258364624276477,43.295116419952585],[2.256567993708238,43.295116419952585],[2.254771363139999,43.295116419952585],[2.254771363139999,43.29642404969437]]],[[[2.3751456112120146,43.14324057666779],[2.376942241780254,43.14324057666779],[2.376942241780254,43.144551467654686],[2.3751456112120146,43.144551467654686],[2.3751456112120146,43.14586233053206],[2.3733489806437755,43.14586233053206],[2.371552350075537,43.14586233053206],[2.3697557195072974,43.14586233053206],[2.3697557195072974,43.14717316529982],[2.3679590889390587,43.14717316529982],[2.3679590889390587,43.14848397195789],[2.3679590889390587,43.14979475050619],[2.3679590889390587,43.151105500944674],[2.3697557195072974,43.151105500944674],[2.3697557195072974,43.15241622327316],[2.3697557195072974,43.15372691749167],[2.3697557195072974,43.155037583600084],[2.3679590889390587,43.155037583600084],[2.3679590889390587,43.15634822159828],[2.3697557195072974,43.15634822159828],[2.3697557195072974,43.157658831486245],[2.3679590889390587,43.157658831486245],[2.3679590889390587,43.158969413263854],[2.3679590889390587,43.16027996693101],[2.3697557195072974,43.16027996693101],[2.371552350075537,43.16027996693101],[2.3733489806437755,43.16027996693101],[2.3733489806437755,43.16159049248766],[2.3751456112120146,43.16159049248766],[2.376942241780254,43.16159049248766],[2.376942241780254,43.16027996693101],[2.378738872348493,43.16027996693101],[2.380535502916732,43.16027996693101],[2.380535502916732,43.158969413263854],[2.380535502916732,43.157658831486245],[2.3823321334849705,43.157658831486245],[2.3823321334849705,43.15634822159828],[2.38412876405321,43.15634822159828],[2.385925394621449,43.15634822159828],[2.385925394621449,43.155037583600084],[2.387722025189688,43.155037583600084],[2.387722025189688,43.15372691749167],[2.3895186557579273,43.15372691749167],[2.3895186557579273,43.15241622327316],[2.391315286326166,43.15241622327316],[2.393111916894405,43.15241622327316],[2.394908547462644,43.15241622327316],[2.394908547462644,43.151105500944674],[2.3967051780308832,43.151105500944674],[2.3967051780308832,43.14979475050619],[2.3985018085991223,43.14979475050619],[2.3985018085991223,43.151105500944674],[2.4002984391673614,43.151105500944674],[2.4020950697356005,43.151105500944674],[2.4020950697356005,43.14979475050619],[2.403891700303839,43.14979475050619],[2.4056883308720787,43.14979475050619],[2.4056883308720787,43.151105500944674],[2.4074849614403178,43.151105500944674],[2.4092815920085564,43.151105500944674],[2.4092815920085564,43.14979475050619],[2.411078222576796,43.14979475050619],[2.411078222576796,43.14848397195789],[2.4128748531450346,43.14848397195789],[2.4128748531450346,43.14717316529982],[2.4146714837132737,43.14717316529982],[2.4164681142815128,43.14717316529982],[2.4164681142815128,43.14586233053206],[2.418264744849752,43.14586233053206],[2.418264744849752,43.144551467654686],[2.420061375417991,43.144551467654686],[2.4218580059862296,43.144551467654686],[2.423654636554469,43.144551467654686],[2.4254512671227078,43.144551467654686],[2.427247897690947,43.144551467654686],[2.427247897690947,43.14324057666779],[2.4290445282591864,43.14324057666779],[2.4290445282591864,43.14192965757147],[2.427247897690947,43.14192965757147],[2.4254512671227078,43.14192965757147],[2.4254512671227078,43.14324057666779],[2.423654636554469,43.14324057666779],[2.423654636554469,43.14192965757147],[2.423654636554469,43.14061871036581],[2.423654636554469,43.13930773505086],[2.423654636554469,43.137996731626735],[2.4218580059862296,43.137996731626735],[2.4218580059862296,43.13668570009353],[2.4218580059862296,43.13537464045129],[2.4218580059862296,43.13406355270013],[2.4218580059862296,43.13275243684008],[2.4218580059862296,43.13144129287129],[2.4218580059862296,43.13013012079382],[2.420061375417991,43.13013012079382],[2.418264744849752,43.13013012079382],[2.418264744849752,43.13144129287129],[2.4164681142815128,43.13144129287129],[2.4164681142815128,43.13013012079382],[2.4146714837132737,43.13013012079382],[2.4128748531450346,43.13013012079382],[2.411078222576796,43.13013012079382],[2.4092815920085564,43.13013012079382],[2.4092815920085564,43.128818920607756],[2.4074849614403178,43.128818920607756],[2.4056883308720787,43.128818920607756],[2.403891700303839,43.128818920607756],[2.403891700303839,43.12750769231317],[2.4020950697356005,43.12750769231317],[2.4002984391673614,43.12750769231317],[2.4002984391673614,43.12619643591017],[2.3985018085991223,43.12619643591017],[2.3985018085991223,43.1248851513988],[2.3967051780308832,43.1248851513988],[2.394908547462644,43.1248851513988],[2.393111916894405,43.1248851513988],[2.391315286326166,43.1248851513988],[2.391315286326166,43.12619643591017],[2.3895186557579273,43.12619643591017],[2.3895186557579273,43.12750769231317],[2.3895186557579273,43.128818920607756],[2.387722025189688,43.128818920607756],[2.387722025189688,43.13013012079382],[2.387722025189688,43.13144129287129],[2.387722025189688,43.13275243684008],[2.387722025189688,43.13406355270013],[2.385925394621449,43.13406355270013],[2.385925394621449,43.13537464045129],[2.38412876405321,43.13537464045129],[2.38412876405321,43.13668570009353],[2.3823321334849705,43.13668570009353],[2.380535502916732,43.13668570009353],[2.380535502916732,43.137996731626735],[2.378738872348493,43.137996731626735],[2.376942241780254,43.137996731626735],[2.376942241780254,43.13930773505086],[2.376942241780254,43.14061871036581],[2.3751456112120146,43.14061871036581],[2.3751456112120146,43.14192965757147],[2.3751456112120146,43.14324057666779]]],[[[2.3194500635966047,43.21791649771199],[2.3194500635966047,43.21660718098489],[2.317653433028365,43.21660718098489],[2.3158568024601265,43.21660718098489],[2.3158568024601265,43.21791649771199],[2.3158568024601265,43.21922578632497],[2.317653433028365,43.21922578632497],[2.3194500635966047,43.21922578632497],[2.3194500635966047,43.21791649771199]]],[[[3.1153574053265007,43.1760044182932],[3.1171540358947394,43.1760044182932],[3.1189506664629785,43.1760044182932],[3.1207472970312176,43.1760044182932],[3.1207472970312176,43.174694201957664],[3.1225439275994566,43.174694201957664],[3.1225439275994566,43.1733839575107],[3.1207472970312176,43.1733839575107],[3.1207472970312176,43.17207368495239],[3.1189506664629785,43.17207368495239],[3.1189506664629785,43.170763384282864],[3.1171540358947394,43.170763384282864],[3.1153574053265007,43.170763384282864],[3.1153574053265007,43.17207368495239],[3.1153574053265007,43.1733839575107],[3.113560774758261,43.1733839575107],[3.113560774758261,43.174694201957664],[3.1153574053265007,43.174694201957664],[3.1153574053265007,43.1760044182932]]]]}}]}
