{"type":"FeatureCollection","features":[{"type":"Feature","properties":{"id":"parc-beausoleil-246234","name":"Parc Beausoleil","type":"park"},"geometry":{"type":"Polygon","coordinates":[[[-71.3234484,46.656734],[-71.3230082,46.6570342],[-71.322557,46.6567175],[-71.3234484,46.656734]]]}},{"type":"Feature","properties":{"id":"parc-benoit-letarte-692377","name":"Parc Benoît-Letarte","type":"park"},"geometry":{"type":"Polygon","coordinates":[[[-71.3115808,46.7060346],[-71.3109208,46.7064557],[-71.3106248,46.7063785],[-71.3104785,46.7064735],[-71.3080439,46.7047584],[-71.3100505,46.7035683],[-71.3111684,46.7043773],[-71.3112578,46.7055674],[-71.3116338,46.7058242],[-71.3115808,46.7060346]]]}},{"type":"Feature","properties":{"id":"parc-du-faubourg-des-arbrisseaux-602206","name":"Parc du Faubourg-des-Arbrisseaux","type":"park"},"geometry":{"type":"Polygon","coordinates":[[[-71.2190867,46.6836041],[-71.2186736,46.6833483],[-71.2183759,46.6830925],[-71.2191215,46.6827337],[-71.2196258,46.6830999],[-71.2190867,46.6836041]]]}},{"type":"Feature","properties":{"id":"parc-marechal-joffre-774090","name":"Parc Maréchal-Joffre","type":"park"},"geometry":{"type":"Polygon","coordinates":[[[-71.2575972,46.7166045],[-71.2562696,46.7174232],[-71.2552877,46.7167805],[-71.2542986,46.7171036],[-71.2540928,46.7167985],[-71.25785,46.7154041],[-71.2582331,46.7154156],[-71.2591412,46.7159477],[-71.2579143,46.7167741],[-71.2575972,46.7166045]]]}},{"type":"Feature","properties":{"id":"parc-de-l-otj-901431","name":"Parc de l'OTJ","type":"park"},"geometry":{"type":"Polygon","coordinates":[[[-71.2777579,46.7141275],[-71.27745,46.714304],[-71.2778062,46.7145649],[-71.2776419,46.7148465],[-71.2776894,46.7148935],[-71.2764446,46.7154675],[-71.2761489,46.7151843],[-71.2749312,46.7143617],[-71.2757938,46.714025],[-71.2769,46.7134665],[-71.2777579,46.7141275]]]}},{"type":"Feature","properties":{"id":"parc-quatre-saisons-901820","name":"Parc Quatre-Saisons","type":"park"},"geometry":{"type":"Polygon","coordinates":[[[-71.1942234,46.7181114],[-71.1949952,46.71908],[-71.1926806,46.7200873],[-71.1926815,46.7201893],[-71.1931485,46.7206543],[-71.1913876,46.7214458],[-71.1899962,46.7212177],[-71.1894462,46.7203172],[-71.1915707,46.7192672],[-71.1942234,46.7181114]]]}},{"type":"Feature","properties":{"id":"parc-de-levis-902868","name":"Parc de Lévis","type":"park"},"geometry":{"type":"Polygon","coordinates":[[[-71.3495788,46.7112109],[-71.3499878,46.7115521],[-71.3494729,46.7118684],[-71.3493213,46.7117268],[-71.3490289,46.7117084],[-71.3485455,46.7119467],[-71.3478731,46.7116611],[-71.3483989,46.7111996],[-71.3487448,46.7113498],[-71.3492181,46.7111037],[-71.3495788,46.7112109]]]}},{"type":"Feature","properties":{"id":"parc-de-l-erabliere-903481","name":"Parc de l'Érablière","type":"park"},"geometry":{"type":"Polygon","coordinates":[[[-71.367294,46.6711485],[-71.3664988,46.6715471],[-71.3658841,46.671038],[-71.366956,46.6706658],[-71.367294,46.6711485]]]}},{"type":"Feature","properties":{"id":"parc-champigny-907271","name":"Parc Champigny","type":"park"},"geometry":{"type":"Polygon","coordinates":[[[-71.2035312,46.7262743],[-71.2048656,46.7279943],[-71.2025014,46.7290339],[-71.202028,46.7289962],[-71.2020717,46.7288202],[-71.2016364,46.7287535],[-71.2009766,46.7289594],[-71.200037,46.7278186],[-71.2035312,46.7262743]]]}},{"type":"Feature","properties":{"id":"parc-de-l-arena-907449","name":"Parc de l'Aréna","type":"park"},"geometry":{"type":"Polygon","coordinates":[[[-71.2337173,46.7489455],[-71.2341977,46.7492853],[-71.233738,46.7496294],[-71.2332064,46.7492935],[-71.2337173,46.7489455]]]}},{"type":"Feature","properties":{"id":"parc-jean-dumets-909247","name":"Parc Jean-Dumets","type":"park"},"geometry":{"type":"Polygon","coordinates":[[[-71.4027202,46.7024687],[-71.403712,46.7030496],[-71.4044269,46.7036042],[-71.4031164,46.7039802],[-71.4021213,46.702643],[-71.4027202,46.7024687]]]}},{"type":"Feature","properties":{"id":"parc-ian-breakey-909419","name":"Parc Ian-Breakey","type":"park"},"geometry":{"type":"Polygon","coordinates":[[[-71.2225509,46.6772834],[-71.2220187,46.6774803],[-71.2216161,46.6770052],[-71.2203595,46.6776074],[-71.2201751,46.6774122],[-71.219656,46.6776415],[-71.2196669,46.6777113],[-71.2189368,46.676958],[-71.2207455,46.6762791],[-71.2208927,46.6760215],[-71.2220602,46.6755918],[-71.2225509,46.6772834]]]}},{"type":"Feature","properties":{"id":"parc-de-levis-2-910980","name":"Parc de Lévis (2)","type":"park"},"geometry":{"type":"Polygon","coordinates":[[[-71.3529326,46.7115699],[-71.3529252,46.7116383],[-71.3517119,46.7121743],[-71.3512476,46.7117915],[-71.3523164,46.7110835],[-71.3529326,46.7115699]]]}},{"type":"Feature","properties":{"id":"parc-du-carrefour-911306","name":"Parc du Carrefour","type":"park"},"geometry":{"type":"Polygon","coordinates":[[[-71.2823734,46.7397503],[-71.2832142,46.7403505],[-71.2844939,46.740654],[-71.284831,46.7408282],[-71.2851164,46.741154],[-71.2853968,46.7416668],[-71.2847777,46.7417186],[-71.2844923,46.7410058],[-71.2824183,46.7405398],[-71.282018,46.7398431],[-71.2823734,46.7397503]]]}},{"type":"Feature","properties":{"id":"parc-ludger-bastien-913090","name":"Parc Ludger-Bastien","type":"park"},"geometry":{"type":"Polygon","coordinates":[[[-71.2984167,46.6502121],[-71.2985773,46.6496296],[-71.2992078,46.6498197],[-71.2999757,46.6503353],[-71.3005861,46.6510263],[-71.3005705,46.6511649],[-71.3001715,46.651354],[-71.2995797,46.6514912],[-71.2987096,46.6514579],[-71.29706332179629,46.650746881578456],[-71.2984167,46.6502121]]]}},{"type":"Feature","properties":{"id":"parc-aline-welsh-murphy-855894","name":"Parc Aline-Welsh-Murphy","type":"park"},"geometry":{"type":"Polygon","coordinates":[[[-71.2275199,46.7594475],[-71.2279604,46.7587192],[-71.2289496,46.7589193],[-71.22829915089915,46.75955427885218],[-71.2275199,46.7594475]]]}},{"type":"Feature","properties":{"id":"parc-des-ingenieurs-royaux-856287","name":"Parc des Ingénieurs-Royaux","type":"park"},"geometry":{"type":"Polygon","coordinates":[[[-71.1589432,46.8227877],[-71.1599123,46.8232165],[-71.1594051,46.8237842],[-71.1598466,46.8238386],[-71.1598304,46.8239248],[-71.1593087,46.8239379],[-71.1594133,46.8242804],[-71.1596214,46.8244233],[-71.1588557,46.8251225],[-71.1584972,46.8249832],[-71.1589901,46.8244938],[-71.1590474,46.8243324],[-71.1585253,46.8242268],[-71.158588,46.8241338],[-71.1590268,46.8241244],[-71.1590279,46.8235268],[-71.1588223,46.8231551],[-71.1589432,46.8227877]]]}},{"type":"Feature","properties":{"id":"parc-olympique-857342","name":"Parc Olympique","type":"park"},"geometry":{"type":"Polygon","coordinates":[[[-71.1229989,46.7544174],[-71.1234871,46.7547707],[-71.1234653,46.75487],[-71.1224327,46.7554],[-71.1216336,46.7539036],[-71.1222956,46.7536713],[-71.1227775,46.7540186],[-71.1229989,46.7544174]]]}},{"type":"Feature","properties":{"id":"terrasse-du-chevalier-de-levis-859927","name":"Terrasse du Chevalier-de-Lévis","type":"park"},"geometry":{"type":"Polygon","coordinates":[[[-71.1865739,46.8054047],[-71.1864053,46.8058282],[-71.1866297,46.8063125],[-71.186343,46.8066284],[-71.185143,46.8061207],[-71.186291,46.8052192],[-71.1865739,46.8054047]]]}},{"type":"Feature","properties":{"id":"parc-des-maisons-mobiles-863268","name":"Parc des Maisons-Mobiles","type":"park"},"geometry":{"type":"Polygon","coordinates":[[[-71.1375211,46.8167176],[-71.1374553,46.8168457],[-71.1369352,46.8170762],[-71.1362544,46.8166046],[-71.136857,46.8162556],[-71.1375211,46.8167176]]]}},{"type":"Feature","properties":{"id":"parc-beaumont-863274","name":"Parc Beaumont","type":"park"},"geometry":{"type":"Polygon","coordinates":[[[-71.2188551,46.7519942],[-71.2194423,46.7519487],[-71.2197768,46.7522052],[-71.2180166,46.7529886],[-71.2188551,46.7519942]]]}},{"type":"Feature","properties":{"id":"parc-de-l-anse-tibbits-863342","name":"Parc de l'Anse-Tibbits","type":"park"},"geometry":{"type":"Polygon","coordinates":[[[-71.1926289,46.7953185],[-71.1926821,46.7960078],[-71.1924567,46.7965578],[-71.1919477,46.7963891],[-71.1918206,46.7966394],[-71.1910737,46.7964092],[-71.1902355,46.7964067],[-71.190021,46.7963361],[-71.1898996,46.7960251],[-71.1899189,46.7958432],[-71.190033,46.7956981],[-71.1905473,46.7953736],[-71.1911327,46.7944789],[-71.191548,46.7940884],[-71.1914733,46.7940106],[-71.1923167,46.7934266],[-71.192766,46.7928448],[-71.1930929,46.7930699],[-71.1929966,46.7938159],[-71.1926289,46.7953185]]]}},{"type":"Feature","properties":{"id":"parc-du-paysan-864603","name":"Parc du Paysan","type":"park"},"geometry":{"type":"Polygon","coordinates":[[[-71.2253955,46.753892],[-71.2247128,46.7543961],[-71.2240794,46.7539585],[-71.2241073,46.753571],[-71.2238998,46.7533683],[-71.2242631,46.7531005],[-71.2253955,46.753892]]]}},{"type":"Feature","properties":{"id":"parc-des-fleurs-866546","name":"Parc des Fleurs","type":"park"},"geometry":{"type":"Polygon","coordinates":[[[-71.1416461,46.8151893],[-71.1410383,46.8157147],[-71.1408701,46.8156962],[-71.140699,46.8154398],[-71.1414413,46.8150397],[-71.1416461,46.8151893]]]}},{"type":"Feature","properties":{"id":"parc-claudel-868195","name":"Parc Claudel","type":"park"},"geometry":{"type":"Polygon","coordinates":[[[-71.1761317,46.7911211],[-71.176839,46.7915354],[-71.1760355,46.7920812],[-71.1755031,46.7916725],[-71.1761317,46.7911211]]]}},{"type":"Feature","properties":{"id":"parc-de-la-paix-871893","name":"Parc de la Paix","type":"park"},"geometry":{"type":"Polygon","coordinates":[[[-71.1629003,46.8185535],[-71.1629114,46.8187835],[-71.1628179,46.8189052],[-71.1603886,46.8206657],[-71.1602538,46.8201216],[-71.1597876,46.8194496],[-71.1597961,46.8190208],[-71.159956,46.8188149],[-71.1616973,46.8176757],[-71.1629003,46.8185535]],[[-71.1614823,46.8179508],[-71.1612342,46.8181014],[-71.1611319,46.8182937],[-71.161506,46.8184479],[-71.162005,46.8183172],[-71.1620572,46.8182013],[-71.1620022,46.8180933],[-71.1617066,46.8179273],[-71.1614823,46.8179508]]]}},{"type":"Feature","properties":{"id":"parc-d-aubigny-872292","name":"Parc d'Aubigny","type":"park"},"geometry":{"type":"Polygon","coordinates":[[[-71.175114,46.8085294],[-71.1748215,46.8096136],[-71.1742455,46.8095846],[-71.1739668,46.8096482],[-71.1733595,46.8090854],[-71.1743821,46.8082531],[-71.175114,46.8085294]]]}},{"type":"Feature","properties":{"id":"parc-lamartine-873753","name":"Parc Lamartine","type":"park"},"geometry":{"type":"Polygon","coordinates":[[[-71.1776946,46.7873774],[-71.1769327,46.7878757],[-71.1761084,46.7879528],[-71.1757642,46.7877061],[-71.1761882,46.7874393],[-71.175797,46.7871393],[-71.1765881,46.7866178],[-71.1776946,46.7873774]]]}},{"type":"Feature","properties":{"id":"parc-turcotte-910352","name":"Parc Turcotte","type":"park"},"geometry":{"type":"Polygon","coordinates":[[[-71.2849098,46.700423],[-71.2852747,46.7008764],[-71.2857773,46.7009758],[-71.2857122,46.701082],[-71.2818692,46.7030351],[-71.2818484,46.7031338],[-71.2812812,46.7031243],[-71.2807677,46.7025843],[-71.2807278,46.7024587],[-71.2849098,46.700423]]]}},{"type":"Feature","properties":{"id":"parc-des-oiseaux-057677","name":"Parc des Oiseaux","type":"park"},"geometry":{"type":"Polygon","coordinates":[[[-71.1418807,46.8212999],[-71.1406848,46.8220944],[-71.1399774,46.8216224],[-71.139757,46.821202],[-71.1416204,46.8206465],[-71.1421485,46.8207355],[-71.1420426,46.8210988],[-71.1418807,46.8212999]]]}},{"type":"Feature","properties":{"id":"parc-du-domaine-des-bois-810769","name":"Parc du Domaine-des-Bois","type":"park"},"geometry":{"type":"Polygon","coordinates":[[[-71.1709047,46.7576612],[-71.1698431,46.757181],[-71.1703218,46.7565731],[-71.1715618,46.7570803],[-71.1709047,46.7576612]]]}},{"type":"Feature","properties":{"id":"parc-de-grenoble-547211","name":"Parc de Grenoble","type":"park"},"geometry":{"type":"Polygon","coordinates":[[[-71.3123209,46.7095622],[-71.3121023,46.7097002],[-71.3118502,46.7095475],[-71.3120338,46.7092282],[-71.312144,46.7092279],[-71.3123209,46.7095622]]]}},{"type":"Feature","properties":{"id":"parc-de-levis-3-735324","name":"Parc de Lévis (3)","type":"park"},"geometry":{"type":"Polygon","coordinates":[[[-71.3591324,46.6744087],[-71.3585698,46.674089],[-71.3586039,46.6739958],[-71.3596118,46.6736744],[-71.3600756,46.6740042],[-71.3600796,46.6741325],[-71.3595511,46.6742608],[-71.3594536,46.6741995],[-71.3591324,46.6744087]]]}},{"type":"Feature","properties":{"id":"parc-ecole-taniata-255833","name":"Parc-école Taniata","type":"park"},"geometry":{"type":"Polygon","coordinates":[[[-71.1980899,46.7164806],[-71.1984299,46.717033],[-71.1972929,46.717339],[-71.1972228,46.7172247],[-71.1966256,46.7173891],[-71.1958989,46.716286],[-71.1959432,46.715817],[-71.1973176,46.715688],[-71.1982949,46.7157093],[-71.1987126,46.7161701],[-71.1980899,46.7164806]]]}},{"type":"Feature","properties":{"id":"parc-ecole-la-nacelle-255838","name":"Parc-école La Nacelle","type":"park"},"geometry":{"type":"Polygon","coordinates":[[[-71.2053215,46.7096967],[-71.205036,46.7099076],[-71.2048227,46.7098546],[-71.2045113,46.7100567],[-71.2044873,46.710406],[-71.2039308,46.7107413],[-71.2026875,46.7098719],[-71.204437,46.7090651],[-71.2053215,46.7096967]]]}},{"type":"Feature","properties":{"id":"parc-ecole-des-mousserons-255844","name":"Parc-école des Mousserons","type":"park"},"geometry":{"type":"Polygon","coordinates":[[[-71.2036612,46.7325871],[-71.2034365,46.7324639],[-71.204984,46.7317806],[-71.2053176,46.732228],[-71.2052184,46.7332065],[-71.204698,46.7334107],[-71.2045187,46.7332857],[-71.2041935,46.733494],[-71.2032882,46.7328582],[-71.2036612,46.7325871]]]}},{"type":"Feature","properties":{"id":"parc-de-verdun-258867","name":"Parc de Verdun","type":"park"},"geometry":{"type":"Polygon","coordinates":[[[-71.1891585,46.7975275],[-71.1892477,46.7977482],[-71.1884039,46.7980508],[-71.1880768,46.7978169],[-71.1883513,46.7975904],[-71.1884685,46.7976678],[-71.1891585,46.7975275]]]}},{"type":"Feature","properties":{"id":"parc-des-chutes-de-la-chaudiere-503348","name":"Parc Des Chutes de la Chaudière","type":"park"},"geometry":{"type":"MultiPolygon","coordinates":[[[[-71.2848077,46.7214058],[-71.2837208,46.7217378],[-71.2831738,46.7217173],[-71.2826524,46.7215529],[-71.2822653,46.7212265],[-71.2811736,46.7198031],[-71.28085,46.7190954],[-71.2802272,46.7170514],[-71.281706,46.7169812],[-71.281664,46.7168327],[-71.2817909,46.7165854],[-71.2815111,46.7160833],[-71.2802024,46.7154524],[-71.2797804,46.7151247],[-71.2794072,46.71461],[-71.2787526,46.7132999],[-71.2781362,46.7116264],[-71.2779186,46.7106752],[-71.2776497,46.7069944],[-71.27784649142808,46.706879975838405],[-71.2780436,46.7085969],[-71.2781251,46.7105325],[-71.2785269,46.712076],[-71.2789501,46.7132002],[-71.2803342,46.714714],[-71.2805885,46.714766],[-71.2806637,46.7150546],[-71.2809319,46.7151786],[-71.2811747,46.7150645],[-71.2812606,46.7152287],[-71.2815264,46.7152806],[-71.2814226,46.7153284],[-71.2815262,46.7154858],[-71.2818278,46.715635],[-71.2828654,46.715626],[-71.2828304,46.7161524],[-71.2831719,46.7163591],[-71.2832333,46.7164713],[-71.2831772,46.7166189],[-71.2836861,46.7169472],[-71.2840256,46.7174021],[-71.2848366,46.7171993],[-71.2850187,46.717344],[-71.2856833,46.7173984],[-71.2857806,46.7175887],[-71.2855042,46.7198965],[-71.2855333,46.7201475],[-71.2858577634496,46.72092284757631],[-71.2848077,46.7214058]]],[[[-71.2823167,46.7048206],[-71.2822924,46.7056626],[-71.2832245,46.7063882],[-71.2846334,46.7053295],[-71.2863491,46.7064261],[-71.2864417,46.7072485],[-71.2866247,46.707923],[-71.2869557,46.7085346],[-71.2876448,46.7093286],[-71.287032,46.7110633],[-71.2866487,46.7127046],[-71.2856561,46.7133257],[-71.2876125,46.7146172],[-71.2872727,46.7147248],[-71.2880391,46.7154438],[-71.2878759,46.7155585],[-71.2914177,46.7180182],[-71.2886527,46.7193123],[-71.2885967,46.7194483],[-71.28660173996485,46.72058067276645],[-71.2868051,46.7200253],[-71.2877939,46.7195832],[-71.2881731,46.7192833],[-71.288289,46.7191039],[-71.2883057,46.7188788],[-71.2882175,46.7185202],[-71.2880234,46.7182761],[-71.2871513,46.7180707],[-71.2868696,46.7178323],[-71.2865888,46.7172496],[-71.2861875,46.7169353],[-71.2860254,46.7164241],[-71.2852973,46.7154586],[-71.2849956,46.7155648],[-71.2856264,46.7162327],[-71.285727,46.7165088],[-71.2856757,46.7165895],[-71.2836165,46.715672],[-71.2835633,46.7155866],[-71.2836905,46.7154139],[-71.2836316,46.7150924],[-71.2838148,46.7145337],[-71.2840191,46.7143201],[-71.2842685,46.7142456],[-71.2841577,46.7140202],[-71.284263,46.7139595],[-71.2840637,46.7136216],[-71.2838093,46.713466],[-71.283859,46.7133354],[-71.2833996,46.7120987],[-71.2836792,46.7116201],[-71.2841626,46.7112815],[-71.2848146,46.7104723],[-71.2849421,46.7102164],[-71.284909,46.7096264],[-71.2849791,46.7092775],[-71.2846922,46.7087689],[-71.2840165,46.708147],[-71.2835287,46.7079775],[-71.2828857,46.7081298],[-71.2825626,46.708062],[-71.2822324,46.707669],[-71.2819603,46.7069145],[-71.2819237,46.7073333],[-71.2814109,46.7067829],[-71.281217,46.7055853],[-71.28131979419027,46.7051015089536],[-71.2823167,46.7048206]]],[[[-71.2801149,46.7060905],[-71.2799088,46.7061594],[-71.27986,46.7060984],[-71.2799268,46.7057831],[-71.2806731,46.705394],[-71.2801149,46.7060905]]],[[[-71.2817323,46.7080172],[-71.2817209,46.7083562],[-71.281388,46.7086018],[-71.2810391,46.708689],[-71.2805667,46.7085656],[-71.2803314,46.7083499],[-71.2802282,46.7079312],[-71.2806633,46.7072986],[-71.2808949,46.7071661],[-71.2811733,46.7071375],[-71.2815491,46.7075509],[-71.2817323,46.7080172]]],[[[-71.2835941,46.7083961],[-71.2838192,46.7083419],[-71.2840443,46.7084211],[-71.2841902,46.7086213],[-71.2835941,46.7083961]]],[[[-71.2836524,46.7088297],[-71.28384,46.7088339],[-71.2840318,46.7090799],[-71.2839526,46.7091341],[-71.2836524,46.7088297]]],[[[-71.2844821,46.7089381],[-71.2847239,46.7093509],[-71.2844529,46.7092216],[-71.2842444,46.7088381],[-71.2843028,46.708788],[-71.2844821,46.7089381]]],[[[-71.2825911,46.7112508],[-71.2818073,46.7106823],[-71.2807616,46.709621],[-71.2807211,46.7092907],[-71.2808332,46.7091718],[-71.2821761,46.7090612],[-71.2825214,46.7092145],[-71.2831253,46.7103705],[-71.2831096,46.7109724],[-71.2828715,46.7111952],[-71.2825911,46.7112508]]],[[[-71.2840135,46.7142268],[-71.2839339,46.7142633],[-71.2839022,46.7142035],[-71.2840135,46.7142268]]],[[[-71.2827605,46.7146661],[-71.2826748,46.7144935],[-71.2834151,46.7143821],[-71.2829311,46.7147494],[-71.2827605,46.7146661]]],[[[-71.2833325,46.714609],[-71.2834967,46.7144116],[-71.283856,46.7143157],[-71.2836722,46.7147521],[-71.2832025,46.7149649],[-71.2830251,46.7147798],[-71.2833325,46.714609]]],[[[-71.2819036,46.7148351],[-71.2823629,46.7148402],[-71.2816927,46.7150653],[-71.2817094,46.7151681],[-71.281421,46.7152253],[-71.2812995,46.7150542],[-71.2819036,46.7148351]]]]}},{"type":"Feature","properties":{"id":"place-monseigneur-dezie-033383","name":"Place Monseigneur-Dézie","type":"park"},"geometry":{"type":"Polygon","coordinates":[[[-71.1824409,46.8100892],[-71.1819119,46.8097143],[-71.1823988,46.8094235],[-71.1829598,46.8098031],[-71.1824409,46.8100892]]]}},{"type":"Feature","properties":{"id":"parc-ecole-du-grand-voilier-st-laurent-198172","name":"Parc-école du Grand-Voilier (St-Laurent)","type":"park"},"geometry":{"type":"Polygon","coordinates":[[[-71.4031722,46.7027334],[-71.4020845,46.7019946],[-71.4042209,46.7016762],[-71.4044967,46.7025283],[-71.4031722,46.7027334]]]}},{"type":"Feature","properties":{"id":"parc-ecole-du-grand-voilier-hirondelles-198173","name":"Parc-école du Grand-Voilier (Hirondelles)","type":"park"},"geometry":{"type":"Polygon","coordinates":[[[-71.4016785,46.7035594],[-71.4001948,46.7037877],[-71.4001867,46.7036424],[-71.3995651,46.7030508],[-71.4011717,46.7028478],[-71.4016785,46.7035594]]]}},{"type":"Feature","properties":{"id":"parc-flaubert-349562","name":"Parc Flaubert","type":"park"},"geometry":{"type":"Polygon","coordinates":[[[-71.1692869,46.786068],[-71.1698544,46.7856185],[-71.1706813,46.7861024],[-71.169929,46.7865993],[-71.1692869,46.786068]]]}},{"type":"Feature","properties":{"id":"parc-villemay-349563","name":"Parc Villemay","type":"park"},"geometry":{"type":"Polygon","coordinates":[[[-71.1793098,46.7878603],[-71.1784228,46.7872481],[-71.1794507,46.7871758],[-71.1799314,46.7876685],[-71.1798094,46.7878411],[-71.1793098,46.7878603]]]}},{"type":"Feature","properties":{"id":"parc-georges-berberi-378088","name":"Parc Georges-Berberi","type":"park"},"geometry":{"type":"Polygon","coordinates":[[[-71.1780479,46.780287],[-71.1791243,46.7795638],[-71.179496,46.7797823],[-71.1797754,46.7802929],[-71.1792267,46.7807257],[-71.1787892,46.7807875],[-71.1782239,46.7803943],[-71.1779004,46.7805997],[-71.1776641,46.7803986],[-71.1780479,46.780287]]]}},{"type":"Feature","properties":{"id":"parc-de-levis-4-189373","name":"Parc de Lévis (4)","type":"park"},"geometry":{"type":"Polygon","coordinates":[[[-71.3723558,46.7107019],[-71.3721085,46.7104095],[-71.3720311,46.7101192],[-71.3725966,46.7098873],[-71.3730404,46.7104162],[-71.3723558,46.7107019]]]}},{"type":"Feature","properties":{"id":"parc-de-l-aulneuse-189374","name":"Parc de l'Aulneuse","type":"park"},"geometry":{"type":"Polygon","coordinates":[[[-71.3823649,46.7044315],[-71.3822283,46.7049197],[-71.3817841,46.7047996],[-71.3816606,46.7046849],[-71.3822481,46.7043901],[-71.3823649,46.7044315]]]}},{"type":"Feature","properties":{"id":"parc-des-opales-043219","name":"Parc des Opales","type":"park"},"geometry":{"type":"Polygon","coordinates":[[[-71.1942767,46.7721739],[-71.1945062,46.7720041],[-71.1941564,46.7717605],[-71.1945623,46.7714866],[-71.1948519,46.7717343],[-71.1950659,46.7715773],[-71.195315,46.771754],[-71.1947643,46.7725385],[-71.1942767,46.7721739]]]}},{"type":"Feature","properties":{"id":"parc-de-l-azurite-043220","name":"Parc de l'Azurite","type":"park"},"geometry":{"type":"Polygon","coordinates":[[[-71.1864246,46.7735388],[-71.1859798,46.7731297],[-71.1866548,46.7728951],[-71.186948,46.7731425],[-71.1864246,46.7735388]]]}},{"type":"Feature","properties":{"id":"parc-guy-dionne-043221","name":"Parc Guy-Dionne","type":"park"},"geometry":{"type":"Polygon","coordinates":[[[-71.1948408,46.7777051],[-71.1942123,46.7776899],[-71.1935192,46.7783028],[-71.1914459,46.7767089],[-71.1933058,46.7753715],[-71.1944763,46.7761957],[-71.1945465,46.7761268],[-71.1955316,46.7767316],[-71.1948408,46.7777051]]]}},{"type":"Feature","properties":{"id":"parc-des-quatre-saisons-870069","name":"Parc des Quatre-Saisons","type":"park"},"geometry":{"type":"Polygon","coordinates":[[[-71.3861548,46.6678321],[-71.3856911,46.6675125],[-71.386023,46.6672669],[-71.3864973,46.6675899],[-71.3861548,46.6678321]]]}},{"type":"Feature","properties":{"id":"parc-o-bernois-870070","name":"Parc O'Bernois","type":"park"},"geometry":{"type":"Polygon","coordinates":[[[-71.3619876,46.6718535],[-71.3641623,46.6711106],[-71.3648981,46.6717575],[-71.3627161,46.6724473],[-71.3619876,46.6718535]]]}},{"type":"Feature","properties":{"id":"parc-du-coteau-chevreuil-870071","name":"Parc du Coteau-Chevreuil","type":"park"},"geometry":{"type":"Polygon","coordinates":[[[-71.3555828,46.6775104],[-71.3550598,46.6771612],[-71.3559448,46.6765603],[-71.3565154,46.6769441],[-71.3555828,46.6775104]]]}},{"type":"Feature","properties":{"id":"parc-le-picart-948803","name":"Parc Le Picart","type":"park"},"geometry":{"type":"Polygon","coordinates":[[[-71.4004853,46.7010722],[-71.4007514,46.7013298],[-71.3998079,46.7016959],[-71.3993969,46.7013156],[-71.3999284,46.7010847],[-71.3999444,46.7007705],[-71.4004785,46.7007634],[-71.4004853,46.7010722]]]}},{"type":"Feature","properties":{"id":"parc-du-tricentenaire-948805","name":"Parc du Tricentenaire","type":"park"},"geometry":{"type":"Polygon","coordinates":[[[-71.3991056,46.7010977],[-71.3996133,46.7015202],[-71.3991447,46.7014669],[-71.3986484,46.7015958],[-71.3984389,46.7013168],[-71.3991056,46.7010977]]]}},{"type":"Feature","properties":{"id":"parc-du-muletier-948806","name":"Parc du Muletier","type":"park"},"geometry":{"type":"Polygon","coordinates":[[[-71.4004944,46.6978064],[-71.4007054,46.6978318],[-71.4009873,46.6981765],[-71.4003766,46.6984173],[-71.4001386,46.6980407],[-71.4004944,46.6978064]]]}},{"type":"Feature","properties":{"id":"parc-vicontent-948807","name":"Parc Vicontent","type":"park"},"geometry":{"type":"Polygon","coordinates":[[[-71.393954,46.6996356],[-71.3937742,46.6999281],[-71.3933091,46.6997865],[-71.3934909,46.6994946],[-71.393954,46.6996356]]]}},{"type":"Feature","properties":{"id":"parc-des-chatelets-948810","name":"Parc des Châtelets","type":"park"},"geometry":{"type":"Polygon","coordinates":[[[-71.3122297,46.654619],[-71.3129266,46.6541949],[-71.3140874,46.6551154],[-71.3127753,46.6559588],[-71.3118766,46.6552674],[-71.312158,46.6551216],[-71.3124839,46.6552708],[-71.312795,46.6550742],[-71.3122297,46.654619]]]}},{"type":"Feature","properties":{"id":"parc-ecole-la-cle-du-boise-948811","name":"Parc-école La Clé-du-Boisé","type":"park"},"geometry":{"type":"Polygon","coordinates":[[[-71.3111281,46.6552557],[-71.3101338,46.654545],[-71.3118272,46.6534574],[-71.3129266,46.6541949],[-71.3111281,46.6552557]]]}},{"type":"Feature","properties":{"id":"parc-bruno-verret-948812","name":"Parc Bruno-Verret","type":"park"},"geometry":{"type":"Polygon","coordinates":[[[-71.3101338,46.654545],[-71.3088006,46.6535931],[-71.3098866,46.6528575],[-71.3095267,46.6526138],[-71.310089,46.6522711],[-71.3118272,46.6534574],[-71.3101338,46.654545]]]}},{"type":"Feature","properties":{"id":"parc-des-chenes-714140","name":"Parc des Chênes","type":"park"},"geometry":{"type":"Polygon","coordinates":[[[-71.2451893,46.6486485],[-71.2470636,46.6483744],[-71.2471568,46.6484904],[-71.2471188,46.6485653],[-71.24722996044223,46.6486529844932],[-71.2459618,46.6488006],[-71.2459894,46.649189],[-71.2453693,46.6492615],[-71.2451893,46.6486485]]]}},{"type":"Feature","properties":{"id":"parc-des-cherubins-714142","name":"Parc des Chérubins","type":"park"},"geometry":{"type":"Polygon","coordinates":[[[-71.2464895,46.6537693],[-71.2469144,46.6538149],[-71.2468405,46.6541291],[-71.2470101,46.6541451],[-71.2468945,46.6546957],[-71.2458386,46.6545065],[-71.2462904,46.6540539],[-71.2464225,46.6540698],[-71.2464895,46.6537693]]]}},{"type":"Feature","properties":{"id":"parc-des-trois-manoirs-714158","name":"Parc des Trois-Manoirs","type":"park"},"geometry":{"type":"Polygon","coordinates":[[[-71.2250099,46.6697362],[-71.224257,46.6698764],[-71.2240803,46.669369],[-71.2240556,46.6690151],[-71.2251059292765,46.66925654912469],[-71.2250099,46.6697362]]]}},{"type":"Feature","properties":{"id":"parc-des-ormes-818644","name":"Parc des Ormes","type":"park"},"geometry":{"type":"Polygon","coordinates":[[[-71.2214875,46.6853305],[-71.2212472,46.6850855],[-71.2213772,46.6849037],[-71.2216557,46.6849603],[-71.2218491,46.6851607],[-71.2214875,46.6853305]]]}},{"type":"Feature","properties":{"id":"parc-de-la-viorne-818657","name":"Parc de la Viorne","type":"park"},"geometry":{"type":"Polygon","coordinates":[[[-71.2140758,46.6869367],[-71.2139067,46.6870135],[-71.2134101,46.6868746],[-71.2131515,46.6865606],[-71.2136792,46.6863087],[-71.2139289,46.6865766],[-71.2140758,46.6869367]]]}},{"type":"Feature","properties":{"id":"parc-des-oiseaux-2-979249","name":"Parc des Oiseaux (2)","type":"park"},"geometry":{"type":"Polygon","coordinates":[[[-71.2498076,46.7220151],[-71.2496392,46.722089],[-71.2492463,46.7218152],[-71.2485731,46.7218309],[-71.248575,46.7217041],[-71.2493115,46.721583],[-71.249476,46.7212718],[-71.2496463,46.7213065],[-71.2498076,46.7220151]]]}},{"type":"Feature","properties":{"id":"parc-ecole-des-petits-cheminots-979250","name":"Parc-école des Petits-Cheminots","type":"park"},"geometry":{"type":"Polygon","coordinates":[[[-71.2612768,46.7230046],[-71.2599822,46.7233129],[-71.2583755,46.7221555],[-71.2594673,46.7216516],[-71.2612768,46.7230046]]]}},{"type":"Feature","properties":{"id":"parc-des-generations-979251","name":"Parc des Générations","type":"park"},"geometry":{"type":"Polygon","coordinates":[[[-71.2617746,46.7151256],[-71.2606658,46.715846],[-71.2602388,46.7155408],[-71.2612755,46.7147873],[-71.2617746,46.7151256]]]}},{"type":"Feature","properties":{"id":"parc-de-la-serenade-979252","name":"Parc de la Sérénade","type":"park"},"geometry":{"type":"Polygon","coordinates":[[[-71.2639018,46.715138],[-71.2636399,46.7149618],[-71.2642217,46.7145523],[-71.2644925,46.714725],[-71.2639018,46.715138]]]}},{"type":"Feature","properties":{"id":"parc-omer-rodrigue-979253","name":"Parc Omer-Rodrigue","type":"park"},"geometry":{"type":"Polygon","coordinates":[[[-71.2716874,46.7130524],[-71.2718703,46.7129079],[-71.2721131,46.7130632],[-71.2719368,46.7132088],[-71.2716874,46.7130524]]]}},{"type":"Feature","properties":{"id":"placette-joseph-hudon-979254","name":"Placette Joseph-Hudon","type":"park"},"geometry":{"type":"Polygon","coordinates":[[[-71.2739781,46.713665],[-71.2735343,46.7138901],[-71.2733472,46.7137367],[-71.2734132,46.7137039],[-71.2733403,46.7136204],[-71.2735143,46.7135285],[-71.2733727,46.7133569],[-71.2732045,46.7134556],[-71.2733258,46.7135799],[-71.2732407,46.713624],[-71.2729059,46.7132214],[-71.2731559,46.7130502],[-71.2739781,46.713665]]]}},{"type":"Feature","properties":{"id":"parc-du-confluent-979257","name":"Parc du Confluent","type":"park"},"geometry":{"type":"Polygon","coordinates":[[[-71.2712409,46.7179893],[-71.2717575,46.7177808],[-71.2721577,46.7181622],[-71.2716805,46.7184061],[-71.2712409,46.7179893]]]}},{"type":"Feature","properties":{"id":"parc-de-l-ecluse-979258","name":"Parc de l'Écluse","type":"park"},"geometry":{"type":"Polygon","coordinates":[[[-71.2777339,46.7177967],[-71.2779829,46.7176143],[-71.2782635,46.7176464],[-71.2783205,46.7177646],[-71.2779826,46.7179715],[-71.277686,46.7179516],[-71.2777339,46.7177967]]]}},{"type":"Feature","properties":{"id":"parc-du-rapide-979259","name":"Parc du Rapide","type":"park"},"geometry":{"type":"Polygon","coordinates":[[[-71.2784216,46.7193427],[-71.2787184,46.7191319],[-71.2789264,46.7191438],[-71.279115,46.7193804],[-71.279021,46.7196388],[-71.2784216,46.7193427]]]}},{"type":"Feature","properties":{"id":"parc-de-l-estuaire-979260","name":"Parc de l'Estuaire","type":"park"},"geometry":{"type":"Polygon","coordinates":[[[-71.2753305,46.7207538],[-71.2753815,46.7206055],[-71.2760987,46.7202817],[-71.2762625,46.7202928],[-71.2763781,46.7204486],[-71.2763094,46.7206604],[-71.2755158,46.7210241],[-71.2753305,46.7207538]]]}},{"type":"Feature","properties":{"id":"parc-de-l-eau-vive-979261","name":"Parc de l'Eau-Vive","type":"park"},"geometry":{"type":"Polygon","coordinates":[[[-71.2768418,46.7242497],[-71.275722,46.7245487],[-71.2755341,46.7241655],[-71.2763767,46.723836],[-71.2765925,46.7238267],[-71.2768418,46.7242497]]]}},{"type":"Feature","properties":{"id":"placette-des-belles-amours-979262","name":"Placette des Belles-Amours","type":"park"},"geometry":{"type":"Polygon","coordinates":[[[-71.2668095,46.7181977],[-71.2667487,46.7180202],[-71.2670197,46.717829],[-71.267172,46.7180134],[-71.2668095,46.7181977]]]}},{"type":"Feature","properties":{"id":"ilot-du-mistral-979263","name":"Îlot du Mistral","type":"park"},"geometry":{"type":"Polygon","coordinates":[[[-71.26955,46.723563],[-71.2703542,46.72412],[-71.2702877,46.7241578],[-71.2703543,46.7242294],[-71.2702097,46.724339],[-71.2696464,46.7242398],[-71.269555,46.7240589],[-71.2697758,46.7239546],[-71.26955,46.723563]]]}},{"type":"Feature","properties":{"id":"parc-de-levis-5-899027","name":"Parc de Lévis (5)","type":"park"},"geometry":{"type":"Polygon","coordinates":[[[-71.2954646,46.6606403],[-71.2951629,46.6604058],[-71.2953905,46.66026],[-71.2957395,46.6602834],[-71.2958042,46.6606458],[-71.2954646,46.6606403]]]}},{"type":"Feature","properties":{"id":"parc-martin-899086","name":"Parc Martin","type":"park"},"geometry":{"type":"Polygon","coordinates":[[[-71.2945033,46.6583497],[-71.2931836,46.6574771],[-71.293417,46.6573372],[-71.2943075,46.6578987],[-71.2944443,46.6577974],[-71.2948627,46.6580938],[-71.2945033,46.6583497]]]}},{"type":"Feature","properties":{"id":"parc-de-la-rue-du-commodore-ouest-745206","name":"Parc de la Rue-du-Commodore-Ouest","type":"park"},"geometry":{"type":"Polygon","coordinates":[[[-71.3263402,46.7295814],[-71.3263698,46.7294482],[-71.3268869,46.7292909],[-71.3272945,46.7295973],[-71.3272138,46.7296922],[-71.3265602,46.7299078],[-71.3263402,46.7295814]]]}},{"type":"Feature","properties":{"id":"parc-de-la-rue-du-commodore-est-745207","name":"Parc de la Rue-du-Commodore-Est","type":"park"},"geometry":{"type":"Polygon","coordinates":[[[-71.3200784,46.7316251],[-71.3198394,46.7315882],[-71.3197257,46.7314299],[-71.319771,46.7313616],[-71.3202371,46.7311677],[-71.3206507,46.7314236],[-71.3200784,46.7316251]]]}},{"type":"Feature","properties":{"id":"parc-des-moussaillons-745208","name":"Parc des Moussaillons","type":"park"},"geometry":{"type":"Polygon","coordinates":[[[-71.3174939,46.7319303],[-71.3172168,46.7316482],[-71.3174263,46.7315457],[-71.317726,46.7318201],[-71.3174939,46.7319303]]]}},{"type":"Feature","properties":{"id":"parc-de-la-pruchiere-794117","name":"Parc de la Pruchière","type":"park"},"geometry":{"type":"Polygon","coordinates":[[[-71.3016783,46.7370995],[-71.3008712,46.7363037],[-71.3008283,46.7361042],[-71.3012351,46.7359209],[-71.3010641,46.7358075],[-71.3019907,46.7350855],[-71.3033309,46.735902],[-71.3026084,46.7363594],[-71.302476,46.7367827],[-71.3022421,46.7369836],[-71.3020675,46.7369608],[-71.3016783,46.7370995]]]}},{"type":"Feature","properties":{"id":"parc-du-pont-garneau-794118","name":"Parc du Pont-Garneau","type":"park"},"geometry":{"type":"Polygon","coordinates":[[[-71.2788221,46.7412148],[-71.2783641,46.7419385],[-71.2777693,46.7419009],[-71.2775998,46.7418074],[-71.2775858,46.741433],[-71.2785043,46.7412438],[-71.2786531,46.7411363],[-71.2788221,46.7412148]]]}},{"type":"Feature","properties":{"id":"parc-judith-jasmin-602944","name":"Parc Judith-Jasmin","type":"park"},"geometry":{"type":"Polygon","coordinates":[[[-71.2983769,46.7306133],[-71.2980745,46.7304389],[-71.2982041,46.7300045],[-71.2987107,46.7301152],[-71.2986508,46.7302257],[-71.2987107,46.7303351],[-71.2983769,46.7306133]]]}},{"type":"Feature","properties":{"id":"parc-laure-conan-602945","name":"Parc Laure-Conan","type":"park"},"geometry":{"type":"Polygon","coordinates":[[[-71.3009541,46.723426],[-71.3015552,46.7237188],[-71.3012285,46.7241544],[-71.3007612,46.7239087],[-71.3009541,46.723426]]]}},{"type":"Feature","properties":{"id":"parc-de-l-envol-602946","name":"Parc de l'Envol","type":"park"},"geometry":{"type":"Polygon","coordinates":[[[-71.2997869,46.7241814],[-71.2999281,46.7240224],[-71.3004168,46.7243821],[-71.3008833,46.7245988],[-71.3008966,46.7260305],[-71.3006319,46.7267412],[-71.3004333,46.7269529],[-71.2991299,46.7259945],[-71.2992586,46.7255276],[-71.2994531,46.7255373],[-71.2997869,46.7241814]]]}},{"type":"Feature","properties":{"id":"parc-de-la-jardiniere-602947","name":"Parc de la Jardinière","type":"park"},"geometry":{"type":"Polygon","coordinates":[[[-71.290345,46.7285005],[-71.2911065,46.729018],[-71.29095,46.7291181],[-71.290175,46.7290107],[-71.290345,46.7285005]]]}},{"type":"Feature","properties":{"id":"parc-du-replat-602948","name":"Parc du Replat","type":"park"},"geometry":{"type":"Polygon","coordinates":[[[-71.2932166,46.7253004],[-71.2927885,46.7247757],[-71.2931292,46.724644],[-71.2936453,46.724687],[-71.2935802,46.7249379],[-71.2937237,46.7251017],[-71.2932166,46.7253004]]]}},{"type":"Feature","properties":{"id":"carre-huot-995384","name":"Carré Huot","type":"park"},"geometry":{"type":"Polygon","coordinates":[[[-71.3019726,46.7124508],[-71.3024873,46.7128312],[-71.3025215,46.7129368],[-71.3020323,46.7132633],[-71.3014893,46.7129325],[-71.3014248,46.7127837],[-71.3019726,46.7124508]]]}},{"type":"Feature","properties":{"id":"parc-de-la-rochelle-996007","name":"Parc de La Rochelle","type":"park"},"geometry":{"type":"Polygon","coordinates":[[[-71.3369153,46.7118195],[-71.336611,46.7113603],[-71.3371629,46.7111919],[-71.3374607,46.7116618],[-71.3369153,46.7118195]]]}},{"type":"Feature","properties":{"id":"parc-du-tailleur-332609","name":"Parc du Tailleur","type":"park"},"geometry":{"type":"Polygon","coordinates":[[[-71.1626063,46.8123798],[-71.1629456,46.8121031],[-71.1632276,46.8124491],[-71.1630053,46.8126587],[-71.1626063,46.8123798]]]}},{"type":"Feature","properties":{"id":"quai-paquet-336962","name":"Quai Paquet","type":"park"},"geometry":{"type":"Polygon","coordinates":[[[-71.18625,46.8130119],[-71.1856975,46.812914],[-71.1862349,46.8118667],[-71.1866765,46.8105828],[-71.1876396,46.8106489],[-71.1875386,46.8111709],[-71.1882286,46.8112379],[-71.1882819,46.8114305],[-71.1874056,46.8132056],[-71.1866572,46.8128313],[-71.18625,46.8130119]]]}},{"type":"Feature","properties":{"id":"parc-des-passeurs-337941","name":"Parc des Passeurs","type":"park"},"geometry":{"type":"Polygon","coordinates":[[[-71.1790049,46.8223041],[-71.1789865,46.8219568],[-71.1792535,46.8217203],[-71.1798028,46.8214837],[-71.1802434,46.8215641],[-71.1790049,46.8223041]]]}},{"type":"Feature","properties":{"id":"parc-l-art-de-vivre-633518","name":"Parc L'Art-de-Vivre","type":"park"},"geometry":{"type":"Polygon","coordinates":[[[-71.2991898,46.6521203],[-71.2994696,46.6524773],[-71.2990936,46.6526283],[-71.2986192,46.6523498],[-71.2991898,46.6521203]]]}},{"type":"Feature","properties":{"id":"parc-de-levis-6-635337","name":"Parc de Lévis (6)","type":"park"},"geometry":{"type":"Polygon","coordinates":[[[-71.3161354,46.6511799],[-71.3166046,46.6513719],[-71.3166812,46.6514663],[-71.3166136,46.6516196],[-71.3167196,46.6516444],[-71.316882,46.6515081],[-71.317112,46.6515639],[-71.3171256,46.6517187],[-71.3168933,46.6519246],[-71.3166812,46.6518054],[-71.3163587,46.6520004],[-71.3156573,46.6515112],[-71.3161354,46.6511799]]]}},{"type":"Feature","properties":{"id":"terrain-de-soccer-635338","name":"Terrain de soccer","type":"park"},"geometry":{"type":"Polygon","coordinates":[[[-71.3288682,46.6596359],[-71.3294711,46.6591743],[-71.3305963,46.6598665],[-71.3299934,46.6603282],[-71.3288682,46.6596359]]]}},{"type":"Feature","properties":{"id":"terrain-de-baseball-635339","name":"Terrain de Baseball","type":"park"},"geometry":{"type":"Polygon","coordinates":[[[-71.3326708,46.6610008],[-71.3321285,46.6614211],[-71.3314076,46.6614036],[-71.3308271,46.6610358],[-71.3317139,46.6603134],[-71.3326708,46.6610008]]]}},{"type":"Feature","properties":{"id":"terrain-de-soccer-2-635340","name":"Terrain de soccer (2)","type":"park"},"geometry":{"type":"Polygon","coordinates":[[[-71.3328207,46.6592743],[-71.3317504,46.6600199],[-71.3310071,46.6595173],[-71.3320774,46.6587717],[-71.3328207,46.6592743]]]}},{"type":"Feature","properties":{"id":"terrains-de-tenis-635342","name":"Terrains de tenis","type":"park"},"geometry":{"type":"Polygon","coordinates":[[[-71.3323566,46.6604451],[-71.3321742,46.6601211],[-71.3326302,46.6600181],[-71.3325497,46.6598413],[-71.3330003,46.6597346],[-71.3331613,46.6600438],[-71.3327267,46.660158],[-71.3328179,46.6603236],[-71.3323566,46.6604451]]]}},{"type":"Feature","properties":{"id":"terrains-de-soccer-635999","name":"Terrains de soccer","type":"park"},"geometry":{"type":"Polygon","coordinates":[[[-71.2980322,46.6509189],[-71.2986581,46.6506169],[-71.2989502,46.650846],[-71.2982826,46.651135],[-71.2980322,46.6509189]]]}},{"type":"Feature","properties":{"id":"terrain-de-baseball-636000","name":"Terrain de baseball","type":"park"},"geometry":{"type":"Polygon","coordinates":[[[-71.3000388,46.6512626],[-71.2996823,46.6513642],[-71.2992688,46.651372],[-71.2988705,46.6510465],[-71.2996254,46.650734],[-71.3000388,46.6512626]]]}},{"type":"Feature","properties":{"id":"parc-de-levis-7-639758","name":"Parc de Lévis (7)","type":"park"},"geometry":{"type":"Polygon","coordinates":[[[-71.2967656,46.6593845],[-71.2976883,46.6600251],[-71.2974321,46.6602009],[-71.2964813,46.659587],[-71.2967656,46.6593845]]]}},{"type":"Feature","properties":{"id":"parc-plein-soleil-639759","name":"Parc Plein-Soleil","type":"park"},"geometry":{"type":"Polygon","coordinates":[[[-71.2964813,46.659587],[-71.296849,46.6598495],[-71.2964695,46.6598714],[-71.2963259,46.6597816],[-71.2963163,46.6596809],[-71.2964813,46.659587]]]}},{"type":"Feature","properties":{"id":"parc-lallemand-030354","name":"Parc Lallemand","type":"park"},"geometry":{"type":"Polygon","coordinates":[[[-71.1129147,46.8191174],[-71.1128992,46.8192839],[-71.1121869,46.8197502],[-71.1112698,46.8191106],[-71.112255,46.8183992],[-71.1131102,46.8189779],[-71.1129147,46.8191174]]]}},{"type":"Feature","properties":{"id":"parc-de-levis-8-967161","name":"Parc de Lévis (8)","type":"park"},"geometry":{"type":"Polygon","coordinates":[[[-71.329488,46.6647214],[-71.3291613,46.6644827],[-71.3296906,46.6639717],[-71.3300291,46.6642103],[-71.329488,46.6647214]]]}},{"type":"Feature","properties":{"id":"parc-des-grandes-pointes-355111","name":"Parc des Grandes Pointes","type":"park"},"geometry":{"type":"Polygon","coordinates":[[[-71.3319213,46.6617765],[-71.3316162,46.661586],[-71.3284666,46.6595931],[-71.3295442,46.6589645],[-71.330621,46.6595641],[-71.3319823,46.6586624],[-71.3338243,46.6599034],[-71.3319213,46.6617765]]]}},{"type":"Feature","properties":{"id":"parc-joseph-henri-labrie-324564","name":"Parc Joseph-Henri-Labrie","type":"park"},"geometry":{"type":"Polygon","coordinates":[[[-71.1340578,46.774444],[-71.1333118,46.7739211],[-71.134037,46.7735508],[-71.1346558,46.7739633],[-71.1340578,46.774444]]]}},{"type":"Feature","properties":{"id":"parc-jalbert-622552","name":"Parc Jalbert","type":"park"},"geometry":{"type":"Polygon","coordinates":[[[-71.2099302,46.7719612],[-71.2100036,46.7716001],[-71.2104489,46.7712498],[-71.2107262,46.7715084],[-71.2099302,46.7719612]]]}},{"type":"Feature","properties":{"id":"parc-des-arbres-fruitiers-305655","name":"Parc des Arbres-Fruitiers","type":"park"},"geometry":{"type":"Polygon","coordinates":[[[-71.1291476,46.8245376],[-71.128632,46.8245161],[-71.1280339,46.8244809],[-71.1284233,46.8239732],[-71.1290858,46.8240653],[-71.1291476,46.8245376]]]}},{"type":"Feature","properties":{"id":"parc-des-hunes-316409","name":"Parc des Hunes","type":"park"},"geometry":{"type":"Polygon","coordinates":[[[-71.132678,46.8243922],[-71.1322082,46.8241721],[-71.1323623,46.8235424],[-71.1327274,46.8234432],[-71.1334381,46.8239702],[-71.1333675,46.8242298],[-71.132678,46.8243922]]]}},{"type":"Feature","properties":{"id":"parc-de-la-piscine-davie-316415","name":"Parc de la Piscine-Davie","type":"park"},"geometry":{"type":"Polygon","coordinates":[[[-71.1642177,46.8261737],[-71.1649998,46.827307],[-71.1651656,46.8274319],[-71.1654023,46.8278464],[-71.1646838,46.827824],[-71.1642103,46.8270376],[-71.163846,46.8271204],[-71.1636358,46.8269444],[-71.163585,46.8267068],[-71.1641418,46.8265849],[-71.1639762,46.8262409],[-71.1642177,46.8261737]]]}},{"type":"Feature","properties":{"id":"parc-de-la-bonne-entente-316418","name":"Parc de la Bonne-Entente","type":"park"},"geometry":{"type":"Polygon","coordinates":[[[-71.1760766,46.8183263],[-71.1761632,46.8183908],[-71.1758973,46.8185786],[-71.1755364,46.818319],[-71.1760472,46.8179328],[-71.1763449,46.8181348],[-71.1760766,46.8183263]]]}},{"type":"Feature","properties":{"id":"parc-georges-maranda-318974","name":"Parc Georges-Maranda","type":"park"},"geometry":{"type":"Polygon","coordinates":[[[-71.1728992,46.8053113],[-71.1695891,46.8078217],[-71.1690349,46.8071696],[-71.1681903,46.8066444],[-71.16776,46.8065244],[-71.1671913,46.8064889],[-71.1672662,46.8056688],[-71.1674693,46.805411],[-71.1679943,46.805035],[-71.1684268,46.8053164],[-71.1685269,46.805311],[-71.169079,46.8049167],[-71.1689677,46.8047741],[-71.1699388,46.8040054],[-71.1698946,46.803964],[-71.1700113,46.8039892],[-71.1713815,46.802919],[-71.1719737,46.8033519],[-71.1714396,46.8037019],[-71.1732816,46.8049196],[-71.1728992,46.8053113]]]}},{"type":"Feature","properties":{"id":"parc-ecole-sainte-marie-915214","name":"Parc-école Sainte-Marie","type":"park"},"geometry":{"type":"Polygon","coordinates":[[[-71.1471169,46.8271712],[-71.1469011,46.8270209],[-71.1482021,46.8261125],[-71.1486032,46.8263726],[-71.1478207,46.8269372],[-71.148125,46.8271324],[-71.1477842,46.8273393],[-71.1473771,46.8270967],[-71.1471169,46.8271712]]]}},{"type":"Feature","properties":{"id":"parc-de-l-ancre-679166","name":"Parc de l'Ancre","type":"park"},"geometry":{"type":"Polygon","coordinates":[[[-71.2643113,46.7470274],[-71.2636312,46.7473003],[-71.2633592,46.7470365],[-71.264156,46.7468217],[-71.2643113,46.7470274]]]}},{"type":"Feature","properties":{"id":"parc-de-l-anse-679172","name":"Parc de l'Anse","type":"park"},"geometry":{"type":"Polygon","coordinates":[[[-71.2486548,46.7542246],[-71.248511,46.7535966],[-71.2486546,46.7530124],[-71.2494413,46.7523153],[-71.2499849892336,46.75264769432309],[-71.2496289,46.7530486],[-71.2495023,46.7533693],[-71.2495976,46.7537685],[-71.2486548,46.7542246]]]}},{"type":"Feature","properties":{"id":"parc-elizabeth-johnson-davie-716793","name":"Parc Elizabeth-Johnson-Davie","type":"park"},"geometry":{"type":"Polygon","coordinates":[[[-71.1848449,46.8144994],[-71.1849594,46.8140891],[-71.1856975,46.812914],[-71.18625,46.8130119],[-71.1858655,46.8136769],[-71.1855708,46.8144254],[-71.1857457,46.8152769],[-71.1854841,46.8159534],[-71.1854996,46.8160726],[-71.1856892,46.8161742],[-71.1855103,46.8167364],[-71.185361,46.8167536],[-71.185237,46.8171895],[-71.1849625,46.8172303],[-71.1844875,46.8170123],[-71.1847237,46.8161257],[-71.1848449,46.8144994]]]}},{"type":"Feature","properties":{"id":"parc-de-la-greve-jolliet-730759","name":"Parc de la Grève-Jolliet","type":"park"},"geometry":{"type":"Polygon","coordinates":[[[-71.1718977,46.8265022],[-71.1727094,46.8261262],[-71.1728352,46.8262482],[-71.1722781,46.8265644],[-71.1721603,46.8267398],[-71.1718977,46.8265022]]]}},{"type":"Feature","properties":{"id":"belvedere-marie-rollet-730775","name":"Belvédère Marie-Rollet","type":"park"},"geometry":{"type":"Polygon","coordinates":[[[-71.1856754,46.8097413],[-71.1854732,46.8096889],[-71.185526,46.8095743],[-71.1857281,46.809619],[-71.1856754,46.8097413]]]}},{"type":"Feature","properties":{"id":"parc-de-la-jetee-888140","name":"Parc de la Jetée","type":"park"},"geometry":{"type":"Polygon","coordinates":[[[-71.2041613,46.7807863],[-71.2043542,46.7810585],[-71.2042158,46.7812031],[-71.2031777,46.7811031],[-71.2027415,46.781246],[-71.2021376,46.7807802],[-71.2017991,46.780678],[-71.2021989,46.7804243],[-71.202716,46.7806378],[-71.2029425,46.7803787],[-71.2036754,46.7807984],[-71.2038499,46.7807214],[-71.2041613,46.7807863]]]}},{"type":"Feature","properties":{"id":"parc-de-la-falaise-2-888267","name":"Parc de la Falaise (2)","type":"park"},"geometry":{"type":"Polygon","coordinates":[[[-71.1933553,46.7889291],[-71.192839,46.7888295],[-71.1926864,46.7887571],[-71.1932872,46.788635],[-71.19336,46.788717],[-71.1933553,46.7889291]]]}},{"type":"Feature","properties":{"id":"parc-du-chasseur-764484","name":"Parc du Chasseur","type":"park"},"geometry":{"type":"Polygon","coordinates":[[[-71.191808,46.7279137],[-71.1915306,46.7281042],[-71.1905542,46.7274169],[-71.1910044,46.7271224],[-71.1916007,46.7275472],[-71.1914662,46.7276534],[-71.191808,46.7279137]]]}},{"type":"Feature","properties":{"id":"parc-des-ainees-911918","name":"Parc des Aînées","type":"park"},"geometry":{"type":"Polygon","coordinates":[[[-71.3038216,46.6525547],[-71.303583,46.6523857],[-71.3040372,46.6520836],[-71.3042758,46.6522526],[-71.3038216,46.6525547]]]}},{"type":"Feature","properties":{"id":"parc-jean-de-lauzon-912141","name":"Parc Jean-de-Lauzon","type":"park"},"geometry":{"type":"Polygon","coordinates":[[[-71.3055088,46.6508622],[-71.3067631,46.6504412],[-71.3068719,46.650503],[-71.3059279,46.6511304],[-71.3055088,46.6508622]]]}},{"type":"Feature","properties":{"id":"parc-jorcan-393360","name":"Parc Jorcan","type":"park"},"geometry":{"type":"Polygon","coordinates":[[[-71.2015728,46.7194114],[-71.2008937,46.719721],[-71.2004578,46.7192713],[-71.2009806,46.7190052],[-71.2007093,46.7186984],[-71.2008444,46.718636],[-71.2010478,46.7189874],[-71.2011327,46.7189472],[-71.2015728,46.7194114]]]}},{"type":"Feature","properties":{"id":"parc-de-levis-9-663874","name":"Parc de Lévis (9)","type":"park"},"geometry":{"type":"Polygon","coordinates":[[[-71.2436909,46.7563577],[-71.2434483,46.7562021],[-71.244817,46.7555929],[-71.2456775,46.7553696],[-71.2463418,46.7552754],[-71.2475224,46.7553272],[-71.2481655,46.755395],[-71.2483987,46.7556464],[-71.2478841,46.7557184],[-71.2472051,46.7554797],[-71.2464508,46.7554614],[-71.2455574,46.7556437],[-71.2436909,46.7563577]]]}},{"type":"Feature","properties":{"id":"place-de-l-hotel-de-ville-529178","name":"Place de l'Hôtel-de-Ville","type":"park"},"geometry":{"type":"Polygon","coordinates":[[[-71.2407659,46.7578356],[-71.2409715,46.7580116],[-71.2413021,46.7578555],[-71.241484,46.7580053],[-71.2402061,46.7587666],[-71.2397425,46.7583634],[-71.2400188,46.7582181],[-71.2401991,46.758392],[-71.2403595,46.7583074],[-71.2405198,46.7584607],[-71.2408405,46.7582822],[-71.240904,46.7580854],[-71.2406835,46.7578931],[-71.2407659,46.7578356]]]}},{"type":"Feature","properties":{"id":"parc-de-levis-10-875315","name":"Parc de Lévis (10)","type":"park"},"geometry":{"type":"Polygon","coordinates":[[[-71.1698336,46.8024671],[-71.1696123,46.8027289],[-71.1697459,46.8029911],[-71.1699272,46.8029396],[-71.169973,46.803012],[-71.1697864,46.8030704],[-71.1698297,46.8031553],[-71.1697534,46.8031796],[-71.1696112,46.8029153],[-71.1687399,46.8031521],[-71.1688697,46.8034044],[-71.1685483,46.8035036],[-71.1682276,46.8032353],[-71.1683421,46.8031487],[-71.1681051,46.802843],[-71.1677855,46.8029126],[-71.1677415,46.8029804],[-71.1678202,46.8030667],[-71.1676867,46.8030943],[-71.1677407,46.8033121],[-71.1675657,46.8033957],[-71.1672888,46.8033765],[-71.1668844,46.8035588],[-71.1668589,46.8037334],[-71.1665787,46.8040123],[-71.1666754,46.8040816],[-71.1669671,46.803891],[-71.1670289,46.8039288],[-71.1666813,46.8040926],[-71.1667196,46.8041351],[-71.1665612,46.8040399],[-71.1661136,46.8043729],[-71.1660361,46.8043538],[-71.16603,46.8042744],[-71.1663886,46.8039051],[-71.1696871,46.8009938],[-71.1698914,46.8009205],[-71.1702714,46.8011151],[-71.1700367,46.801315],[-71.1697714,46.8012912],[-71.1695965,46.801426],[-71.1695189,46.8013667],[-71.1692417,46.8016559],[-71.169684,46.8017849],[-71.1699435,46.8017681],[-71.1705041,46.8014807],[-71.1708152,46.8016923],[-71.1704853,46.8018264],[-71.1705309,46.8018741],[-71.170261,46.802028],[-71.1702631,46.8021274],[-71.170024,46.802155],[-71.1699408,46.8022523],[-71.1700374,46.8024084],[-71.1698336,46.8024671]]]}},{"type":"Feature","properties":{"id":"parc-de-la-riviere-etchemin-084485","name":"Parc de la Rivière-Etchemin","type":"park"},"geometry":{"type":"Polygon","coordinates":[[[-71.20420940199077,46.741388594169614],[-71.2041427,46.7403037],[-71.2051785,46.7399587],[-71.2068023,46.7395929],[-71.2091647,46.7394893],[-71.2095805,46.7395576],[-71.2099631,46.7397229],[-71.2111528,46.7405691],[-71.2134069,46.7410887],[-71.2133971,46.7415092],[-71.2129563,46.7420442],[-71.213543,46.7428805],[-71.2159447,46.742249],[-71.2177221,46.7420807],[-71.2178145,46.7421862],[-71.2175397,46.7424449],[-71.2174856,46.7426315],[-71.2175818,46.742818],[-71.2187395,46.7438437],[-71.2174064,46.7445328],[-71.2165878,46.7455265],[-71.2155237,46.7456787],[-71.2151846,46.7460152],[-71.2157576,46.7463838],[-71.2167048,46.7462797],[-71.2176052,46.7471851],[-71.2171023,46.747754],[-71.2174882,46.7482188],[-71.218052,46.7483351],[-71.2197263,46.7482902],[-71.2204867,46.7481504],[-71.2213352,46.7491083],[-71.2226301,46.7501013],[-71.2217015,46.7505929],[-71.2213459,46.7511363],[-71.2218086,46.7512069],[-71.2220519,46.7514306],[-71.2197768,46.7522052],[-71.2194423,46.7519487],[-71.2188551,46.7519942],[-71.2180166,46.7529886],[-71.2178326,46.7530579],[-71.2229998,46.7567684],[-71.2244521,46.757633],[-71.226012,46.7583912],[-71.2257541,46.7590173],[-71.227616,46.759285],[-71.22750914648731,46.75946718497991],[-71.2270299,46.7594339],[-71.2245017,46.7597386],[-71.2228681,46.7601599],[-71.2205878,46.7599568],[-71.219238,46.7601003],[-71.2179695,46.7604189],[-71.2169974,46.7605111],[-71.2166364,46.7602893],[-71.2156239,46.7591833],[-71.2151155,46.7589025],[-71.2143139,46.758696],[-71.2129818,46.7586622],[-71.2128774,46.7585766],[-71.2128376,46.7581829],[-71.2126625,46.7580016],[-71.2120825,46.7577973],[-71.2113204,46.7579365],[-71.2109152,46.7578655],[-71.2107301,46.7576528],[-71.2107907,46.7571808],[-71.2113017,46.756725],[-71.2117642,46.7564764],[-71.2126314,46.7554943],[-71.2128863,46.7549503],[-71.2134861,46.754461],[-71.2135416,46.7542175],[-71.2134941,46.7540323],[-71.2131332,46.7538105],[-71.2129093,46.7535682],[-71.2128462,46.753264],[-71.2128953,46.7531049],[-71.2135947,46.7527095],[-71.2154285,46.752352],[-71.2168352,46.7518889],[-71.2172712,46.7516618],[-71.2175594,46.7513278],[-71.2174394,46.7503668],[-71.2172013,46.7501494],[-71.216698,46.75],[-71.2149917,46.7497258],[-71.2132804,46.748527],[-71.21279,46.747849],[-71.2121293,46.7462251],[-71.2123466,46.744771],[-71.2125049,46.744201],[-71.2127645,46.7436487],[-71.2128259,46.7432728],[-71.2126993,46.7426163],[-71.2116771,46.7416991],[-71.2106913,46.7410597],[-71.2092793,46.7404106],[-71.2082761,46.7404846],[-71.2052172,46.7410856],[-71.20420940199077,46.741388594169614]]]}},{"type":"Feature","properties":{"id":"parc-des-compositeurs-047021","name":"Parc des Compositeurs","type":"park"},"geometry":{"type":"Polygon","coordinates":[[[-71.1579538,46.7956898],[-71.1569951,46.7950393],[-71.1566678,46.7953739],[-71.1564995,46.7953061],[-71.1566906,46.7948693],[-71.1576913,46.7941046],[-71.158817,46.7948912],[-71.1579538,46.7956898]]]}},{"type":"Feature","properties":{"id":"parc-du-moulin-724559","name":"Parc du Moulin","type":"park"},"geometry":{"type":"Polygon","coordinates":[[[-71.1959494,46.7325436],[-71.1960147,46.7320815],[-71.1968077,46.7325875],[-71.1961437,46.7327084],[-71.1959494,46.7325436]]]}},{"type":"Feature","properties":{"id":"parc-lavoisier-211840","name":"Parc Lavoisier","type":"park"},"geometry":{"type":"Polygon","coordinates":[[[-71.2531207,46.7450406],[-71.252187,46.7456553],[-71.2526307,46.745926],[-71.252565,46.7459729],[-71.2521333,46.7457067],[-71.251672,46.7460633],[-71.2513018,46.7458574],[-71.2511126,46.7458787],[-71.2506716,46.7455612],[-71.250642,46.7451186],[-71.2514145,46.7446333],[-71.2522352,46.7447142],[-71.252364,46.7446628],[-71.2529976,46.7449201],[-71.2531207,46.7450406]]]}},{"type":"Feature","properties":{"id":"parc-de-la-pointe-benson-519093","name":"Parc de la Pointe-Benson","type":"park"},"geometry":{"type":"Polygon","coordinates":[[[-71.2501403,46.7540411],[-71.2508335,46.7540522],[-71.2510081,46.7541474],[-71.250947,46.7545234],[-71.2506512,46.7547979],[-71.25010522016282,46.755108725189224],[-71.2483987,46.7556464],[-71.2481655,46.755395],[-71.2487161,46.7552938],[-71.2488543,46.7551361],[-71.2488177,46.7547237],[-71.2501403,46.7540411]]]}},{"type":"Feature","properties":{"id":"parc-du-manoir-wade-519094","name":"Parc du Manoir-Wade","type":"park"},"geometry":{"type":"Polygon","coordinates":[[[-71.2480838,46.7549575],[-71.2478405,46.7550448],[-71.2471215,46.7546492],[-71.2485686,46.7539605],[-71.2488204,46.7548226],[-71.2482804,46.7552139],[-71.2480838,46.7549575]]]}},{"type":"Feature","properties":{"id":"parc-de-la-halte-624226","name":"Parc de la Halte","type":"park"},"geometry":{"type":"Polygon","coordinates":[[[-71.2596825,46.7002996],[-71.2601062,46.700263],[-71.2619427,46.7018021],[-71.2603483,46.7025219],[-71.2584049,46.7008673],[-71.2596825,46.7002996]]]}},{"type":"Feature","properties":{"id":"parc-du-domaine-etchemin-081561","name":"Parc du Domaine-Etchemin","type":"park"},"geometry":{"type":"Polygon","coordinates":[[[-71.22833,46.7600168],[-71.2285683,46.7601223],[-71.2288886,46.7601114],[-71.229703,46.7606372],[-71.2301374,46.7614627],[-71.2304223,46.7617692],[-71.2305648,46.7620566],[-71.230464,46.7625751],[-71.2306181,46.7628177],[-71.2306037,46.7632052],[-71.230164,46.7632967],[-71.2299849,46.763608],[-71.2306942,46.7638578],[-71.2305618,46.7641168],[-71.2293126,46.7637493],[-71.2282151,46.7640054],[-71.2279479,46.7639136],[-71.2274179,46.7632521],[-71.2280798,46.7628451],[-71.2287096,46.7621461],[-71.2275365,46.7610237],[-71.2278972,46.76087],[-71.2278947,46.7607295],[-71.2276428,46.7606426],[-71.2279691,46.7602193],[-71.22833,46.7600168]]]}},{"type":"Feature","properties":{"id":"parc-du-pont-etchemin-081562","name":"Parc du Pont-Etchemin","type":"park"},"geometry":{"type":"Polygon","coordinates":[[[-71.229125,46.7594216],[-71.229899,46.7595083],[-71.2297193,46.7596035],[-71.229988,46.7597429],[-71.2301658,46.759944],[-71.2295053,46.7598809],[-71.2285536,46.7595956],[-71.2289496,46.7589193],[-71.2292243,46.758977],[-71.229125,46.7594216]]]}},{"type":"Feature","properties":{"id":"parc-du-rigolet-081563","name":"Parc du Rigolet","type":"park"},"geometry":{"type":"Polygon","coordinates":[[[-71.2394441,46.7592507],[-71.239774,46.7601878],[-71.2396158,46.7604046],[-71.2388829,46.7604159],[-71.238795,46.7605552],[-71.2386965,46.7605673],[-71.2372765,46.7606146],[-71.2363973,46.7605221],[-71.2361882,46.760571],[-71.2362637,46.7606713],[-71.2361689,46.7607368],[-71.2357894,46.7607226],[-71.2354414,46.7608553],[-71.2341735,46.7604399],[-71.2328714,46.7607688],[-71.232248,46.7608114],[-71.2321924,46.7609319],[-71.2316338,46.7606485],[-71.2315693,46.7604853],[-71.2298059,46.7595981],[-71.229899,46.7595083],[-71.2315948,46.7599678],[-71.231674,46.7604327],[-71.2320731,46.76041],[-71.2321495,46.7605934],[-71.2345255,46.7602],[-71.2370782,46.7596536],[-71.2371213,46.7594682],[-71.2386829,46.7590658],[-71.2387632,46.7592429],[-71.2392357,46.7591248],[-71.2394441,46.7592507]]]}},{"type":"Feature","properties":{"id":"place-du-docteur-lachance-081568","name":"Place du Docteur-Lachance","type":"park"},"geometry":{"type":"Polygon","coordinates":[[[-71.2378008,46.757414],[-71.237745,46.757223],[-71.2378724,46.7569221],[-71.2385086,46.7573652],[-71.2378008,46.757414]]]}},{"type":"Feature","properties":{"id":"parc-de-l-alsace-081597","name":"Parc de l'Alsace","type":"park"},"geometry":{"type":"Polygon","coordinates":[[[-71.1888674,46.7169354],[-71.1882789,46.7168171],[-71.1879136,46.7172755],[-71.1872069,46.717307],[-71.1867269,46.7169623],[-71.1880857,46.7159833],[-71.1885718,46.7162069],[-71.1885606,46.7162996],[-71.1882763,46.7165292],[-71.1885452,46.7167195],[-71.1889346,46.716815],[-71.1888674,46.7169354]]]}},{"type":"Feature","properties":{"id":"parc-de-la-tourbiere-081604","name":"Parc de la Tourbière","type":"park"},"geometry":{"type":"Polygon","coordinates":[[[-71.197283,46.7111116],[-71.196878,46.710764],[-71.1971807,46.7106441],[-71.1974199,46.7108639],[-71.197283,46.7111116]]]}},{"type":"Feature","properties":{"id":"parc-saint-louis-260675","name":"Parc Saint-Louis","type":"park"},"geometry":{"type":"Polygon","coordinates":[[[-71.1866003,46.7012882],[-71.1857223,46.7016892],[-71.1852147,46.7011081],[-71.1860803,46.7007169],[-71.1866003,46.7012882]]]}},{"type":"Feature","properties":{"id":"parc-de-la-voie-lactee-260703","name":"Parc de la Voie-Lactée","type":"park"},"geometry":{"type":"Polygon","coordinates":[[[-71.2566696,46.7336361],[-71.257304,46.7341174],[-71.2564989,46.7347357],[-71.255523,46.7340243],[-71.256075,46.7332804],[-71.2569934,46.7333024],[-71.2570207,46.7333974],[-71.2566696,46.7336361]]]}},{"type":"Feature","properties":{"id":"parc-bois-guillaume-260705","name":"Parc Bois-Guillaume","type":"park"},"geometry":{"type":"Polygon","coordinates":[[[-71.217186,46.7649818],[-71.2174989,46.7649917],[-71.2176126,46.7654127],[-71.2185036,46.7652054],[-71.2185036,46.7654703],[-71.217016,46.7656878],[-71.217186,46.7649818]]]}},{"type":"Feature","properties":{"id":"parc-de-saint-telesphore-260710","name":"Parc de Saint-Télesphore","type":"park"},"geometry":{"type":"Polygon","coordinates":[[[-71.2114919,46.7656057],[-71.2107617,46.7651248],[-71.2118788,46.7643597],[-71.2123937,46.7647045],[-71.212202,46.7649449],[-71.2115785,46.7653167],[-71.2117393,46.7654433],[-71.2114919,46.7656057]]]}},{"type":"Feature","properties":{"id":"parc-de-levis-11-650356","name":"Parc de Lévis (11)","type":"park"},"geometry":{"type":"Polygon","coordinates":[[[-71.327426,46.7267781],[-71.3272218,46.726444],[-71.3279155,46.7260935],[-71.3284984,46.7260077],[-71.3283841,46.7262289],[-71.3285145,46.7265976],[-71.327426,46.7267781]]]}},{"type":"Feature","properties":{"id":"parc-renaud-maillette-639558","name":"Parc Renaud-Maillette","type":"park"},"geometry":{"type":"Polygon","coordinates":[[[-71.2952843,46.688393],[-71.2958977,46.6895062],[-71.2952584,46.6896714],[-71.2957991,46.6905313],[-71.2929864,46.6918015],[-71.2924396,46.6910045],[-71.2921831,46.6909915],[-71.2918134,46.6902523],[-71.2900852,46.6906616],[-71.289787,46.6901203],[-71.2913197,46.6897434],[-71.2904158,46.6880984],[-71.2918709,46.6877251],[-71.2924058,46.6885967],[-71.2934635,46.6885803],[-71.293718,46.6886731],[-71.2941832,46.6886622],[-71.2945968,46.6883512],[-71.2948035,46.6885994],[-71.2952843,46.688393]]]}},{"type":"Feature","properties":{"id":"parc-de-levis-12-639563","name":"Parc de Lévis (12)","type":"park"},"geometry":{"type":"Polygon","coordinates":[[[-71.2819609,46.6900348],[-71.2823377,46.6904715],[-71.2820672,46.6906456],[-71.2814315,46.6903199],[-71.2819609,46.6900348]]]}},{"type":"Feature","properties":{"id":"parc-de-levis-13-639564","name":"Parc de Lévis (13)","type":"park"},"geometry":{"type":"Polygon","coordinates":[[[-71.279138,46.6993461],[-71.2796339,46.6992955],[-71.2797167,46.6994745],[-71.2793287,46.6996589],[-71.279138,46.6993461]]]}},{"type":"Feature","properties":{"id":"parc-du-lac-baie-d-or-196463","name":"Parc du Lac-Baie-d'Or","type":"park"},"geometry":{"type":"Polygon","coordinates":[[[-71.1340563,46.7697168],[-71.1333432,46.770147],[-71.132408,46.769575],[-71.1324806,46.7695036],[-71.1333442,46.7699672],[-71.1336635,46.7698237],[-71.1336408,46.769693],[-71.13279,46.7690125],[-71.1325048,46.7688779],[-71.1313311,46.7688093],[-71.1311867,46.768583],[-71.1315838,46.7682823],[-71.1315653,46.768187],[-71.1340563,46.7697168]]]}},{"type":"Feature","properties":{"id":"parc-archimede-688765","name":"Parc Archimède","type":"park"},"geometry":{"type":"Polygon","coordinates":[[[-71.1804831,46.7551204],[-71.1798785,46.7556096],[-71.1798051,46.7555492],[-71.1797459,46.7549025],[-71.179923,46.754723],[-71.1804831,46.7551204]]]}},{"type":"Feature","properties":{"id":"parc-valero-les-ecarts-688767","name":"Parc Valéro-Les Écarts","type":"park"},"geometry":{"type":"Polygon","coordinates":[[[-71.1955489,46.7666395],[-71.1896598,46.7705336],[-71.1886719,46.7698001],[-71.1875472,46.77011],[-71.1853236,46.7713319],[-71.1833068,46.7698089],[-71.1809281,46.7710397],[-71.177528,46.7714116],[-71.1752269,46.7725715],[-71.1728905,46.7712985],[-71.1747848,46.7690709],[-71.1749751,46.7686098],[-71.1745117,46.7685925],[-71.1760211,46.7666101],[-71.1783815,46.7674889],[-71.178787,46.7667556],[-71.1791022,46.7667163],[-71.179279,46.7668215],[-71.1793199,46.7670911],[-71.1792758,46.7672899],[-71.1791197,46.7673435],[-71.1790201,46.7675177],[-71.1790774,46.7677343],[-71.1793598,46.767801],[-71.1796737,46.7676176],[-71.1798618,46.7673619],[-71.1805224,46.7671573],[-71.1809178,46.767197],[-71.1810993,46.7672939],[-71.1813278,46.7672599],[-71.1819851,46.7666712],[-71.18239,46.7667981],[-71.1830462,46.7667164],[-71.1833934,46.7668204],[-71.18445,46.7663412],[-71.1849052,46.766371],[-71.1849128,46.7666106],[-71.1847275,46.7666701],[-71.1846489,46.7669117],[-71.1848801,46.7670791],[-71.1856347,46.7668271],[-71.1855999,46.7665954],[-71.1853904,46.7663504],[-71.1857003,46.7659546],[-71.1871084,46.765852],[-71.1879824,46.7660784],[-71.1878552,46.7661302],[-71.1877801,46.766359],[-71.1878491,46.7665308],[-71.1883394,46.7666727],[-71.1890353,46.7666499],[-71.1897394,46.7664666],[-71.1893919,46.7658556],[-71.1892953,46.7652933],[-71.1894467,46.7649798],[-71.1896715,46.7650032],[-71.1901447,46.7654651],[-71.1904668,46.7661937],[-71.1906871,46.7663202],[-71.1909648,46.7663951],[-71.1918526,46.7662805],[-71.1919811,46.7663726],[-71.1919462,46.7665068],[-71.1915728,46.7667699],[-71.1916487,46.7669053],[-71.1919686,46.7668576],[-71.1928542,46.766503],[-71.194183,46.7657916],[-71.1955489,46.7666395]]]}},{"type":"Feature","properties":{"id":"parc-jean-baptiste-thibault-688772","name":"Parc Jean-Baptiste-Thibault","type":"park"},"geometry":{"type":"Polygon","coordinates":[[[-71.201121,46.7695502],[-71.2015544,46.7698702],[-71.2015302,46.7700107],[-71.2008482,46.7704722],[-71.2010222,46.7699546],[-71.2010112,46.7696676],[-71.201121,46.7695502]]]}},{"type":"Feature","properties":{"id":"parc-bellevue-688777","name":"Parc Bellevue","type":"park"},"geometry":{"type":"Polygon","coordinates":[[[-71.2005872,46.7788788],[-71.2000808,46.7791509],[-71.1997469,46.7788857],[-71.1989898,46.7793628],[-71.1989304,46.7793222],[-71.199281,46.7790729],[-71.1990129,46.7788752],[-71.1993106,46.7787165],[-71.1990012,46.7785077],[-71.1997202,46.7780138],[-71.2005872,46.7788788]]]}},{"type":"Feature","properties":{"id":"parc-jacques-ferron-688778","name":"Parc Jacques-Ferron","type":"park"},"geometry":{"type":"Polygon","coordinates":[[[-71.1782532,46.7748524],[-71.1782764,46.77431],[-71.1786099,46.7741916],[-71.1788491,46.7747088],[-71.1782532,46.7748524]]]}},{"type":"Feature","properties":{"id":"parc-thomas-chapais-688780","name":"Parc Thomas-Chapais","type":"park"},"geometry":{"type":"Polygon","coordinates":[[[-71.1807413,46.7761364],[-71.1810917,46.7760638],[-71.1812401,46.7764157],[-71.1819749,46.776278],[-71.1821159,46.7763809],[-71.1814087,46.776949],[-71.1809928,46.7766563],[-71.1807413,46.7761364]]]}},{"type":"Feature","properties":{"id":"parc-hector-fabre-688784","name":"Parc Hector-Fabre","type":"park"},"geometry":{"type":"Polygon","coordinates":[[[-71.1812936,46.7825217],[-71.180971,46.7828721],[-71.178662,46.7824725],[-71.1784315,46.7825988],[-71.1780575,46.7823264],[-71.179479,46.781353],[-71.1812936,46.7825217]]]}},{"type":"Feature","properties":{"id":"parc-du-domaine-de-l-auberiviere-688785","name":"Parc du Domaine-de-L'Auberivière","type":"park"},"geometry":{"type":"Polygon","coordinates":[[[-71.1853898,46.784185],[-71.1857982,46.7844692],[-71.1869748,46.7838297],[-71.1892241,46.7828129],[-71.1898483,46.7822641],[-71.19109,46.7830051],[-71.191135,46.7830956],[-71.1899901,46.7833573],[-71.1858255,46.7852051],[-71.1853877,46.7849249],[-71.1855706,46.7847738],[-71.1851138,46.7844527],[-71.1853898,46.784185]]]}},{"type":"Feature","properties":{"id":"parc-du-lac-bargone-688809","name":"Parc du Lac-Bargoné","type":"park"},"geometry":{"type":"Polygon","coordinates":[[[-71.1407037,46.7990886],[-71.1407245,46.7992209],[-71.1405454,46.7994571],[-71.1401234,46.7995806],[-71.139671,46.7993281],[-71.1392159,46.7989006],[-71.1394928,46.7986009],[-71.1398437,46.7985379],[-71.1404392,46.7988305],[-71.1407037,46.7990886]],[[-71.1405904,46.7991443],[-71.1402965,46.7988541],[-71.1397811,46.7986093],[-71.139316,46.7989339],[-71.1401158,46.7994854],[-71.1405359,46.7992637],[-71.1405904,46.7991443]]]}},{"type":"Feature","properties":{"id":"parc-charles-huot-688810","name":"Parc Charles-Huot","type":"park"},"geometry":{"type":"Polygon","coordinates":[[[-71.1576154,46.8079921],[-71.1583838,46.807444],[-71.1588055,46.8077423],[-71.1581323,46.8082384],[-71.1579053,46.8082544],[-71.1576154,46.8079921]]]}},{"type":"Feature","properties":{"id":"parc-andre-guay-688812","name":"Parc André-Guay","type":"park"},"geometry":{"type":"Polygon","coordinates":[[[-71.155174,46.8096697],[-71.1545016,46.8101977],[-71.1539707,46.8103564],[-71.153004,46.8097178],[-71.1539203,46.8088433],[-71.155174,46.8096697]]]}},{"type":"Feature","properties":{"id":"parc-de-l-arena-andre-lacroix-688816","name":"Parc de l'Aréna André-Lacroix","type":"park"},"geometry":{"type":"Polygon","coordinates":[[[-71.1541825,46.8134562],[-71.15223,46.8140872],[-71.1519649,46.8136934],[-71.1515768,46.8138042],[-71.1505935,46.8131699],[-71.1521744,46.812192],[-71.1541825,46.8134562]]]}},{"type":"Feature","properties":{"id":"parc-de-l-armurier-688817","name":"Parc de l'Armurier","type":"park"},"geometry":{"type":"Polygon","coordinates":[[[-71.1624013,46.8152248],[-71.1620112,46.8153266],[-71.1613654,46.8146814],[-71.1617323,46.8144421],[-71.1620689,46.8144421],[-71.1624013,46.8152248]]]}},{"type":"Feature","properties":{"id":"parc-de-l-artificier-688818","name":"Parc de l'Artificier","type":"park"},"geometry":{"type":"Polygon","coordinates":[[[-71.1636399,46.8150299],[-71.1638816,46.8148586],[-71.1643693,46.815213],[-71.1638255,46.8156383],[-71.1635968,46.8154847],[-71.1633982,46.815089],[-71.1636399,46.8150299]]]}},{"type":"Feature","properties":{"id":"parc-du-fondeur-688819","name":"Parc du Fondeur","type":"park"},"geometry":{"type":"Polygon","coordinates":[[[-71.1652952,46.8139711],[-71.1652512,46.8142903],[-71.1649726,46.8145611],[-71.1647375,46.8144024],[-71.1652952,46.8139711]]]}},{"type":"Feature","properties":{"id":"parc-du-menuisier-688821","name":"Parc du Menuisier","type":"park"},"geometry":{"type":"Polygon","coordinates":[[[-71.1661262,46.8101596],[-71.1663463,46.8103149],[-71.1667152,46.8100676],[-71.1669151,46.8102031],[-71.1661448,46.8107199],[-71.1655968,46.8103729],[-71.1655907,46.8102842],[-71.1661262,46.8101596]]]}},{"type":"Feature","properties":{"id":"parc-du-batelier-688822","name":"Parc du Batelier","type":"park"},"geometry":{"type":"Polygon","coordinates":[[[-71.1668562,46.809631],[-71.1666633,46.8094963],[-71.1679054,46.8086805],[-71.1680944,46.8088178],[-71.1681446,46.8092455],[-71.1679093,46.8095148],[-71.1669151,46.8102031],[-71.1664597,46.8098944],[-71.1668562,46.809631]]]}},{"type":"Feature","properties":{"id":"parc-saindon-101473","name":"Parc Saindon","type":"park"},"geometry":{"type":"Polygon","coordinates":[[[-71.2861394,46.6640948],[-71.2869763,46.6646578],[-71.2864213,46.6649699],[-71.2857718,46.6651332],[-71.2852891,46.6646815],[-71.2861394,46.6640948]]]}},{"type":"Feature","properties":{"id":"parc-du-fort-de-la-martiniere-823221","name":"Parc du Fort-de-la-Martinière","type":"park"},"geometry":{"type":"Polygon","coordinates":[[[-71.1024214,46.8235129],[-71.1038853,46.8245535],[-71.1019979,46.8260004],[-71.1005599,46.824786],[-71.1019103,46.82395],[-71.1019894,46.8237463],[-71.1023274,46.8235224],[-71.1024214,46.8235129]]]}},{"type":"Feature","properties":{"id":"parc-des-voiliers-2-823223","name":"Parc des Voiliers (2)","type":"park"},"geometry":{"type":"Polygon","coordinates":[[[-71.1046157,46.8269511],[-71.1051642,46.826612],[-71.1057954,46.8270229],[-71.1051138,46.8273449],[-71.1046157,46.8269511]]]}},{"type":"Feature","properties":{"id":"parc-regional-de-la-pointe-de-la-martiniere-823224","name":"Parc régional de la Pointe-de-la-Martinière","type":"park"},"geometry":{"type":"Polygon","coordinates":[[[-71.1075855,46.8310639],[-71.105602,46.8294563],[-71.1058756,46.8287403],[-71.1053459,46.8285218],[-71.1067323,46.8281016],[-71.1069424,46.8278981],[-71.1068876,46.8277947],[-71.1038819,46.8256992],[-71.1048963,46.8250405],[-71.1042398,46.8246823],[-71.1051939,46.82362],[-71.1060575,46.823775],[-71.1063448,46.8234389],[-71.1056664,46.8230957],[-71.1058704,46.8228701],[-71.1079358,46.8228779],[-71.1122918,46.8260317],[-71.113146,46.8254195],[-71.1146661,46.8244988],[-71.1148011,46.8237869],[-71.115685,46.8236789],[-71.115856,46.8233111],[-71.1174207,46.8236734],[-71.1201461,46.8240758],[-71.1200303,46.8245321],[-71.1216837,46.8248968],[-71.1218762,46.82446],[-71.1221192,46.8245106],[-71.1223749,46.8250492],[-71.123024,46.8251861],[-71.1237428,46.825287],[-71.1237764,46.8246955],[-71.1241511,46.8247291],[-71.1241034,46.8253166],[-71.1249514,46.8253669],[-71.1250254,46.8248077],[-71.1259001,46.8248862],[-71.1287094,46.8268601],[-71.1300374,46.827667],[-71.1296595,46.8282541],[-71.129321,46.8283622],[-71.1262814,46.8282798],[-71.1232725,46.8289094],[-71.11928,46.8289702],[-71.1176984,46.8297998],[-71.1191047,46.8307978],[-71.1186099,46.8307598],[-71.1180989,46.8308228],[-71.1175627,46.8310515],[-71.1169959,46.8310019],[-71.1158645,46.8302187],[-71.1151907,46.8303039],[-71.1145103,46.8304956],[-71.1140975,46.8308078],[-71.11488988061086,46.83144488441088],[-71.1147400360067,46.83152122766215],[-71.11402,46.8309337],[-71.1139128,46.8311852],[-71.1141242,46.8313634],[-71.1138301,46.8314619],[-71.1141515,46.8316907],[-71.1075855,46.8310639]]]}},{"type":"Feature","properties":{"id":"belvedere-henry-caldwell-866577","name":"Belvédère Henry-Caldwell","type":"park"},"geometry":{"type":"Polygon","coordinates":[[[-71.186129,46.8090044],[-71.1860706,46.8091104],[-71.1859585,46.8090512],[-71.1860282,46.8089737],[-71.186129,46.8090044]]]}},{"type":"Feature","properties":{"id":"parc-goderic-blanchet-866578","name":"Parc Godéric-Blanchet","type":"park"},"geometry":{"type":"Polygon","coordinates":[[[-71.1845728,46.8115788],[-71.184308,46.8120502],[-71.1834867,46.8118462],[-71.1837586,46.81137],[-71.1845728,46.8115788]]]}},{"type":"Feature","properties":{"id":"parc-pichard-885508","name":"Parc Pichard","type":"park"},"geometry":{"type":"Polygon","coordinates":[[[-71.1690642,46.812462],[-71.1692043,46.8123723],[-71.1699022,46.8124001],[-71.1694121,46.8127],[-71.1690642,46.812462]]]}},{"type":"Feature","properties":{"id":"parc-de-courcelette-885514","name":"Parc de Courcelette","type":"park"},"geometry":{"type":"Polygon","coordinates":[[[-71.1654251,46.8175593],[-71.1656842,46.8177467],[-71.1659219,46.8179186],[-71.165791,46.817991],[-71.1654892,46.8177806],[-71.1652102,46.8178529],[-71.1651367,46.8177935],[-71.1654251,46.8175593]]]}},{"type":"Feature","properties":{"id":"parc-du-serrurier-885526","name":"Parc du Serrurier","type":"park"},"geometry":{"type":"Polygon","coordinates":[[[-71.1625679,46.8104233],[-71.1621381,46.8101219],[-71.1622846,46.8099889],[-71.1627608,46.8103065],[-71.1625679,46.8104233]]]}},{"type":"Feature","properties":{"id":"parc-du-coteau-laliberte-885527","name":"Parc du Coteau-Laliberté","type":"park"},"geometry":{"type":"Polygon","coordinates":[[[-71.1687365,46.815088],[-71.1684405,46.8152154],[-71.1681471,46.8150553],[-71.1680719,46.8149311],[-71.1682796,46.8147706],[-71.1687365,46.815088]]]}},{"type":"Feature","properties":{"id":"parc-fraser-885528","name":"Parc Fraser","type":"park"},"geometry":{"type":"Polygon","coordinates":[[[-71.1812681,46.8194896],[-71.1811201,46.8195398],[-71.1809395,46.8194023],[-71.18104,46.8193348],[-71.1812681,46.8194896]]]}},{"type":"Feature","properties":{"id":"parc-anne-emard-885530","name":"Parc Anne-Émard","type":"park"},"geometry":{"type":"Polygon","coordinates":[[[-71.1741212,46.8242153],[-71.1734266,46.8246479],[-71.1728556,46.8241445],[-71.1734751,46.8237571],[-71.1741212,46.8242153]]]}},{"type":"Feature","properties":{"id":"parc-laverdure-885533","name":"Parc Laverdure","type":"park"},"geometry":{"type":"Polygon","coordinates":[[[-71.1697853,46.8247453],[-71.1691046,46.8242609],[-71.1694712,46.8240031],[-71.1701708,46.8244912],[-71.1697853,46.8247453]]]}},{"type":"Feature","properties":{"id":"parc-de-la-chapelle-sainte-anne-885540","name":"Parc de la Chapelle-Sainte-Anne","type":"park"},"geometry":{"type":"Polygon","coordinates":[[[-71.1679778,46.8241939],[-71.1677324,46.8243577],[-71.1675664,46.8242211],[-71.1677899,46.8240676],[-71.1679778,46.8241939]]]}},{"type":"Feature","properties":{"id":"parc-saint-francois-885542","name":"Parc Saint-François","type":"park"},"geometry":{"type":"Polygon","coordinates":[[[-71.1615297,46.8267571],[-71.1613717,46.8265777],[-71.1611451,46.8266103],[-71.1607855,46.8263485],[-71.161104,46.8262407],[-71.1607957,46.8259371],[-71.1608873,46.8259018],[-71.1611812,46.8261047],[-71.1612929,46.8262901],[-71.1616016,46.8265429],[-71.1617362,46.8265384],[-71.1618361,46.8266804],[-71.1615297,46.8267571]]]}},{"type":"Feature","properties":{"id":"parc-du-moulin-ruel-885543","name":"Parc du Moulin-Ruel","type":"park"},"geometry":{"type":"Polygon","coordinates":[[[-71.1550613,46.824945],[-71.1574193,46.8263985],[-71.1572195,46.8268334],[-71.156699,46.8267829],[-71.1565391,46.8265404],[-71.1558743,46.8259837],[-71.1545325,46.8251281],[-71.1533065,46.8246692],[-71.1527106,46.8246373],[-71.1520512,46.8241749],[-71.1521661,46.8241173],[-71.1536014,46.8244309],[-71.1537426,46.8243393],[-71.1550613,46.824945]]]}},{"type":"Feature","properties":{"id":"parc-du-fort-chambly-885553","name":"Parc du Fort-Chambly","type":"park"},"geometry":{"type":"Polygon","coordinates":[[[-71.1369869,46.8221567],[-71.1378931,46.822907],[-71.1370689,46.8229004],[-71.1367719,46.8227161],[-71.1369869,46.8221567]]]}},{"type":"Feature","properties":{"id":"parc-langelier-885554","name":"Parc Langelier","type":"park"},"geometry":{"type":"Polygon","coordinates":[[[-71.1401457,46.8259522],[-71.1399395,46.8255929],[-71.1405416,46.8254593],[-71.1410555,46.8258112],[-71.1401457,46.8259522]]]}},{"type":"Feature","properties":{"id":"parc-de-levis-14-885558","name":"Parc de Lévis (14)","type":"park"},"geometry":{"type":"Polygon","coordinates":[[[-71.1098276,46.8201631],[-71.1095775,46.8201357],[-71.1086539,46.8194951],[-71.1088279,46.8193861],[-71.1098276,46.8201631]]]}},{"type":"Feature","properties":{"id":"parc-de-coutances-885562","name":"Parc de Coutances","type":"park"},"geometry":{"type":"Polygon","coordinates":[[[-71.1394359,46.7649306],[-71.1405146,46.7656622],[-71.1392904,46.7664203],[-71.1390725,46.7662066],[-71.1387599,46.7653424],[-71.1394359,46.7649306]]]}},{"type":"Feature","properties":{"id":"parc-de-levis-15-885565","name":"Parc de Lévis (15)","type":"park"},"geometry":{"type":"Polygon","coordinates":[[[-71.1346862,46.760849],[-71.1348965,46.7606403],[-71.1351269,46.7608011],[-71.1349973,46.7610218],[-71.1346862,46.760849]]]}},{"type":"Feature","properties":{"id":"parc-des-petits-jardins-885566","name":"Parc des Petits Jardins","type":"park"},"geometry":{"type":"Polygon","coordinates":[[[-71.1321539,46.7563752],[-71.131276,46.7571081],[-71.1302903,46.7566058],[-71.1302484,46.7565194],[-71.1307365,46.7560138],[-71.1307364,46.7558884],[-71.1310087,46.7555925],[-71.1321539,46.7563752]]]}},{"type":"Feature","properties":{"id":"parc-de-la-mairie-885569","name":"Parc de la Mairie","type":"park"},"geometry":{"type":"Polygon","coordinates":[[[-71.1299451,46.7577814],[-71.128364,46.7592488],[-71.1278568,46.7589382],[-71.1284654,46.7583373],[-71.1281589,46.7581485],[-71.1292687,46.7573306],[-71.1299451,46.7577814]]]}},{"type":"Feature","properties":{"id":"parc-plante-885573","name":"Parc Plante","type":"park"},"geometry":{"type":"Polygon","coordinates":[[[-71.1187363,46.7522504],[-71.1183055,46.7520661],[-71.1184036,46.7517795],[-71.118755,46.752061],[-71.1188251,46.7521767],[-71.1187363,46.7522504]]]}},{"type":"Feature","properties":{"id":"parc-de-la-bergerie-678434","name":"Parc de la Bergerie","type":"park"},"geometry":{"type":"Polygon","coordinates":[[[-71.1841895,46.7219634],[-71.1842851,46.7221465],[-71.1839419,46.722383],[-71.1841411,46.7225354],[-71.1834773,46.7229804],[-71.1833876,46.7219526],[-71.1838761,46.7216123],[-71.184246,46.7218878],[-71.1841895,46.7219634]]]}},{"type":"Feature","properties":{"id":"parc-de-la-marine-973793","name":"Parc de la Marine","type":"park"},"geometry":{"type":"Polygon","coordinates":[[[-71.1646594,46.8213547],[-71.1651637,46.8210501],[-71.1654462,46.8212649],[-71.1643954,46.8219278],[-71.1635329,46.8213768],[-71.1638977,46.8208151],[-71.1646594,46.8213547]]]}},{"type":"Feature","properties":{"id":"parc-du-fort-numero-un-de-la-pointe-levy-973794","name":"Parc du Fort-numéro-un-de-la-Pointe-Lévy","type":"park"},"geometry":{"type":"Polygon","coordinates":[[[-71.1595997,46.8190453],[-71.1594069,46.819217],[-71.158293,46.8189401],[-71.1574069,46.8163407],[-71.157725,46.8161447],[-71.156556,46.8154427],[-71.1562259,46.81421],[-71.1580593,46.8130777],[-71.1599636,46.8134889],[-71.1593044,46.8145473],[-71.1590574,46.8151518],[-71.1590541,46.8159081],[-71.1587695,46.8167151],[-71.1588151,46.8171252],[-71.1593543,46.8187542],[-71.1595997,46.8190453]]]}},{"type":"Feature","properties":{"id":"parc-melvin-moutain-973795","name":"Parc Melvin-Moutain","type":"park"},"geometry":{"type":"Polygon","coordinates":[[[-71.2767132,46.7092311],[-71.2772423,46.7088519],[-71.2772423,46.7096205],[-71.2767132,46.7092311]]]}},{"type":"Feature","properties":{"id":"parc-des-melezes-973813","name":"Parc des Mélèzes","type":"park"},"geometry":{"type":"Polygon","coordinates":[[[-71.2314752,46.6966367],[-71.2302442,46.6971497],[-71.2306971,46.6960619],[-71.2310367,46.6964002],[-71.2311549,46.6962872],[-71.2314752,46.6966367]]]}},{"type":"Feature","properties":{"id":"parc-gilles-rageot-973826","name":"Parc Gilles-Rageot","type":"park"},"geometry":{"type":"Polygon","coordinates":[[[-71.3111019,46.6497632],[-71.3113793,46.6495001],[-71.3114583,46.6490934],[-71.311866,46.6494096],[-71.3118472,46.6495276],[-71.3113914,46.6498174],[-71.3111019,46.6497632]]]}},{"type":"Feature","properties":{"id":"carre-vaudreuil-265485","name":"Carré Vaudreuil","type":"park"},"geometry":{"type":"Polygon","coordinates":[[[-71.1732236,46.8202827],[-71.1731471,46.8202297],[-71.1732999,46.8200578],[-71.1733717,46.820102],[-71.1732236,46.8202827]]]}},{"type":"Feature","properties":{"id":"parc-de-levis-16-603450","name":"Parc de Lévis (16)","type":"park"},"geometry":{"type":"Polygon","coordinates":[[[-71.1190989,46.7487585],[-71.118006,46.7478672],[-71.1182126,46.7476126],[-71.1177736,46.7473498],[-71.1187436,46.7469582],[-71.1196097,46.7475577],[-71.1190989,46.7487585]]]}},{"type":"Feature","properties":{"id":"parc-de-levis-17-603451","name":"Parc de Lévis (17)","type":"park"},"geometry":{"type":"Polygon","coordinates":[[[-71.1180552,46.7515875],[-71.1177211,46.7522339],[-71.1165674,46.7514784],[-71.1169852,46.751179],[-71.1180177,46.7511411],[-71.1180552,46.7515875]]]}},{"type":"Feature","properties":{"id":"parc-de-levis-18-603458","name":"Parc de Lévis (18)","type":"park"},"geometry":{"type":"Polygon","coordinates":[[[-71.1435771,46.812962],[-71.14266,46.813131],[-71.1420045,46.8127023],[-71.1426071,46.8122867],[-71.1435771,46.812962]]]}},{"type":"Feature","properties":{"id":"parc-du-belvedere-006782","name":"Parc du Belvédère","type":"park"},"geometry":{"type":"Polygon","coordinates":[[[-71.1639876,46.7941995],[-71.164123,46.7944958],[-71.1639627,46.7948732],[-71.1629959,46.7958699],[-71.1617369,46.7951092],[-71.1623727,46.7947613],[-71.1639876,46.7941995]]]}},{"type":"Feature","properties":{"id":"parc-du-capitaine-bernier-048287","name":"Parc du Capitaine-Bernier","type":"park"},"geometry":{"type":"Polygon","coordinates":[[[-71.1834829,46.8082022],[-71.1836456,46.8078115],[-71.1838193,46.8078644],[-71.184039,46.8076157],[-71.1847149,46.8080814],[-71.1844722,46.8084261],[-71.1834829,46.8082022]]]}},{"type":"Feature","properties":{"id":"parc-de-levis-19-048326","name":"Parc de Lévis (19)","type":"park"},"geometry":{"type":"Polygon","coordinates":[[[-71.1799733,46.8127389],[-71.1799417,46.8129467],[-71.179445,46.8132782],[-71.179132,46.8131683],[-71.1799733,46.8127389]]]}},{"type":"Feature","properties":{"id":"parc-de-levis-20-423024","name":"Parc de Lévis (20)","type":"park"},"geometry":{"type":"Polygon","coordinates":[[[-71.1849723,46.811141],[-71.1850347,46.8110226],[-71.185555,46.8111598],[-71.1854913,46.8112828],[-71.1849723,46.811141]]]}},{"type":"Feature","properties":{"id":"parc-de-la-vanoise-086660","name":"Parc de la Vanoise","type":"park"},"geometry":{"type":"Polygon","coordinates":[[[-71.2655341,46.7325835],[-71.2648766,46.7320739],[-71.2656475,46.7317863],[-71.2661618,46.7321533],[-71.2655341,46.7325835]]]}},{"type":"Feature","properties":{"id":"parc-de-levis-21-336786","name":"Parc de Lévis (21)","type":"park"},"geometry":{"type":"Polygon","coordinates":[[[-71.2243988,46.6697785],[-71.224213,46.6693729],[-71.2241953,46.6690474],[-71.2250854,46.6692794],[-71.2250004,46.6696947],[-71.2243988,46.6697785]]]}},{"type":"Feature","properties":{"id":"parc-du-domaine-baribeau-869556","name":"Parc du Domaine-Baribeau","type":"park"},"geometry":{"type":"Polygon","coordinates":[[[-71.2267052,46.7629434],[-71.2250949,46.7639912],[-71.2247554,46.7643011],[-71.2244941,46.7642959],[-71.2254331,46.7630423],[-71.2258238,46.7631441],[-71.2262399,46.7628704],[-71.2267052,46.7629434]]]}},{"type":"Feature","properties":{"id":"parc-de-barbizon-478188","name":"Parc de Barbizon","type":"park"},"geometry":{"type":"Polygon","coordinates":[[[-71.3219731,46.6603473],[-71.3222545,46.6604614],[-71.3229817,46.6609837],[-71.3225472,46.6612827],[-71.321547,46.6605837],[-71.3219731,46.6603473]]]}},{"type":"Feature","properties":{"id":"parc-charles-henri-belanger-498081","name":"Parc Charles-Henri-Bélanger","type":"park"},"geometry":{"type":"Polygon","coordinates":[[[-71.2866803,46.6950119],[-71.2864879,46.6949193],[-71.2862626,46.6950812],[-71.2863685,46.6951723],[-71.2862585,46.6952578],[-71.2866305,46.6955271],[-71.2864139,46.695681],[-71.2856158,46.6951676],[-71.286591,46.6944434],[-71.2870644,46.6947528],[-71.2866803,46.6950119]]]}},{"type":"Feature","properties":{"id":"parc-de-l-etang-442665","name":"Parc de l'Étang","type":"park"},"geometry":{"type":"Polygon","coordinates":[[[-71.2723767,46.7420338],[-71.271781,46.7420252],[-71.2716441,46.741635],[-71.271687,46.7415527],[-71.2719102,46.7415291],[-71.2725288,46.7419127],[-71.2723767,46.7420338]]]}},{"type":"Feature","properties":{"id":"parc-henri-pelletier-751580","name":"Parc Henri-Pelletier","type":"park"},"geometry":{"type":"Polygon","coordinates":[[[-71.2870418,46.7025239],[-71.2862828,46.7025535],[-71.2860899,46.7014687],[-71.2864004,46.7014769],[-71.2869028,46.7022228],[-71.2870418,46.7025239]]]}},{"type":"Feature","properties":{"id":"parc-du-grand-quevilly-751591","name":"Parc du Grand-Quevilly","type":"park"},"geometry":{"type":"Polygon","coordinates":[[[-71.1767238,46.8046887],[-71.1756281,46.80603],[-71.1742106,46.8056501],[-71.1731989,46.8051709],[-71.1734334,46.8048815],[-71.1740033,46.8038238],[-71.1759433,46.8042851],[-71.1759932,46.8042186],[-71.1767238,46.8046887]]]}},{"type":"Feature","properties":{"id":"parc-des-cineastes-301031","name":"Parc des Cineastes","type":"park"},"geometry":{"type":"Polygon","coordinates":[[[-71.3104774,46.7262159],[-71.3103107,46.7263162],[-71.3100123,46.7260822],[-71.310237,46.7259657],[-71.3104205,46.7260947],[-71.3103697,46.7261323],[-71.3104774,46.7262159]]]}},{"type":"Feature","properties":{"id":"parc-des-cineastes-301032","name":"Parc des Cinéastes","type":"park"},"geometry":{"type":"Polygon","coordinates":[[[-71.3104982,46.7259606],[-71.310077,46.7260118],[-71.3096085,46.7256893],[-71.3102396,46.7255491],[-71.3104646,46.7257684],[-71.3104982,46.7259606]]]}},{"type":"Feature","properties":{"id":"parc-lemelin-forgues-050724","name":"Parc Lemelin-Forgues","type":"park"},"geometry":{"type":"Polygon","coordinates":[[[-71.2671807,46.7429019],[-71.2666583,46.7431704],[-71.2662586,46.7429148],[-71.2671052,46.742367],[-71.2674309,46.7425946],[-71.2672374,46.7428027],[-71.2676873,46.7431102],[-71.2676106,46.7431862],[-71.2671807,46.7429019]]]}},{"type":"Feature","properties":{"id":"parc-de-la-marina-de-la-chaudiere-119197","name":"Parc de la Marina-de-la-Chaudière","type":"park"},"geometry":{"type":"Polygon","coordinates":[[[-71.2758514,46.7434611],[-71.2742617,46.7438282],[-71.2741021,46.7437683],[-71.2752652,46.7433374],[-71.2762264,46.7425575],[-71.276825,46.742288],[-71.2767998,46.7429224],[-71.2770211,46.743145],[-71.2774228,46.7431312],[-71.2773356,46.7434676],[-71.2772203,46.743588],[-71.2768078,46.7433998],[-71.2761427,46.7437256],[-71.2758514,46.7434611]]]}},{"type":"Feature","properties":{"id":"parc-pierre-miville-768264","name":"Parc Pierre-Miville","type":"park"},"geometry":{"type":"Polygon","coordinates":[[[-71.2279116,46.7568907],[-71.2275415,46.7575112],[-71.2273043,46.757234],[-71.2279116,46.7568907]]]}},{"type":"Feature","properties":{"id":"parc-du-quai-baker-363601","name":"Parc du Quai-Baker","type":"park"},"geometry":{"type":"Polygon","coordinates":[[[-71.3776611,46.7108618],[-71.3790996,46.7107691],[-71.379268,46.7112687],[-71.37793221257814,46.71133898200659],[-71.3776611,46.7108618]]]}},{"type":"Feature","properties":{"id":"parc-de-bernieres-sur-mer-577542","name":"Parc de Bernières-sur-Mer","type":"park"},"geometry":{"type":"Polygon","coordinates":[[[-71.2936802,46.7137001],[-71.2933128,46.7146583],[-71.2922724,46.713981],[-71.2917654,46.7135047],[-71.2926047,46.7129185],[-71.2936802,46.7137001]]]}},{"type":"Feature","properties":{"id":"parc-des-chardonnerets-477267","name":"Parc des Chardonnerets","type":"park"},"geometry":{"type":"Polygon","coordinates":[[[-71.2953026,46.7385674],[-71.2958869,46.73835],[-71.296138,46.7386582],[-71.2957628,46.7389661],[-71.2953026,46.7385674]]]}},{"type":"Feature","properties":{"id":"parc-de-courchevel-477292","name":"Parc de Courchevel","type":"park"},"geometry":{"type":"Polygon","coordinates":[[[-71.2597842,46.733237],[-71.2598308,46.7333517],[-71.2594405,46.7335519],[-71.2592573,46.7334629],[-71.2594867,46.7326708],[-71.2598899,46.7327415],[-71.2597842,46.733237]]]}},{"type":"Feature","properties":{"id":"parc-elisabeth-belanger-rousseau-487282","name":"Parc Élisabeth-Bélanger-Rousseau","type":"park"},"geometry":{"type":"Polygon","coordinates":[[[-71.3047372,46.6609788],[-71.3039698,46.6614285],[-71.3048783,46.662095],[-71.3033286,46.6629393],[-71.3028435,46.6627428],[-71.3021875,46.6626165],[-71.3029557,46.6608477],[-71.3032404,46.6608542],[-71.3035671,46.6610661],[-71.3042596,46.6606407],[-71.3047372,46.6609788]]]}},{"type":"Feature","properties":{"id":"parc-du-havre-886919","name":"Parc du Havre","type":"park"},"geometry":{"type":"Polygon","coordinates":[[[-71.3091426,46.6592467],[-71.3083205,46.658767],[-71.3083151,46.658361],[-71.3085716,46.6582288],[-71.3096035,46.6589545],[-71.3091426,46.6592467]]]}},{"type":"Feature","properties":{"id":"parc-hadlow-886921","name":"Parc Hadlow","type":"park"},"geometry":{"type":"Polygon","coordinates":[[[-71.201193,46.7794247],[-71.2020721,46.7793503],[-71.2021701,46.77968],[-71.2014847,46.7798255],[-71.2010877,46.7796859],[-71.201193,46.7794247]]]}},{"type":"Feature","properties":{"id":"parc-de-levis-22-833507","name":"Parc de Lévis (22)","type":"park"},"geometry":{"type":"Polygon","coordinates":[[[-71.1607454,46.797132],[-71.1603093,46.7984826],[-71.159869,46.7993433],[-71.159145,46.8002881],[-71.1586497,46.8008011],[-71.1582052,46.8004997],[-71.1586709,46.8000447],[-71.1593652,46.7990854],[-71.1597208,46.7981725],[-71.1599325,46.7980421],[-71.1603085,46.7970572],[-71.1607454,46.797132]]]}},{"type":"Feature","properties":{"id":"parc-de-levis-23-862657","name":"Parc de Lévis (23)","type":"park"},"geometry":{"type":"Polygon","coordinates":[[[-71.1418136,46.7764104],[-71.1425024,46.7769049],[-71.1420777,46.7772214],[-71.1414205,46.7766829],[-71.1418136,46.7764104]]]}},{"type":"Feature","properties":{"id":"parc-lucie-dugas-790046","name":"Parc Lucie-Dugas","type":"park"},"geometry":{"type":"Polygon","coordinates":[[[-71.253612,46.7278277],[-71.2534897,46.7280407],[-71.2542555,46.7285305],[-71.253289,46.7289648],[-71.2532499,46.7290604],[-71.2528339,46.729042],[-71.2523421,46.729203],[-71.2518087,46.7285171],[-71.2529465,46.728024],[-71.2530859,46.7277523],[-71.253612,46.7278277]]]}},{"type":"Feature","properties":{"id":"parc-du-christ-roi-228884","name":"Parc du Christ-Roi","type":"park"},"geometry":{"type":"Polygon","coordinates":[[[-71.1849057,46.7994686],[-71.1846061,46.7992552],[-71.1840689,46.7996142],[-71.18367,46.799346],[-71.1850662,46.798429],[-71.185763,46.798903],[-71.1849057,46.7994686]]]}}]}
