{"type":"FeatureCollection","features":[{"type":"Feature","properties":{"category":"airport"},"geometry":{"type":"MultiPolygon","coordinates":[[[[-71.15196039397082,46.68741090809073],[-71.15196039397082,46.68864334351215],[-71.15196039397082,46.68987575081388],[-71.15196039397082,46.69110812999604],[-71.15196039397082,46.69234048105868],[-71.15016376340259,46.69234048105868],[-71.14836713283434,46.69234048105868],[-71.14836713283434,46.69357280400186],[-71.1465705022661,46.69357280400186],[-71.14477387169786,46.69357280400186],[-71.14477387169786,46.69234048105868],[-71.1465705022661,46.69234048105868],[-71.1465705022661,46.69110812999604],[-71.14836713283434,46.69110812999604],[-71.14836713283434,46.68987575081388],[-71.15016376340259,46.68987575081388],[-71.15016376340259,46.68864334351215],[-71.15016376340259,46.68741090809073],[-71.15016376340259,46.68617844454964],[-71.15016376340259,46.6849459528887],[-71.15016376340259,46.68371343310791],[-71.15016376340259,46.68248088520718],[-71.15016376340259,46.6812483091864],[-71.15196039397082,46.6812483091864],[-71.15196039397082,46.68248088520718],[-71.15196039397082,46.68371343310791],[-71.15196039397082,46.6849459528887],[-71.15196039397082,46.68617844454964],[-71.15196039397082,46.68741090809073]]],[[[-71.11423115203779,46.760076487563374],[-71.11423115203779,46.7613072640488],[-71.11243452146955,46.7613072640488],[-71.11063789090132,46.7613072640488],[-71.11063789090132,46.760076487563374],[-71.10884126033308,46.760076487563374],[-71.10884126033308,46.75884568296252],[-71.10704462976484,46.75884568296252],[-71.10704462976484,46.757614850246156],[-71.10704462976484,46.75638398941422],[-71.10884126033308,46.75638398941422],[-71.10884126033308,46.757614850246156],[-71.11063789090132,46.757614850246156],[-71.11063789090132,46.75884568296252],[-71.11243452146955,46.75884568296252],[-71.11243452146955,46.760076487563374],[-71.11423115203779,46.760076487563374]]]]}},{"type":"Feature","properties":{"category":"military"},"geometry":{"type":"MultiPolygon","coordinates":[[[[-71.2022660498815,46.80928561774032],[-71.2022660498815,46.80805593769831],[-71.2022660498815,46.806826229543766],[-71.20406268044975,46.806826229543766],[-71.20406268044975,46.80805593769831],[-71.20585931101799,46.80805593769831],[-71.20585931101799,46.806826229543766],[-71.20585931101799,46.80559649327668],[-71.20765594158622,46.80559649327668],[-71.20945257215446,46.80559649327668],[-71.20945257215446,46.806826229543766],[-71.20945257215446,46.80805593769831],[-71.20765594158622,46.80805593769831],[-71.20765594158622,46.80928561774032],[-71.20585931101799,46.80928561774032],[-71.20406268044975,46.80928561774032],[-71.2022660498815,46.80928561774032]]]]}}]}
