{"type":"FeatureCollection","features":[{"type":"Feature","properties":{"category":"airport"},"geometry":{"type":"MultiPolygon","coordinates":[[[[-4.509542726279998,36.68146764374634],[-4.511339356848237,36.68146764374634],[-4.513135987416476,36.68146764374634],[-4.513135987416476,36.682908472100245],[-4.514932617984715,36.682908472100245],[-4.514932617984715,36.68434927346438],[-4.514932617984715,36.68579004783832],[-4.516729248552954,36.68579004783832],[-4.516729248552954,36.687230795221666],[-4.514932617984715,36.687230795221666],[-4.513135987416476,36.687230795221666],[-4.511339356848237,36.687230795221666],[-4.511339356848237,36.68579004783832],[-4.509542726279998,36.68579004783832],[-4.509542726279998,36.68434927346438],[-4.507746095711759,36.68434927346438],[-4.5059494651435195,36.68434927346438],[-4.5059494651435195,36.68579004783832],[-4.50415283457528,36.68579004783832],[-4.50415283457528,36.687230795221666],[-4.5059494651435195,36.687230795221666],[-4.5059494651435195,36.68867151561401],[-4.507746095711759,36.68867151561401],[-4.509542726279998,36.68867151561401],[-4.511339356848237,36.68867151561401],[-4.513135987416476,36.68867151561401],[-4.513135987416476,36.69011220901498],[-4.511339356848237,36.69011220901498],[-4.511339356848237,36.69155287542413],[-4.511339356848237,36.692993514841056],[-4.509542726279998,36.692993514841056],[-4.507746095711759,36.692993514841056],[-4.507746095711759,36.69155287542413],[-4.5059494651435195,36.69155287542413],[-4.50415283457528,36.69155287542413],[-4.50415283457528,36.69011220901498],[-4.502356204007042,36.69011220901498],[-4.500559573438802,36.69011220901498],[-4.500559573438802,36.68867151561401],[-4.498762942870563,36.68867151561401],[-4.496966312302325,36.68867151561401],[-4.496966312302325,36.687230795221666],[-4.495169681734086,36.687230795221666],[-4.493373051165846,36.687230795221666],[-4.493373051165846,36.68579004783832],[-4.491576420597608,36.68579004783832],[-4.4897797900293686,36.68579004783832],[-4.487983159461129,36.68579004783832],[-4.487983159461129,36.68434927346438],[-4.48618652889289,36.68434927346438],[-4.48618652889289,36.682908472100245],[-4.484389898324651,36.682908472100245],[-4.482593267756412,36.682908472100245],[-4.482593267756412,36.68146764374634],[-4.480796637188173,36.68146764374634],[-4.479000006619934,36.68146764374634],[-4.479000006619934,36.680026788403055],[-4.477203376051695,36.680026788403055],[-4.477203376051695,36.67858590607081],[-4.475406745483456,36.67858590607081],[-4.475406745483456,36.67714499675],[-4.477203376051695,36.67714499675],[-4.477203376051695,36.67570406044104],[-4.479000006619934,36.67570406044104],[-4.479000006619934,36.67426309714431],[-4.479000006619934,36.672822106860245],[-4.480796637188173,36.672822106860245],[-4.480796637188173,36.67426309714431],[-4.482593267756412,36.67426309714431],[-4.484389898324651,36.67426309714431],[-4.484389898324651,36.67570406044104],[-4.48618652889289,36.67570406044104],[-4.48618652889289,36.67714499675],[-4.487983159461129,36.67714499675],[-4.4897797900293686,36.67714499675],[-4.4897797900293686,36.67570406044104],[-4.487983159461129,36.67570406044104],[-4.487983159461129,36.67426309714431],[-4.48618652889289,36.67426309714431],[-4.48618652889289,36.672822106860245],[-4.484389898324651,36.672822106860245],[-4.484389898324651,36.671381089589254],[-4.484389898324651,36.669940045331735],[-4.482593267756412,36.669940045331735],[-4.480796637188173,36.669940045331735],[-4.480796637188173,36.66849897408805],[-4.480796637188173,36.66705787585868],[-4.480796637188173,36.665616750643984],[-4.482593267756412,36.665616750643984],[-4.482593267756412,36.664175598444395],[-4.482593267756412,36.66273441926029],[-4.484389898324651,36.66273441926029],[-4.484389898324651,36.664175598444395],[-4.48618652889289,36.664175598444395],[-4.487983159461129,36.664175598444395],[-4.4897797900293686,36.664175598444395],[-4.491576420597608,36.664175598444395],[-4.491576420597608,36.665616750643984],[-4.493373051165846,36.665616750643984],[-4.493373051165846,36.66705787585868],[-4.495169681734086,36.66705787585868],[-4.495169681734086,36.66849897408805],[-4.495169681734086,36.669940045331735],[-4.496966312302325,36.669940045331735],[-4.496966312302325,36.671381089589254],[-4.498762942870563,36.671381089589254],[-4.498762942870563,36.672822106860245],[-4.500559573438802,36.672822106860245],[-4.500559573438802,36.67426309714431],[-4.502356204007042,36.67426309714431],[-4.502356204007042,36.67570406044104],[-4.50415283457528,36.67570406044104],[-4.50415283457528,36.67714499675],[-4.5059494651435195,36.67714499675],[-4.5059494651435195,36.67858590607081],[-4.507746095711759,36.67858590607081],[-4.507746095711759,36.680026788403055],[-4.509542726279998,36.680026788403055],[-4.509542726279998,36.68146764374634]],[[-4.4897797900293686,36.67858590607081],[-4.491576420597608,36.67858590607081],[-4.491576420597608,36.67714499675],[-4.4897797900293686,36.67714499675],[-4.4897797900293686,36.67858590607081]],[[-4.491576420597608,36.680026788403055],[-4.493373051165846,36.680026788403055],[-4.493373051165846,36.67858590607081],[-4.491576420597608,36.67858590607081],[-4.491576420597608,36.680026788403055]]],[[[-4.561645012758929,37.09960823484479],[-4.563441643327169,37.09960823484479],[-4.5652382738954085,37.09960823484479],[-4.5652382738954085,37.101041192370026],[-4.563441643327169,37.101041192370026],[-4.561645012758929,37.101041192370026],[-4.559848382190691,37.101041192370026],[-4.558051751622452,37.101041192370026],[-4.558051751622452,37.09960823484479],[-4.559848382190691,37.09960823484479],[-4.561645012758929,37.09960823484479]]],[[[-4.135843568086277,36.799525899930266],[-4.135843568086277,36.80096451378227],[-4.134046937518038,36.80096451378227],[-4.132250306949799,36.80096451378227],[-4.132250306949799,36.799525899930266],[-4.13045367638156,36.799525899930266],[-4.13045367638156,36.79808725905587],[-4.13045367638156,36.796648591159475],[-4.132250306949799,36.796648591159475],[-4.134046937518038,36.796648591159475],[-4.134046937518038,36.79808725905587],[-4.134046937518038,36.799525899930266],[-4.135843568086277,36.799525899930266]]]]}},{"type":"Feature","properties":{"category":"military"},"geometry":{"type":"MultiPolygon","coordinates":[[[[-5.134770164027185,36.75491546940114],[-5.132973533458945,36.75491546940114],[-5.132973533458945,36.75347599103146],[-5.134770164027185,36.75347599103146],[-5.136566794595424,36.75347599103146],[-5.136566794595424,36.75491546940114],[-5.136566794595424,36.75635492076085],[-5.134770164027185,36.75635492076085],[-5.134770164027185,36.75491546940114]]],[[[-5.192262342210834,36.75779434511021],[-5.192262342210834,36.759233742448785],[-5.192262342210834,36.760673112776225],[-5.190465711642595,36.760673112776225],[-5.188669081074356,36.760673112776225],[-5.188669081074356,36.76211245609208],[-5.188669081074356,36.76355177239595],[-5.186872450506117,36.76355177239595],[-5.185075819937878,36.76355177239595],[-5.185075819937878,36.76499106168746],[-5.183279189369639,36.76499106168746],[-5.1814825588014,36.76499106168746],[-5.179685928233161,36.76499106168746],[-5.179685928233161,36.7664303239662],[-5.1778892976649225,36.7664303239662],[-5.1760926670966825,36.7664303239662],[-5.1760926670966825,36.76786955923176],[-5.174296036528443,36.76786955923176],[-5.172499405960205,36.76786955923176],[-5.170702775391965,36.76786955923176],[-5.170702775391965,36.7664303239662],[-5.170702775391965,36.76499106168746],[-5.172499405960205,36.76499106168746],[-5.174296036528443,36.76499106168746],[-5.174296036528443,36.76355177239595],[-5.1760926670966825,36.76355177239595],[-5.1778892976649225,36.76355177239595],[-5.1778892976649225,36.76211245609208],[-5.1778892976649225,36.760673112776225],[-5.1778892976649225,36.759233742448785],[-5.179685928233161,36.759233742448785],[-5.179685928233161,36.75779434511021],[-5.179685928233161,36.75635492076085],[-5.1814825588014,36.75635492076085],[-5.1814825588014,36.75491546940114],[-5.183279189369639,36.75491546940114],[-5.183279189369639,36.75347599103146],[-5.185075819937878,36.75347599103146],[-5.186872450506117,36.75347599103146],[-5.186872450506117,36.75491546940114],[-5.188669081074356,36.75491546940114],[-5.188669081074356,36.75635492076085],[-5.190465711642595,36.75635492076085],[-5.190465711642595,36.75779434511021],[-5.192262342210834,36.75779434511021]]],[[[-5.102430813798882,36.78945484636184],[-5.102430813798882,36.79089364936214],[-5.102430813798882,36.79233242534246],[-5.1006341832306425,36.79233242534246],[-5.1006341832306425,36.793771174302364],[-5.1006341832306425,36.795209896241516],[-5.098837552662404,36.795209896241516],[-5.098837552662404,36.796648591159475],[-5.097040922094164,36.796648591159475],[-5.095244291525925,36.796648591159475],[-5.095244291525925,36.79808725905587],[-5.093447660957687,36.79808725905587],[-5.093447660957687,36.799525899930266],[-5.091651030389448,36.799525899930266],[-5.091651030389448,36.80096451378227],[-5.091651030389448,36.802403100611514],[-5.089854399821208,36.802403100611514],[-5.08805776925297,36.802403100611514],[-5.08805776925297,36.803841660417575],[-5.08805776925297,36.80528019320008],[-5.089854399821208,36.80528019320008],[-5.089854399821208,36.80671869895857],[-5.091651030389448,36.80671869895857],[-5.091651030389448,36.80815717769269],[-5.093447660957687,36.80815717769269],[-5.095244291525925,36.80815717769269],[-5.095244291525925,36.809595629402054],[-5.097040922094164,36.809595629402054],[-5.098837552662404,36.809595629402054],[-5.098837552662404,36.81103405408624],[-5.1006341832306425,36.81103405408624],[-5.1006341832306425,36.812472451744846],[-5.1006341832306425,36.813910822377494],[-5.098837552662404,36.813910822377494],[-5.098837552662404,36.81534916598377],[-5.098837552662404,36.816787482563264],[-5.098837552662404,36.8182257721156],[-5.097040922094164,36.8182257721156],[-5.097040922094164,36.819664034640354],[-5.097040922094164,36.82110227013716],[-5.097040922094164,36.82254047860561],[-5.095244291525925,36.82254047860561],[-5.095244291525925,36.82397866004528],[-5.093447660957687,36.82397866004528],[-5.093447660957687,36.8254168144558],[-5.091651030389448,36.8254168144558],[-5.089854399821208,36.8254168144558],[-5.089854399821208,36.82685494183674],[-5.08805776925297,36.82685494183674],[-5.08805776925297,36.8254168144558],[-5.08805776925297,36.82397866004528],[-5.086261138684731,36.82397866004528],[-5.086261138684731,36.82254047860561],[-5.084464508116491,36.82254047860561],[-5.084464508116491,36.82110227013716],[-5.084464508116491,36.819664034640354],[-5.084464508116491,36.8182257721156],[-5.0826678775482526,36.8182257721156],[-5.0826678775482526,36.816787482563264],[-5.0808712469800135,36.816787482563264],[-5.079074616411774,36.816787482563264],[-5.077277985843535,36.816787482563264],[-5.075481355275296,36.816787482563264],[-5.075481355275296,36.8182257721156],[-5.073684724707058,36.8182257721156],[-5.071888094138818,36.8182257721156],[-5.071888094138818,36.819664034640354],[-5.070091463570579,36.819664034640354],[-5.070091463570579,36.8182257721156],[-5.068294833002341,36.8182257721156],[-5.068294833002341,36.816787482563264],[-5.066498202434101,36.816787482563264],[-5.064701571865862,36.816787482563264],[-5.0629049412976235,36.816787482563264],[-5.0629049412976235,36.81534916598377],[-5.061108310729384,36.81534916598377],[-5.061108310729384,36.813910822377494],[-5.059311680161144,36.813910822377494],[-5.059311680161144,36.812472451744846],[-5.059311680161144,36.81103405408624],[-5.059311680161144,36.809595629402054],[-5.057515049592906,36.809595629402054],[-5.057515049592906,36.80815717769269],[-5.055718419024667,36.80815717769269],[-5.055718419024667,36.80671869895857],[-5.055718419024667,36.80528019320008],[-5.053921788456427,36.80528019320008],[-5.053921788456427,36.803841660417575],[-5.053921788456427,36.802403100611514],[-5.053921788456427,36.80096451378227],[-5.055718419024667,36.80096451378227],[-5.057515049592906,36.80096451378227],[-5.059311680161144,36.80096451378227],[-5.059311680161144,36.799525899930266],[-5.061108310729384,36.799525899930266],[-5.0629049412976235,36.799525899930266],[-5.0629049412976235,36.79808725905587],[-5.064701571865862,36.79808725905587],[-5.066498202434101,36.79808725905587],[-5.066498202434101,36.796648591159475],[-5.068294833002341,36.796648591159475],[-5.068294833002341,36.795209896241516],[-5.070091463570579,36.795209896241516],[-5.070091463570579,36.793771174302364],[-5.070091463570579,36.79233242534246],[-5.071888094138818,36.79233242534246],[-5.071888094138818,36.79089364936214],[-5.073684724707058,36.79089364936214],[-5.075481355275296,36.79089364936214],[-5.077277985843535,36.79089364936214],[-5.077277985843535,36.78945484636184],[-5.079074616411774,36.78945484636184],[-5.079074616411774,36.78801601634199],[-5.0808712469800135,36.78801601634199],[-5.0826678775482526,36.78801601634199],[-5.084464508116491,36.78801601634199],[-5.086261138684731,36.78801601634199],[-5.08805776925297,36.78801601634199],[-5.089854399821208,36.78801601634199],[-5.091651030389448,36.78801601634199],[-5.093447660957687,36.78801601634199],[-5.095244291525925,36.78801601634199],[-5.095244291525925,36.78657715930292],[-5.097040922094164,36.78657715930292],[-5.097040922094164,36.78801601634199],[-5.098837552662404,36.78801601634199],[-5.1006341832306425,36.78801601634199],[-5.1006341832306425,36.78945484636184],[-5.102430813798882,36.78945484636184]]],[[[-4.491576420597608,36.66273441926029],[-4.491576420597608,36.664175598444395],[-4.4897797900293686,36.664175598444395],[-4.487983159461129,36.664175598444395],[-4.48618652889289,36.664175598444395],[-4.484389898324651,36.664175598444395],[-4.484389898324651,36.66273441926029],[-4.484389898324651,36.66129321309211],[-4.48618652889289,36.66129321309211],[-4.48618652889289,36.65985197994023],[-4.487983159461129,36.65985197994023],[-4.4897797900293686,36.65985197994023],[-4.4897797900293686,36.658410719805055],[-4.491576420597608,36.658410719805055],[-4.491576420597608,36.65985197994023],[-4.493373051165846,36.65985197994023],[-4.493373051165846,36.66129321309211],[-4.491576420597608,36.66129321309211],[-4.491576420597608,36.66273441926029]]]]}},{"type":"Feature","properties":{"category":"prison"},"geometry":{"type":"MultiPolygon","coordinates":[[[[-4.585001210146038,36.67426309714431],[-4.585001210146038,36.67570406044104],[-4.5832045795777985,36.67570406044104],[-4.5832045795777985,36.67714499675],[-4.581407949009559,36.67714499675],[-4.581407949009559,36.67570406044104],[-4.581407949009559,36.67426309714431],[-4.5832045795777985,36.67426309714431],[-4.5832045795777985,36.672822106860245],[-4.585001210146038,36.672822106860245],[-4.585001210146038,36.67426309714431]]],[[[-4.364015650252635,37.06234182673471],[-4.365812280820875,37.06234182673471],[-4.365812280820875,37.063775488844485],[-4.364015650252635,37.063775488844485],[-4.362219019684396,37.063775488844485],[-4.362219019684396,37.065209123859674],[-4.360422389116158,37.065209123859674],[-4.360422389116158,37.063775488844485],[-4.358625758547918,37.063775488844485],[-4.358625758547918,37.06234182673471],[-4.358625758547918,37.06090813753071],[-4.360422389116158,37.06090813753071],[-4.362219019684396,37.06090813753071],[-4.362219019684396,37.059474421232906],[-4.364015650252635,37.059474421232906],[-4.364015650252635,37.06090813753071],[-4.364015650252635,37.06234182673471]]]]}}]}
