{"type":"FeatureCollection","features":[{"type":"Feature","properties":{"category":"airport"},"geometry":{"type":"MultiPolygon","coordinates":[[[[4.407134783890372,43.752366754195386],[4.407134783890372,43.75366450997862],[4.407134783890372,43.75496223761991],[4.407134783890372,43.75625993711921],[4.407134783890372,43.7575576084765],[4.405338153322133,43.7575576084765],[4.405338153322133,43.75885525169167],[4.405338153322133,43.76015286676473],[4.405338153322133,43.76145045369555],[4.405338153322133,43.76274801248411],[4.405338153322133,43.764045543130386],[4.405338153322133,43.765343045634275],[4.405338153322133,43.766640519995754],[4.405338153322133,43.76793796621474],[4.405338153322133,43.76923538429121],[4.405338153322133,43.77053277422509],[4.405338153322133,43.77183013601633],[4.407134783890372,43.77183013601633],[4.408931414458611,43.77183013601633],[4.408931414458611,43.77312746966485],[4.4107280450268505,43.77312746966485],[4.4125246755950895,43.77312746966485],[4.414321306163329,43.77312746966485],[4.414321306163329,43.77442477517062],[4.416117936731568,43.77442477517062],[4.417914567299807,43.77442477517062],[4.417914567299807,43.77312746966485],[4.417914567299807,43.77183013601633],[4.417914567299807,43.77053277422509],[4.419711197868045,43.77053277422509],[4.419711197868045,43.76923538429121],[4.417914567299807,43.76923538429121],[4.417914567299807,43.76793796621474],[4.417914567299807,43.766640519995754],[4.419711197868045,43.766640519995754],[4.419711197868045,43.765343045634275],[4.421507828436285,43.765343045634275],[4.421507828436285,43.764045543130386],[4.421507828436285,43.76274801248411],[4.421507828436285,43.76145045369555],[4.423304459004524,43.76145045369555],[4.423304459004524,43.76015286676473],[4.423304459004524,43.75885525169167],[4.425101089572762,43.75885525169167],[4.425101089572762,43.7575576084765],[4.423304459004524,43.7575576084765],[4.421507828436285,43.7575576084765],[4.421507828436285,43.75625993711921],[4.419711197868045,43.75625993711921],[4.419711197868045,43.75496223761991],[4.419711197868045,43.75366450997862],[4.421507828436285,43.75366450997862],[4.421507828436285,43.752366754195386],[4.419711197868045,43.752366754195386],[4.419711197868045,43.75106897027032],[4.419711197868045,43.749771158203394],[4.419711197868045,43.74847331799472],[4.419711197868045,43.74717544964435],[4.419711197868045,43.74587755315236],[4.421507828436285,43.74587755315236],[4.421507828436285,43.744579628518764],[4.421507828436285,43.743281675743596],[4.419711197868045,43.743281675743596],[4.417914567299807,43.743281675743596],[4.416117936731568,43.743281675743596],[4.414321306163329,43.743281675743596],[4.4125246755950895,43.743281675743596],[4.4107280450268505,43.743281675743596],[4.408931414458611,43.743281675743596],[4.408931414458611,43.744579628518764],[4.408931414458611,43.74587755315236],[4.408931414458611,43.74717544964435],[4.408931414458611,43.74847331799472],[4.408931414458611,43.749771158203394],[4.407134783890372,43.749771158203394],[4.407134783890372,43.75106897027032],[4.407134783890372,43.752366754195386]]],[[[4.407134783890372,43.853507190947546],[4.407134783890372,43.85480275149848],[4.407134783890372,43.85609828390332],[4.407134783890372,43.85739378816203],[4.407134783890372,43.85868926427458],[4.408931414458611,43.85868926427458],[4.408931414458611,43.85739378816203],[4.4107280450268505,43.85739378816203],[4.4107280450268505,43.85868926427458],[4.4125246755950895,43.85868926427458],[4.414321306163329,43.85868926427458],[4.416117936731568,43.85868926427458],[4.417914567299807,43.85868926427458],[4.417914567299807,43.85739378816203],[4.417914567299807,43.85609828390332],[4.419711197868045,43.85609828390332],[4.421507828436285,43.85609828390332],[4.421507828436285,43.85480275149848],[4.423304459004524,43.85480275149848],[4.423304459004524,43.853507190947546],[4.421507828436285,43.853507190947546],[4.421507828436285,43.852211602250605],[4.419711197868045,43.852211602250605],[4.419711197868045,43.850915985407696],[4.417914567299807,43.850915985407696],[4.417914567299807,43.84962034041886],[4.416117936731568,43.84962034041886],[4.414321306163329,43.84962034041886],[4.414321306163329,43.850915985407696],[4.4125246755950895,43.850915985407696],[4.4125246755950895,43.852211602250605],[4.4107280450268505,43.852211602250605],[4.4107280450268505,43.850915985407696],[4.408931414458611,43.850915985407696],[4.408931414458611,43.852211602250605],[4.407134783890372,43.852211602250605],[4.407134783890372,43.853507190947546]]],[[[4.139436829222755,44.065602885830224],[4.139436829222755,44.066893829786935],[4.141233459790993,44.066893829786935],[4.141233459790993,44.065602885830224],[4.141233459790993,44.064311913719905],[4.141233459790993,44.06302091345606],[4.139436829222755,44.06302091345606],[4.139436829222755,44.064311913719905],[4.139436829222755,44.065602885830224]]],[[[4.1430300903592325,44.072057324076965],[4.1430300903592325,44.07334812726508],[4.1430300903592325,44.07463890229934],[4.1430300903592325,44.07592964917973],[4.1448267209274725,44.07592964917973],[4.1448267209274725,44.07463890229934],[4.1448267209274725,44.07334812726508],[4.1448267209274725,44.072057324076965],[4.1448267209274725,44.070766492735075],[4.1448267209274725,44.0694756332394],[4.1430300903592325,44.0694756332394],[4.1430300903592325,44.06818474559001],[4.1430300903592325,44.066893829786935],[4.141233459790993,44.066893829786935],[4.141233459790993,44.06818474559001],[4.141233459790993,44.0694756332394],[4.141233459790993,44.070766492735075],[4.141233459790993,44.072057324076965],[4.1430300903592325,44.072057324076965]]],[[[4.39276173934446,44.08367353922809],[4.39276173934446,44.0849640890301],[4.39276173934446,44.086254610677926],[4.39276173934446,44.087545104171504],[4.394558369912699,44.087545104171504],[4.394558369912699,44.086254610677926],[4.394558369912699,44.0849640890301],[4.394558369912699,44.08367353922809],[4.394558369912699,44.082382961271875],[4.394558369912699,44.08109235516152],[4.394558369912699,44.0798017208971],[4.394558369912699,44.07851105847864],[4.39276173934446,44.07851105847864],[4.39276173934446,44.0798017208971],[4.39276173934446,44.08109235516152],[4.39276173934446,44.082382961271875],[4.390965108776221,44.082382961271875],[4.390965108776221,44.08367353922809],[4.39276173934446,44.08367353922809]]],[[[4.0100794283095444,44.24734808933964],[4.011876058877783,44.24734808933964],[4.011876058877783,44.24606108726828],[4.011876058877783,44.24477405703813],[4.011876058877783,44.243486998649146],[4.011876058877783,44.24219991210142],[4.011876058877783,44.24091279739497],[4.0100794283095444,44.24091279739497],[4.0100794283095444,44.24219991210142],[4.0100794283095444,44.243486998649146],[4.0100794283095444,44.24477405703813],[4.0100794283095444,44.24606108726828],[4.0100794283095444,44.24734808933964]]],[[[4.748494591855791,43.99455761284158],[4.746697961287551,43.99455761284158],[4.744901330719312,43.99455761284158],[4.744901330719312,43.99585010518307],[4.746697961287551,43.99585010518307],[4.746697961287551,43.99714256937329],[4.748494591855791,43.99714256937329],[4.748494591855791,43.99843500541219],[4.748494591855791,43.99972741329972],[4.750291222424029,43.99972741329972],[4.750291222424029,44.00101979303586],[4.750291222424029,44.002312144620525],[4.752087852992268,44.002312144620525],[4.753884483560508,44.002312144620525],[4.753884483560508,44.00101979303586],[4.7556811141287465,44.00101979303586],[4.757477744696986,44.00101979303586],[4.757477744696986,43.99972741329972],[4.759274375265225,43.99972741329972],[4.759274375265225,43.99843500541219],[4.761071005833464,43.99843500541219],[4.762867636401703,43.99843500541219],[4.762867636401703,43.99714256937329],[4.764664266969941,43.99714256937329],[4.764664266969941,43.99585010518307],[4.762867636401703,43.99585010518307],[4.762867636401703,43.99455761284158],[4.761071005833464,43.99455761284158],[4.761071005833464,43.99326509234883],[4.761071005833464,43.991972543704904],[4.759274375265225,43.991972543704904],[4.759274375265225,43.990679966909845],[4.757477744696986,43.990679966909845],[4.757477744696986,43.989387361963665],[4.7556811141287465,43.989387361963665],[4.7556811141287465,43.990679966909845],[4.753884483560508,43.990679966909845],[4.752087852992268,43.990679966909845],[4.752087852992268,43.991972543704904],[4.750291222424029,43.991972543704904],[4.750291222424029,43.99326509234883],[4.748494591855791,43.99326509234883],[4.748494591855791,43.99455761284158]]]]}},{"type":"Feature","properties":{"category":"military"},"geometry":{"type":"MultiPolygon","coordinates":[[[[4.16818291831458,43.48051831138669],[4.169979548882819,43.48051831138669],[4.171776179451058,43.48051831138669],[4.171776179451058,43.47921464712053],[4.173572810019296,43.47921464712053],[4.173572810019296,43.477910954725445],[4.171776179451058,43.477910954725445],[4.169979548882819,43.477910954725445],[4.16818291831458,43.477910954725445],[4.166386287746341,43.477910954725445],[4.166386287746341,43.47921464712053],[4.166386287746341,43.48051831138669],[4.16818291831458,43.48051831138669]]],[[[4.2957436886595515,43.89236176372727],[4.2957436886595515,43.89365647987402],[4.293947058091312,43.89365647987402],[4.293947058091312,43.89495116787319],[4.292150427523074,43.89495116787319],[4.290353796954834,43.89495116787319],[4.290353796954834,43.896245827724755],[4.288557166386595,43.896245827724755],[4.288557166386595,43.89754045942864],[4.288557166386595,43.898835062984794],[4.286760535818357,43.898835062984794],[4.286760535818357,43.90012963839317],[4.284963905250117,43.90012963839317],[4.284963905250117,43.90142418565373],[4.284963905250117,43.902718704766414],[4.286760535818357,43.902718704766414],[4.286760535818357,43.90401319573122],[4.284963905250117,43.90401319573122],[4.284963905250117,43.905307658548004],[4.284963905250117,43.90660209321678],[4.284963905250117,43.907896499737525],[4.284963905250117,43.909190878110124],[4.286760535818357,43.909190878110124],[4.286760535818357,43.91048522833459],[4.286760535818357,43.91177955041082],[4.288557166386595,43.91177955041082],[4.290353796954834,43.91177955041082],[4.292150427523074,43.91177955041082],[4.292150427523074,43.91048522833459],[4.293947058091312,43.91048522833459],[4.2957436886595515,43.91048522833459],[4.2957436886595515,43.91177955041082],[4.2957436886595515,43.913073844338804],[4.297540319227791,43.913073844338804],[4.29933694979603,43.913073844338804],[4.301133580364269,43.913073844338804],[4.302930210932508,43.913073844338804],[4.302930210932508,43.91177955041082],[4.304726841500747,43.91177955041082],[4.304726841500747,43.913073844338804],[4.306523472068986,43.913073844338804],[4.308320102637225,43.913073844338804],[4.308320102637225,43.91177955041082],[4.310116733205464,43.91177955041082],[4.310116733205464,43.913073844338804],[4.311913363773703,43.913073844338804],[4.313709994341942,43.913073844338804],[4.313709994341942,43.91177955041082],[4.3155066249101806,43.91177955041082],[4.3173032554784205,43.91177955041082],[4.31909988604666,43.91177955041082],[4.320896516614898,43.91177955041082],[4.320896516614898,43.91048522833459],[4.322693147183138,43.91048522833459],[4.322693147183138,43.909190878110124],[4.324489777751377,43.909190878110124],[4.324489777751377,43.91048522833459],[4.326286408319615,43.91048522833459],[4.328083038887854,43.91048522833459],[4.329879669456093,43.91048522833459],[4.331676300024332,43.91048522833459],[4.333472930592571,43.91048522833459],[4.3352695611608105,43.91048522833459],[4.3352695611608105,43.91177955041082],[4.3352695611608105,43.913073844338804],[4.333472930592571,43.913073844338804],[4.333472930592571,43.914368110118474],[4.3352695611608105,43.914368110118474],[4.33706619172905,43.914368110118474],[4.33706619172905,43.9156623477498],[4.33706619172905,43.91695655723271],[4.338862822297289,43.91695655723271],[4.338862822297289,43.91825073856715],[4.338862822297289,43.91954489175313],[4.338862822297289,43.92083901679053],[4.338862822297289,43.922133113679365],[4.338862822297289,43.92342718241952],[4.33706619172905,43.92342718241952],[4.33706619172905,43.92472122301101],[4.338862822297289,43.92472122301101],[4.340659452865528,43.92472122301101],[4.340659452865528,43.92342718241952],[4.342456083433767,43.92342718241952],[4.342456083433767,43.922133113679365],[4.344252714002006,43.922133113679365],[4.346049344570244,43.922133113679365],[4.347845975138484,43.922133113679365],[4.349642605706723,43.922133113679365],[4.351439236274961,43.922133113679365],[4.351439236274961,43.92342718241952],[4.353235866843201,43.92342718241952],[4.353235866843201,43.92472122301101],[4.353235866843201,43.926015235453775],[4.353235866843201,43.92730921974771],[4.353235866843201,43.92860317589285],[4.3550324974114405,43.92860317589285],[4.356829127979679,43.92860317589285],[4.358625758547918,43.92860317589285],[4.360422389116158,43.92860317589285],[4.360422389116158,43.9298971038891],[4.362219019684396,43.9298971038891],[4.364015650252635,43.9298971038891],[4.364015650252635,43.92860317589285],[4.365812280820875,43.92860317589285],[4.367608911389113,43.92860317589285],[4.369405541957352,43.92860317589285],[4.369405541957352,43.9298971038891],[4.369405541957352,43.93119100373641],[4.369405541957352,43.93248487543474],[4.371202172525591,43.93248487543474],[4.371202172525591,43.933778718984044],[4.371202172525591,43.935072534384275],[4.371202172525591,43.9363663216354],[4.3729988030938305,43.9363663216354],[4.3729988030938305,43.93766008073736],[4.37479543366207,43.93766008073736],[4.37479543366207,43.9389538116901],[4.37479543366207,43.94024751449357],[4.376592064230309,43.94024751449357],[4.376592064230309,43.94154118914774],[4.378388694798548,43.94154118914774],[4.380185325366787,43.94154118914774],[4.381981955935026,43.94154118914774],[4.381981955935026,43.94024751449357],[4.381981955935026,43.9389538116901],[4.383778586503265,43.9389538116901],[4.383778586503265,43.93766008073736],[4.383778586503265,43.9363663216354],[4.385575217071504,43.9363663216354],[4.385575217071504,43.935072534384275],[4.387371847639743,43.935072534384275],[4.387371847639743,43.933778718984044],[4.387371847639743,43.93248487543474],[4.389168478207981,43.93248487543474],[4.389168478207981,43.93119100373641],[4.390965108776221,43.93119100373641],[4.39276173934446,43.93119100373641],[4.39276173934446,43.93248487543474],[4.394558369912699,43.93248487543474],[4.396355000480939,43.93248487543474],[4.398151631049177,43.93248487543474],[4.398151631049177,43.933778718984044],[4.399948261617416,43.933778718984044],[4.401744892185655,43.933778718984044],[4.403541522753894,43.933778718984044],[4.405338153322133,43.933778718984044],[4.405338153322133,43.93248487543474],[4.407134783890372,43.93248487543474],[4.408931414458611,43.93248487543474],[4.4107280450268505,43.93248487543474],[4.4125246755950895,43.93248487543474],[4.4125246755950895,43.93119100373641],[4.414321306163329,43.93119100373641],[4.416117936731568,43.93119100373641],[4.417914567299807,43.93119100373641],[4.419711197868045,43.93119100373641],[4.419711197868045,43.9298971038891],[4.419711197868045,43.92860317589285],[4.421507828436285,43.92860317589285],[4.421507828436285,43.92730921974771],[4.421507828436285,43.926015235453775],[4.421507828436285,43.92472122301101],[4.421507828436285,43.92342718241952],[4.421507828436285,43.922133113679365],[4.419711197868045,43.922133113679365],[4.419711197868045,43.92083901679053],[4.417914567299807,43.92083901679053],[4.417914567299807,43.91954489175313],[4.416117936731568,43.91954489175313],[4.414321306163329,43.91954489175313],[4.4125246755950895,43.91954489175313],[4.4125246755950895,43.91825073856715],[4.4107280450268505,43.91825073856715],[4.4107280450268505,43.91954489175313],[4.408931414458611,43.91954489175313],[4.407134783890372,43.91954489175313],[4.407134783890372,43.91825073856715],[4.407134783890372,43.91695655723271],[4.407134783890372,43.9156623477498],[4.407134783890372,43.914368110118474],[4.405338153322133,43.914368110118474],[4.405338153322133,43.913073844338804],[4.405338153322133,43.91177955041082],[4.405338153322133,43.91048522833459],[4.403541522753894,43.91048522833459],[4.403541522753894,43.909190878110124],[4.403541522753894,43.907896499737525],[4.403541522753894,43.90660209321678],[4.405338153322133,43.90660209321678],[4.405338153322133,43.905307658548004],[4.405338153322133,43.90401319573122],[4.405338153322133,43.902718704766414],[4.405338153322133,43.90142418565373],[4.407134783890372,43.90142418565373],[4.407134783890372,43.90012963839317],[4.407134783890372,43.898835062984794],[4.408931414458611,43.898835062984794],[4.4107280450268505,43.898835062984794],[4.4107280450268505,43.90012963839317],[4.4125246755950895,43.90012963839317],[4.414321306163329,43.90012963839317],[4.416117936731568,43.90012963839317],[4.416117936731568,43.898835062984794],[4.417914567299807,43.898835062984794],[4.417914567299807,43.89754045942864],[4.419711197868045,43.89754045942864],[4.421507828436285,43.89754045942864],[4.423304459004524,43.89754045942864],[4.423304459004524,43.896245827724755],[4.421507828436285,43.896245827724755],[4.421507828436285,43.89495116787319],[4.419711197868045,43.89495116787319],[4.419711197868045,43.89365647987402],[4.419711197868045,43.89236176372727],[4.419711197868045,43.891067019432974],[4.421507828436285,43.891067019432974],[4.421507828436285,43.88977224699122],[4.423304459004524,43.88977224699122],[4.423304459004524,43.88847744640202],[4.423304459004524,43.887182617665445],[4.421507828436285,43.887182617665445],[4.419711197868045,43.887182617665445],[4.417914567299807,43.887182617665445],[4.417914567299807,43.88588776078154],[4.416117936731568,43.88588776078154],[4.416117936731568,43.88459287575037],[4.416117936731568,43.88329796257197],[4.416117936731568,43.88200302124636],[4.414321306163329,43.88200302124636],[4.4125246755950895,43.88200302124636],[4.4107280450268505,43.88200302124636],[4.408931414458611,43.88200302124636],[4.407134783890372,43.88200302124636],[4.407134783890372,43.88329796257197],[4.405338153322133,43.88329796257197],[4.403541522753894,43.88329796257197],[4.401744892185655,43.88329796257197],[4.401744892185655,43.88459287575037],[4.399948261617416,43.88459287575037],[4.398151631049177,43.88459287575037],[4.398151631049177,43.88329796257197],[4.396355000480939,43.88329796257197],[4.394558369912699,43.88329796257197],[4.39276173934446,43.88329796257197],[4.390965108776221,43.88329796257197],[4.389168478207981,43.88329796257197],[4.387371847639743,43.88329796257197],[4.385575217071504,43.88329796257197],[4.383778586503265,43.88329796257197],[4.381981955935026,43.88329796257197],[4.380185325366787,43.88329796257197],[4.378388694798548,43.88329796257197],[4.378388694798548,43.88200302124636],[4.378388694798548,43.880708051773645],[4.380185325366787,43.880708051773645],[4.380185325366787,43.879413054153815],[4.378388694798548,43.879413054153815],[4.376592064230309,43.879413054153815],[4.376592064230309,43.880708051773645],[4.37479543366207,43.880708051773645],[4.3729988030938305,43.880708051773645],[4.371202172525591,43.880708051773645],[4.371202172525591,43.879413054153815],[4.369405541957352,43.879413054153815],[4.369405541957352,43.880708051773645],[4.367608911389113,43.880708051773645],[4.365812280820875,43.880708051773645],[4.365812280820875,43.879413054153815],[4.364015650252635,43.879413054153815],[4.362219019684396,43.879413054153815],[4.360422389116158,43.879413054153815],[4.358625758547918,43.879413054153815],[4.356829127979679,43.879413054153815],[4.3550324974114405,43.879413054153815],[4.353235866843201,43.879413054153815],[4.353235866843201,43.87811802838699],[4.351439236274961,43.87811802838699],[4.349642605706723,43.87811802838699],[4.349642605706723,43.879413054153815],[4.347845975138484,43.879413054153815],[4.347845975138484,43.87811802838699],[4.346049344570244,43.87811802838699],[4.344252714002006,43.87811802838699],[4.344252714002006,43.87682297447317],[4.342456083433767,43.87682297447317],[4.342456083433767,43.875527892412414],[4.340659452865528,43.875527892412414],[4.340659452865528,43.87682297447317],[4.338862822297289,43.87682297447317],[4.338862822297289,43.875527892412414],[4.33706619172905,43.875527892412414],[4.3352695611608105,43.875527892412414],[4.3352695611608105,43.87423278220479],[4.333472930592571,43.87423278220479],[4.331676300024332,43.87423278220479],[4.329879669456093,43.87423278220479],[4.329879669456093,43.87293764385032],[4.328083038887854,43.87293764385032],[4.328083038887854,43.87423278220479],[4.326286408319615,43.87423278220479],[4.326286408319615,43.875527892412414],[4.324489777751377,43.875527892412414],[4.324489777751377,43.87682297447317],[4.324489777751377,43.87811802838699],[4.322693147183138,43.87811802838699],[4.320896516614898,43.87811802838699],[4.31909988604666,43.87811802838699],[4.31909988604666,43.87682297447317],[4.3173032554784205,43.87682297447317],[4.3155066249101806,43.87682297447317],[4.3155066249101806,43.875527892412414],[4.313709994341942,43.875527892412414],[4.313709994341942,43.87682297447317],[4.313709994341942,43.87811802838699],[4.311913363773703,43.87811802838699],[4.311913363773703,43.879413054153815],[4.310116733205464,43.879413054153815],[4.310116733205464,43.880708051773645],[4.310116733205464,43.88200302124636],[4.308320102637225,43.88200302124636],[4.308320102637225,43.88329796257197],[4.308320102637225,43.88459287575037],[4.306523472068986,43.88459287575037],[4.306523472068986,43.88588776078154],[4.306523472068986,43.887182617665445],[4.304726841500747,43.887182617665445],[4.304726841500747,43.88847744640202],[4.302930210932508,43.88847744640202],[4.301133580364269,43.88847744640202],[4.301133580364269,43.88977224699122],[4.29933694979603,43.88977224699122],[4.29933694979603,43.891067019432974],[4.297540319227791,43.891067019432974],[4.2957436886595515,43.891067019432974],[4.2957436886595515,43.89236176372727]]],[[[4.3173032554784205,43.808144840037556],[4.3173032554784205,43.80944138566861],[4.31909988604666,43.80944138566861],[4.31909988604666,43.810737903155406],[4.320896516614898,43.810737903155406],[4.322693147183138,43.810737903155406],[4.322693147183138,43.80944138566861],[4.320896516614898,43.80944138566861],[4.320896516614898,43.808144840037556],[4.31909988604666,43.808144840037556],[4.3173032554784205,43.808144840037556]]],[[[4.369405541957352,43.84962034041886],[4.371202172525591,43.84962034041886],[4.3729988030938305,43.84962034041886],[4.3729988030938305,43.848324667284146],[4.3729988030938305,43.84702896600364],[4.371202172525591,43.84702896600364],[4.371202172525591,43.84573323657733],[4.369405541957352,43.84573323657733],[4.369405541957352,43.84702896600364],[4.367608911389113,43.84702896600364],[4.367608911389113,43.848324667284146],[4.369405541957352,43.848324667284146],[4.369405541957352,43.84962034041886]]],[[[4.687409152535663,44.08109235516152],[4.687409152535663,44.0798017208971],[4.689205783103902,44.0798017208971],[4.691002413672141,44.0798017208971],[4.69279904424038,44.0798017208971],[4.69279904424038,44.07851105847864],[4.69279904424038,44.077220367906165],[4.691002413672141,44.077220367906165],[4.691002413672141,44.07851105847864],[4.689205783103902,44.07851105847864],[4.689205783103902,44.077220367906165],[4.687409152535663,44.077220367906165],[4.685612521967425,44.077220367906165],[4.685612521967425,44.07851105847864],[4.683815891399185,44.07851105847864],[4.683815891399185,44.0798017208971],[4.685612521967425,44.0798017208971],[4.685612521967425,44.08109235516152],[4.687409152535663,44.08109235516152]]],[[[4.685612521967425,44.096577770304044],[4.685612521967425,44.09786803856213],[4.687409152535663,44.09786803856213],[4.689205783103902,44.09786803856213],[4.691002413672141,44.09786803856213],[4.69279904424038,44.09786803856213],[4.694595674808619,44.09786803856213],[4.694595674808619,44.096577770304044],[4.69279904424038,44.096577770304044],[4.69279904424038,44.09528747389137],[4.69279904424038,44.09399714932415],[4.694595674808619,44.09399714932415],[4.694595674808619,44.09270679660246],[4.694595674808619,44.091416415726286],[4.69279904424038,44.091416415726286],[4.691002413672141,44.091416415726286],[4.689205783103902,44.091416415726286],[4.687409152535663,44.091416415726286],[4.685612521967425,44.091416415726286],[4.685612521967425,44.09270679660246],[4.685612521967425,44.09399714932415],[4.685612521967425,44.09528747389137],[4.685612521967425,44.096577770304044]]]]}},{"type":"Feature","properties":{"category":"prison"},"geometry":{"type":"Polygon","coordinates":[[[4.340659452865528,43.764045543130386],[4.340659452865528,43.765343045634275],[4.340659452865528,43.766640519995754],[4.338862822297289,43.766640519995754],[4.338862822297289,43.76793796621474],[4.338862822297289,43.76923538429121],[4.340659452865528,43.76923538429121],[4.340659452865528,43.77053277422509],[4.342456083433767,43.77053277422509],[4.342456083433767,43.77183013601633],[4.344252714002006,43.77183013601633],[4.344252714002006,43.77053277422509],[4.346049344570244,43.77053277422509],[4.346049344570244,43.76923538429121],[4.347845975138484,43.76923538429121],[4.347845975138484,43.76793796621474],[4.346049344570244,43.76793796621474],[4.346049344570244,43.766640519995754],[4.346049344570244,43.765343045634275],[4.346049344570244,43.764045543130386],[4.346049344570244,43.76274801248411],[4.347845975138484,43.76274801248411],[4.347845975138484,43.76145045369555],[4.349642605706723,43.76145045369555],[4.349642605706723,43.76015286676473],[4.347845975138484,43.76015286676473],[4.346049344570244,43.76015286676473],[4.346049344570244,43.75885525169167],[4.344252714002006,43.75885525169167],[4.344252714002006,43.7575576084765],[4.342456083433767,43.7575576084765],[4.342456083433767,43.75885525169167],[4.342456083433767,43.76015286676473],[4.340659452865528,43.76015286676473],[4.340659452865528,43.76145045369555],[4.340659452865528,43.76274801248411],[4.340659452865528,43.764045543130386]]]}}]}
