{"type":"FeatureCollection","features":[{"type":"Feature","properties":{"category":"airport"},"geometry":{"type":"MultiPolygon","coordinates":[[[[10.873208198982688,45.3841364520578],[10.871411568414448,45.3841364520578],[10.871411568414448,45.38539830175181],[10.871411568414448,45.386660123279775],[10.871411568414448,45.38792191664174],[10.86961493784621,45.38792191664174],[10.86781830727797,45.38792191664174],[10.86781830727797,45.386660123279775],[10.866021676709732,45.386660123279775],[10.864225046141494,45.386660123279775],[10.864225046141494,45.38792191664174],[10.864225046141494,45.38918368183772],[10.864225046141494,45.390445418867685],[10.864225046141494,45.39170712773172],[10.866021676709732,45.39170712773172],[10.866021676709732,45.392968808429785],[10.86781830727797,45.392968808429785],[10.86961493784621,45.392968808429785],[10.871411568414448,45.392968808429785],[10.871411568414448,45.39170712773172],[10.873208198982688,45.39170712773172],[10.873208198982688,45.390445418867685],[10.875004829550928,45.390445418867685],[10.876801460119166,45.390445418867685],[10.876801460119166,45.39170712773172],[10.878598090687404,45.39170712773172],[10.878598090687404,45.392968808429785],[10.880394721255644,45.392968808429785],[10.880394721255644,45.39423046096192],[10.880394721255644,45.395492085328186],[10.878598090687404,45.395492085328186],[10.878598090687404,45.3967536815285],[10.878598090687404,45.398015249562974],[10.876801460119166,45.398015249562974],[10.876801460119166,45.399276789431575],[10.876801460119166,45.400538301134326],[10.878598090687404,45.400538301134326],[10.878598090687404,45.401799784671276],[10.880394721255644,45.401799784671276],[10.880394721255644,45.40306124004238],[10.880394721255644,45.40432266724772],[10.882191351823883,45.40432266724772],[10.883987982392123,45.40432266724772],[10.883987982392123,45.40306124004238],[10.885784612960363,45.40306124004238],[10.8875812435286,45.40306124004238],[10.8875812435286,45.401799784671276],[10.889377874096839,45.401799784671276],[10.891174504665079,45.401799784671276],[10.891174504665079,45.40306124004238],[10.892971135233317,45.40306124004238],[10.892971135233317,45.40432266724772],[10.892971135233317,45.40558406628728],[10.891174504665079,45.40558406628728],[10.891174504665079,45.406845437161074],[10.889377874096839,45.406845437161074],[10.889377874096839,45.40810677986915],[10.889377874096839,45.409368094411505],[10.891174504665079,45.409368094411505],[10.891174504665079,45.41062938078814],[10.892971135233317,45.41062938078814],[10.894767765801555,45.41062938078814],[10.896564396369795,45.41062938078814],[10.896564396369795,45.409368094411505],[10.898361026938035,45.409368094411505],[10.898361026938035,45.40810677986915],[10.898361026938035,45.406845437161074],[10.900157657506274,45.406845437161074],[10.900157657506274,45.40810677986915],[10.901954288074512,45.40810677986915],[10.903750918642752,45.40810677986915],[10.90554754921099,45.40810677986915],[10.90554754921099,45.409368094411505],[10.907344179779228,45.409368094411505],[10.907344179779228,45.40810677986915],[10.90914081034747,45.40810677986915],[10.90914081034747,45.406845437161074],[10.90914081034747,45.40558406628728],[10.910937440915708,45.40558406628728],[10.910937440915708,45.40432266724772],[10.910937440915708,45.40306124004238],[10.910937440915708,45.401799784671276],[10.90914081034747,45.401799784671276],[10.90914081034747,45.400538301134326],[10.907344179779228,45.400538301134326],[10.90554754921099,45.400538301134326],[10.903750918642752,45.400538301134326],[10.901954288074512,45.400538301134326],[10.901954288074512,45.401799784671276],[10.900157657506274,45.401799784671276],[10.900157657506274,45.400538301134326],[10.898361026938035,45.400538301134326],[10.898361026938035,45.399276789431575],[10.896564396369795,45.399276789431575],[10.896564396369795,45.398015249562974],[10.894767765801555,45.398015249562974],[10.894767765801555,45.3967536815285],[10.892971135233317,45.3967536815285],[10.892971135233317,45.395492085328186],[10.891174504665079,45.395492085328186],[10.891174504665079,45.39423046096192],[10.891174504665079,45.392968808429785],[10.889377874096839,45.392968808429785],[10.8875812435286,45.392968808429785],[10.8875812435286,45.39170712773172],[10.885784612960363,45.39170712773172],[10.885784612960363,45.390445418867685],[10.883987982392123,45.390445418867685],[10.883987982392123,45.38918368183772],[10.882191351823883,45.38918368183772],[10.882191351823883,45.38792191664174],[10.880394721255644,45.38792191664174],[10.880394721255644,45.386660123279775],[10.878598090687404,45.386660123279775],[10.878598090687404,45.38539830175181],[10.878598090687404,45.3841364520578],[10.878598090687404,45.38287457419774],[10.876801460119166,45.38287457419774],[10.876801460119166,45.3841364520578],[10.876801460119166,45.38539830175181],[10.875004829550928,45.38539830175181],[10.875004829550928,45.3841364520578],[10.873208198982688,45.3841364520578]]],[[[11.293619751950624,45.133735295318374],[11.293619751950624,45.132467840324274],[11.293619751950624,45.131200357161916],[11.293619751950624,45.12993284583124],[11.291823121382386,45.12993284583124],[11.291823121382386,45.131200357161916],[11.291823121382386,45.132467840324274],[11.291823121382386,45.133735295318374],[11.293619751950624,45.133735295318374]]],[[[10.919920593756903,45.46987806991541],[10.919920593756903,45.47113800436015],[10.919920593756903,45.47239791064014],[10.921717224325143,45.47239791064014],[10.921717224325143,45.473657788755375],[10.92351385489338,45.473657788755375],[10.92351385489338,45.47491763870588],[10.92531048546162,45.47491763870588],[10.927107116029859,45.47491763870588],[10.928903746598097,45.47491763870588],[10.930700377166337,45.47491763870588],[10.930700377166337,45.47617746049169],[10.932497007734575,45.47617746049169],[10.932497007734575,45.47743725411279],[10.934293638302815,45.47743725411279],[10.936090268871055,45.47743725411279],[10.936090268871055,45.47617746049169],[10.936090268871055,45.47491763870588],[10.937886899439293,45.47491763870588],[10.937886899439293,45.473657788755375],[10.936090268871055,45.473657788755375],[10.936090268871055,45.47239791064014],[10.934293638302815,45.47239791064014],[10.932497007734575,45.47239791064014],[10.932497007734575,45.47113800436015],[10.930700377166337,45.47113800436015],[10.930700377166337,45.46987806991541],[10.930700377166337,45.468618107305865],[10.928903746598097,45.468618107305865],[10.927107116029859,45.468618107305865],[10.92531048546162,45.468618107305865],[10.92531048546162,45.46987806991541],[10.92351385489338,45.46987806991541],[10.921717224325143,45.46987806991541],[10.919920593756903,45.46987806991541]]]]}},{"type":"Feature","properties":{"category":"military"},"geometry":{"type":"MultiPolygon","coordinates":[[[[10.716901339545892,45.37530271554954],[10.715104708977652,45.37530271554954],[10.713308078409414,45.37530271554954],[10.713308078409414,45.37656476240621],[10.713308078409414,45.37782678109676],[10.713308078409414,45.37908877162115],[10.713308078409414,45.38035073397944],[10.713308078409414,45.38161266817163],[10.715104708977652,45.38161266817163],[10.716901339545892,45.38161266817163],[10.71869797011413,45.38161266817163],[10.71869797011413,45.38287457419774],[10.720494600682368,45.38287457419774],[10.722291231250608,45.38287457419774],[10.722291231250608,45.38161266817163],[10.724087861818848,45.38161266817163],[10.725884492387086,45.38161266817163],[10.727681122955326,45.38161266817163],[10.727681122955326,45.38035073397944],[10.727681122955326,45.37908877162115],[10.727681122955326,45.37782678109676],[10.725884492387086,45.37782678109676],[10.724087861818848,45.37782678109676],[10.722291231250608,45.37782678109676],[10.720494600682368,45.37782678109676],[10.720494600682368,45.37656476240621],[10.71869797011413,45.37656476240621],[10.71869797011413,45.37530271554954],[10.716901339545892,45.37530271554954]]],[[[10.70252829499998,45.43710988845204],[10.70252829499998,45.438370555187795],[10.704324925568217,45.438370555187795],[10.704324925568217,45.43963119375826],[10.706121556136457,45.43963119375826],[10.707918186704696,45.43963119375826],[10.707918186704696,45.438370555187795],[10.706121556136457,45.438370555187795],[10.706121556136457,45.43710988845204],[10.706121556136457,45.43584919355097],[10.704324925568217,45.43584919355097],[10.70252829499998,45.43584919355097],[10.700731664431741,45.43584919355097],[10.700731664431741,45.43710988845204],[10.70252829499998,45.43710988845204]]],[[[10.743850798069477,45.37908877162115],[10.742054167501237,45.37908877162115],[10.740257536933,45.37908877162115],[10.738460906364761,45.37908877162115],[10.738460906364761,45.38035073397944],[10.738460906364761,45.38161266817163],[10.738460906364761,45.38287457419774],[10.738460906364761,45.3841364520578],[10.740257536933,45.3841364520578],[10.740257536933,45.38539830175181],[10.742054167501237,45.38539830175181],[10.743850798069477,45.38539830175181],[10.745647428637715,45.38539830175181],[10.745647428637715,45.3841364520578],[10.747444059205954,45.3841364520578],[10.747444059205954,45.38287457419774],[10.747444059205954,45.38161266817163],[10.745647428637715,45.38161266817163],[10.745647428637715,45.38035073397944],[10.745647428637715,45.37908877162115],[10.743850798069477,45.37908877162115]]],[[[10.844462109890863,45.38918368183772],[10.844462109890863,45.38792191664174],[10.844462109890863,45.386660123279775],[10.844462109890863,45.38539830175181],[10.842665479322624,45.38539830175181],[10.840868848754385,45.38539830175181],[10.840868848754385,45.386660123279775],[10.840868848754385,45.38792191664174],[10.840868848754385,45.38918368183772],[10.842665479322624,45.38918368183772],[10.844462109890863,45.38918368183772]]],[[[10.898361026938035,45.33616529249758],[10.898361026938035,45.334902344315935],[10.896564396369795,45.334902344315935],[10.894767765801555,45.334902344315935],[10.892971135233317,45.334902344315935],[10.892971135233317,45.33616529249758],[10.892971135233317,45.33742821251259],[10.894767765801555,45.33742821251259],[10.896564396369795,45.33742821251259],[10.898361026938035,45.33742821251259],[10.898361026938035,45.33616529249758]]],[[[10.853445262732059,45.357631102101706],[10.853445262732059,45.356368632750915],[10.855241893300297,45.356368632750915],[10.855241893300297,45.35510613523371],[10.853445262732059,45.35510613523371],[10.853445262732059,45.353843609550104],[10.851648632163819,45.353843609550104],[10.84985200159558,45.353843609550104],[10.84985200159558,45.35510613523371],[10.84985200159558,45.356368632750915],[10.84985200159558,45.357631102101706],[10.851648632163819,45.357631102101706],[10.853445262732059,45.357631102101706]]],[[[10.875004829550928,45.37277853733766],[10.875004829550928,45.371516405982455],[10.873208198982688,45.371516405982455],[10.873208198982688,45.37277853733766],[10.873208198982688,45.37404064052669],[10.873208198982688,45.37530271554954],[10.873208198982688,45.37656476240621],[10.875004829550928,45.37656476240621],[10.876801460119166,45.37656476240621],[10.876801460119166,45.37530271554954],[10.876801460119166,45.37404064052669],[10.875004829550928,45.37404064052669],[10.875004829550928,45.37277853733766]]],[[[11.015142013873572,45.38539830175181],[11.016938644441812,45.38539830175181],[11.016938644441812,45.3841364520578],[11.016938644441812,45.38287457419774],[11.016938644441812,45.38161266817163],[11.015142013873572,45.38161266817163],[11.013345383305333,45.38161266817163],[11.013345383305333,45.38287457419774],[11.015142013873572,45.38287457419774],[11.015142013873572,45.3841364520578],[11.015142013873572,45.38539830175181]]],[[[10.979209402508792,45.38792191664174],[10.98100603307703,45.38792191664174],[10.98100603307703,45.386660123279775],[10.98100603307703,45.38539830175181],[10.979209402508792,45.38539830175181],[10.977412771940552,45.38539830175181],[10.975616141372313,45.38539830175181],[10.975616141372313,45.386660123279775],[10.977412771940552,45.386660123279775],[10.977412771940552,45.38792191664174],[10.979209402508792,45.38792191664174]]],[[[10.98280266364527,45.43584919355097],[10.98280266364527,45.43710988845204],[10.98459929421351,45.43710988845204],[10.98459929421351,45.43584919355097],[10.98459929421351,45.43458847048459],[10.98459929421351,45.43332771925287],[10.98280266364527,45.43332771925287],[10.98280266364527,45.43458847048459],[10.98100603307703,45.43458847048459],[10.98100603307703,45.43584919355097],[10.98280266364527,45.43584919355097]]],[[[10.975616141372313,45.45097567345801],[10.977412771940552,45.45097567345801],[10.977412771940552,45.449715288374215],[10.975616141372313,45.449715288374215],[10.973819510804075,45.449715288374215],[10.973819510804075,45.45097567345801],[10.973819510804075,45.452236030376724],[10.975616141372313,45.452236030376724],[10.975616141372313,45.45097567345801]]],[[[11.140906153650304,45.267925783864285],[11.140906153650304,45.269190224897315],[11.139109523082066,45.269190224897315],[11.137312892513828,45.269190224897315],[11.137312892513828,45.27045463776299],[11.137312892513828,45.27171902246134],[11.137312892513828,45.2729833789924],[11.139109523082066,45.2729833789924],[11.140906153650304,45.2729833789924],[11.142702784218544,45.2729833789924],[11.142702784218544,45.27171902246134],[11.144499414786784,45.27171902246134],[11.144499414786784,45.27045463776299],[11.144499414786784,45.269190224897315],[11.142702784218544,45.269190224897315],[11.142702784218544,45.267925783864285],[11.140906153650304,45.267925783864285]]],[[[11.03670158069244,45.44089180416346],[11.03670158069244,45.442152386403436],[11.038498211260679,45.442152386403436],[11.040294841828919,45.442152386403436],[11.040294841828919,45.44341294047819],[11.040294841828919,45.44467346638771],[11.042091472397157,45.44467346638771],[11.042091472397157,45.445933964132074],[11.042091472397157,45.447194433711246],[11.042091472397157,45.448454875125286],[11.042091472397157,45.449715288374215],[11.043888102965397,45.449715288374215],[11.045684733533637,45.449715288374215],[11.045684733533637,45.45097567345801],[11.047481364101875,45.45097567345801],[11.047481364101875,45.449715288374215],[11.047481364101875,45.448454875125286],[11.045684733533637,45.448454875125286],[11.045684733533637,45.447194433711246],[11.045684733533637,45.445933964132074],[11.045684733533637,45.44467346638771],[11.045684733533637,45.44341294047819],[11.043888102965397,45.44341294047819],[11.043888102965397,45.442152386403436],[11.043888102965397,45.44089180416346],[11.042091472397157,45.44089180416346],[11.040294841828919,45.44089180416346],[11.038498211260679,45.44089180416346],[11.03670158069244,45.44089180416346]]],[[[11.29900964365534,45.19707213061145],[11.29900964365534,45.198338149032274],[11.300806274223579,45.198338149032274],[11.302602904791819,45.198338149032274],[11.302602904791819,45.19707213061145],[11.302602904791819,45.19580608402274],[11.300806274223579,45.19580608402274],[11.29900964365534,45.19580608402274],[11.29900964365534,45.19707213061145]]],[[[11.166058981605651,45.19960413928519],[11.164262351037411,45.19960413928519],[11.162465720469173,45.19960413928519],[11.160669089900935,45.19960413928519],[11.160669089900935,45.2008701013702],[11.158872459332695,45.2008701013702],[11.158872459332695,45.202136035287296],[11.158872459332695,45.20340194103657],[11.158872459332695,45.20466781861793],[11.157075828764457,45.20466781861793],[11.157075828764457,45.205933668031456],[11.155279198196219,45.205933668031456],[11.155279198196219,45.20719948927712],[11.155279198196219,45.208465282354936],[11.157075828764457,45.208465282354936],[11.158872459332695,45.208465282354936],[11.158872459332695,45.20719948927712],[11.160669089900935,45.20719948927712],[11.160669089900935,45.205933668031456],[11.162465720469173,45.205933668031456],[11.164262351037411,45.205933668031456],[11.164262351037411,45.20466781861793],[11.166058981605651,45.20466781861793],[11.167855612173891,45.20466781861793],[11.167855612173891,45.20340194103657],[11.167855612173891,45.202136035287296],[11.167855612173891,45.2008701013702],[11.167855612173891,45.19960413928519],[11.166058981605651,45.19960413928519]]]]}},{"type":"Feature","properties":{"category":"prison"},"geometry":{"type":"Polygon","coordinates":[[[11.045684733533637,45.44341294047819],[11.045684733533637,45.44467346638771],[11.047481364101875,45.44467346638771],[11.049277994670113,45.44467346638771],[11.049277994670113,45.44341294047819],[11.051074625238353,45.44341294047819],[11.051074625238353,45.442152386403436],[11.049277994670113,45.442152386403436],[11.047481364101875,45.442152386403436],[11.045684733533637,45.442152386403436],[11.045684733533637,45.44341294047819]]]}}]}
