{"type":"FeatureCollection","features":[{"type":"Feature","properties":{"category":"airport"},"geometry":{"type":"MultiPolygon","coordinates":[[[[3.350716009765815,43.321263672132176],[3.348919379197576,43.321263672132176],[3.347122748629337,43.321263672132176],[3.345326118061098,43.321263672132176],[3.343529487492859,43.321263672132176],[3.343529487492859,43.32257073948379],[3.3417328569246196,43.32257073948379],[3.339936226356381,43.32257073948379],[3.339936226356381,43.323877778715065],[3.338139595788142,43.323877778715065],[3.338139595788142,43.32518478982597],[3.339936226356381,43.32518478982597],[3.3417328569246196,43.32518478982597],[3.343529487492859,43.32518478982597],[3.345326118061098,43.32518478982597],[3.347122748629337,43.32518478982597],[3.348919379197576,43.32518478982597],[3.350716009765815,43.32518478982597],[3.352512640334054,43.32518478982597],[3.354309270902293,43.32518478982597],[3.3561059014705323,43.32518478982597],[3.3579025320387714,43.32518478982597],[3.35969916260701,43.32518478982597],[3.3614957931752496,43.32518478982597],[3.3614957931752496,43.323877778715065],[3.3632924237434882,43.323877778715065],[3.3632924237434882,43.32518478982597],[3.3650890543117273,43.32518478982597],[3.3650890543117273,43.323877778715065],[3.3668856848799664,43.323877778715065],[3.3668856848799664,43.32518478982597],[3.3686823154482055,43.32518478982597],[3.3704789460164446,43.32518478982597],[3.3704789460164446,43.323877778715065],[3.3704789460164446,43.32257073948379],[3.3704789460164446,43.321263672132176],[3.3686823154482055,43.321263672132176],[3.3668856848799664,43.321263672132176],[3.3650890543117273,43.321263672132176],[3.3632924237434882,43.321263672132176],[3.3614957931752496,43.321263672132176],[3.35969916260701,43.321263672132176],[3.35969916260701,43.319956576660346],[3.3579025320387714,43.319956576660346],[3.3561059014705323,43.319956576660346],[3.354309270902293,43.319956576660346],[3.352512640334054,43.319956576660346],[3.350716009765815,43.319956576660346],[3.350716009765815,43.321263672132176]]],[[[3.2860373093092092,43.605539102665155],[3.2842406787409706,43.605539102665155],[3.2842406787409706,43.60684003811415],[3.2860373093092092,43.60684003811415],[3.2878339398774488,43.60684003811415],[3.2878339398774488,43.605539102665155],[3.2878339398774488,43.60423813908095],[3.2860373093092092,43.60423813908095],[3.2860373093092092,43.605539102665155]]],[[[3.1441034944183253,43.643254807537616],[3.1441034944183253,43.644554927038534],[3.1459001249865644,43.644554927038534],[3.1459001249865644,43.643254807537616],[3.1459001249865644,43.641954659899675],[3.1459001249865644,43.640654484124845],[3.147696755554803,43.640654484124845],[3.147696755554803,43.6393542802131],[3.147696755554803,43.63805404816456],[3.147696755554803,43.63675378797926],[3.1459001249865644,43.63675378797926],[3.1459001249865644,43.635453499657245],[3.1441034944183253,43.635453499657245],[3.1441034944183253,43.63675378797926],[3.1441034944183253,43.63805404816456],[3.1441034944183253,43.6393542802131],[3.1441034944183253,43.640654484124845],[3.1441034944183253,43.641954659899675],[3.1441034944183253,43.643254807537616]]],[[[3.952587250125895,43.57430821146872],[3.952587250125895,43.57560982214555],[3.9507906195576554,43.57560982214555],[3.9507906195576554,43.57691140468865],[3.952587250125895,43.57691140468865],[3.952587250125895,43.57821295909791],[3.954383880694133,43.57821295909791],[3.954383880694133,43.57951448537325],[3.954383880694133,43.58081598351466],[3.952587250125895,43.58081598351466],[3.952587250125895,43.582117453522045],[3.9507906195576554,43.582117453522045],[3.9507906195576554,43.58341889539532],[3.9507906195576554,43.58472030913447],[3.9507906195576554,43.5860216947394],[3.952587250125895,43.5860216947394],[3.952587250125895,43.58732305221006],[3.952587250125895,43.588624381546374],[3.954383880694133,43.588624381546374],[3.954383880694133,43.589925682748294],[3.9561805112623727,43.589925682748294],[3.9561805112623727,43.588624381546374],[3.9579771418306113,43.588624381546374],[3.9579771418306113,43.58732305221006],[3.9597737723988504,43.58732305221006],[3.96157040296709,43.58732305221006],[3.96157040296709,43.588624381546374],[3.963367033535328,43.588624381546374],[3.963367033535328,43.589925682748294],[3.9651636641035677,43.589925682748294],[3.9651636641035677,43.588624381546374],[3.9669602946718068,43.588624381546374],[3.9669602946718068,43.58732305221006],[3.9669602946718068,43.5860216947394],[3.9669602946718068,43.58472030913447],[3.9687569252400454,43.58472030913447],[3.9687569252400454,43.58341889539532],[3.970553555808285,43.58341889539532],[3.970553555808285,43.582117453522045],[3.972350186376524,43.582117453522045],[3.9741468169447627,43.582117453522045],[3.9741468169447627,43.58081598351466],[3.9759434475130018,43.58081598351466],[3.9759434475130018,43.57951448537325],[3.9777400780812413,43.57951448537325],[3.97953670864948,43.57951448537325],[3.97953670864948,43.57821295909791],[3.981333339217719,43.57821295909791],[3.9831299697859586,43.57821295909791],[3.9831299697859586,43.57691140468865],[3.9831299697859586,43.57560982214555],[3.981333339217719,43.57560982214555],[3.981333339217719,43.57430821146872],[3.9831299697859586,43.57430821146872],[3.9831299697859586,43.57300657265815],[3.9849266003541968,43.57300657265815],[3.9849266003541968,43.57170490571397],[3.9831299697859586,43.57170490571397],[3.981333339217719,43.57170490571397],[3.97953670864948,43.57170490571397],[3.9777400780812413,43.57170490571397],[3.9777400780812413,43.57300657265815],[3.9759434475130018,43.57300657265815],[3.9759434475130018,43.57430821146872],[3.9741468169447627,43.57430821146872],[3.972350186376524,43.57430821146872],[3.972350186376524,43.57560982214555],[3.970553555808285,43.57560982214555],[3.9687569252400454,43.57560982214555],[3.9669602946718068,43.57560982214555],[3.9669602946718068,43.57430821146872],[3.9651636641035677,43.57430821146872],[3.9651636641035677,43.57300657265815],[3.9651636641035677,43.57170490571397],[3.9651636641035677,43.57040321063618],[3.963367033535328,43.57040321063618],[3.963367033535328,43.56910148742491],[3.96157040296709,43.56910148742491],[3.96157040296709,43.57040321063618],[3.9597737723988504,43.57040321063618],[3.9597737723988504,43.57170490571397],[3.9579771418306113,43.57170490571397],[3.9579771418306113,43.57300657265815],[3.9561805112623727,43.57300657265815],[3.954383880694133,43.57300657265815],[3.954383880694133,43.57430821146872],[3.952587250125895,43.57430821146872]],[[3.9597737723988504,43.57821295909791],[3.9579771418306113,43.57821295909791],[3.9579771418306113,43.57951448537325],[3.9561805112623727,43.57951448537325],[3.9561805112623727,43.57821295909791],[3.9561805112623727,43.57691140468865],[3.954383880694133,43.57691140468865],[3.954383880694133,43.57560982214555],[3.9561805112623727,43.57560982214555],[3.9561805112623727,43.57430821146872],[3.9579771418306113,43.57430821146872],[3.9579771418306113,43.57560982214555],[3.9597737723988504,43.57560982214555],[3.96157040296709,43.57560982214555],[3.96157040296709,43.57691140468865],[3.96157040296709,43.57821295909791],[3.9597737723988504,43.57821295909791]]],[[[3.7783140850067074,43.80036497522482],[3.7783140850067074,43.801661689720305],[3.780110715574946,43.801661689720305],[3.781907346143185,43.801661689720305],[3.781907346143185,43.80036497522482],[3.7837039767114247,43.80036497522482],[3.7837039767114247,43.79906823258547],[3.7855006072796633,43.79906823258547],[3.7855006072796633,43.797771461802256],[3.7837039767114247,43.797771461802256],[3.781907346143185,43.797771461802256],[3.781907346143185,43.79906823258547],[3.780110715574946,43.79906823258547],[3.780110715574946,43.80036497522482],[3.7783140850067074,43.80036497522482]]],[[[4.0675716064931935,43.61204349855673],[4.065774975924954,43.61204349855673],[4.065774975924954,43.613344293328716],[4.065774975924954,43.61464505996511],[4.0675716064931935,43.61464505996511],[4.069368237061432,43.61464505996511],[4.069368237061432,43.613344293328716],[4.071164867629672,43.613344293328716],[4.071164867629672,43.61204349855673],[4.072961498197911,43.61204349855673],[4.072961498197911,43.61074267564922],[4.072961498197911,43.60944182460624],[4.072961498197911,43.60814094542788],[4.071164867629672,43.60814094542788],[4.071164867629672,43.60944182460624],[4.069368237061432,43.60944182460624],[4.069368237061432,43.61074267564922],[4.0675716064931935,43.61074267564922],[4.0675716064931935,43.61204349855673]]]]}}]}
