{"type":"FeatureCollection","features":[{"type":"Feature","properties":{"category":"airport"},"geometry":{"type":"MultiPolygon","coordinates":[[[[-73.58100492223,45.68742771265344],[-73.58100492223,45.68868277494219],[-73.58100492223,45.68993780907048],[-73.58280155279824,45.68993780907048],[-73.58280155279824,45.69119281503837],[-73.58280155279824,45.69244779284589],[-73.58100492223,45.69244779284589],[-73.57920829166176,45.69244779284589],[-73.57920829166176,45.69119281503837],[-73.57920829166176,45.68993780907048],[-73.57920829166176,45.68868277494219],[-73.57920829166176,45.68742771265344],[-73.57920829166176,45.68617262220421],[-73.57920829166176,45.68491750359451],[-73.57920829166176,45.68366235682428],[-73.57920829166176,45.68240718189347],[-73.57920829166176,45.68115197880207],[-73.57920829166176,45.67989674755007],[-73.58100492223,45.67989674755007],[-73.58100492223,45.68115197880207],[-73.58100492223,45.68240718189347],[-73.58100492223,45.68366235682428],[-73.58100492223,45.68491750359451],[-73.58100492223,45.68617262220421],[-73.58100492223,45.68742771265344]]]]}},{"type":"Feature","properties":{"category":"military"},"geometry":{"type":"MultiPolygon","coordinates":[[[[-73.85588939917058,45.68993780907048],[-73.85588939917058,45.69119281503837],[-73.85768602973882,45.69119281503837],[-73.85768602973882,45.69244779284589],[-73.85948266030705,45.69244779284589],[-73.85948266030705,45.69370274249305],[-73.86127929087529,45.69370274249305],[-73.86127929087529,45.694957663979885],[-73.86307592144352,45.694957663979885],[-73.86307592144352,45.69621255730645],[-73.86307592144352,45.69746742247274],[-73.86127929087529,45.69746742247274],[-73.86127929087529,45.69872225947878],[-73.85948266030705,45.69872225947878],[-73.85768602973882,45.69872225947878],[-73.85768602973882,45.69997706832464],[-73.85588939917058,45.69997706832464],[-73.85409276860233,45.69997706832464],[-73.85409276860233,45.701231849010334],[-73.85229613803409,45.701231849010334],[-73.85229613803409,45.70248660153588],[-73.85049950746586,45.70248660153588],[-73.85049950746586,45.703741325901305],[-73.84870287689762,45.703741325901305],[-73.84870287689762,45.704996022106656],[-73.84870287689762,45.706250690151954],[-73.84870287689762,45.70750533003724],[-73.85049950746586,45.70750533003724],[-73.85049950746586,45.70875994176253],[-73.85049950746586,45.71001452532788],[-73.84870287689762,45.71001452532788],[-73.84870287689762,45.70875994176253],[-73.84690624632938,45.70875994176253],[-73.84690624632938,45.71001452532788],[-73.84510961576115,45.71001452532788],[-73.84510961576115,45.71126908073328],[-73.8433129851929,45.71126908073328],[-73.84151635462466,45.71126908073328],[-73.83971972405642,45.71126908073328],[-73.83792309348819,45.71126908073328],[-73.83792309348819,45.71001452532788],[-73.83612646291995,45.71001452532788],[-73.83432983235171,45.71001452532788],[-73.83253320178346,45.71001452532788],[-73.83073657121523,45.71001452532788],[-73.82893994064699,45.71001452532788],[-73.82893994064699,45.70875994176253],[-73.82893994064699,45.70750533003724],[-73.82893994064699,45.706250690151954],[-73.82893994064699,45.704996022106656],[-73.82893994064699,45.703741325901305],[-73.82893994064699,45.70248660153588],[-73.83073657121523,45.70248660153588],[-73.83073657121523,45.701231849010334],[-73.83073657121523,45.69997706832464],[-73.83073657121523,45.69872225947878],[-73.83073657121523,45.69746742247274],[-73.83073657121523,45.69621255730645],[-73.83073657121523,45.694957663979885],[-73.83253320178346,45.694957663979885],[-73.83253320178346,45.69370274249305],[-73.83253320178346,45.69244779284589],[-73.83253320178346,45.69119281503837],[-73.83432983235171,45.69119281503837],[-73.83432983235171,45.68993780907048],[-73.83612646291995,45.68993780907048],[-73.83612646291995,45.68868277494219],[-73.83792309348819,45.68868277494219],[-73.83792309348819,45.68742771265344],[-73.83971972405642,45.68742771265344],[-73.83971972405642,45.68617262220421],[-73.84151635462466,45.68617262220421],[-73.84151635462466,45.68491750359451],[-73.8433129851929,45.68491750359451],[-73.84510961576115,45.68491750359451],[-73.84510961576115,45.68617262220421],[-73.84690624632938,45.68617262220421],[-73.84870287689762,45.68617262220421],[-73.85049950746586,45.68617262220421],[-73.85049950746586,45.68742771265344],[-73.85229613803409,45.68742771265344],[-73.85229613803409,45.68868277494219],[-73.85409276860233,45.68868277494219],[-73.85409276860233,45.68993780907048],[-73.85588939917058,45.68993780907048]]],[[[-73.53429252745579,45.5730991610853],[-73.53429252745579,45.57435678609146],[-73.53429252745579,45.57561438293469],[-73.53429252745579,45.576871951615026],[-73.53249589688755,45.576871951615026],[-73.53249589688755,45.57812949213249],[-73.53249589688755,45.57938700448713],[-73.53249589688755,45.580644488678914],[-73.53069926631932,45.580644488678914],[-73.52890263575107,45.580644488678914],[-73.52890263575107,45.57938700448713],[-73.52890263575107,45.57812949213249],[-73.52710600518283,45.57812949213249],[-73.52710600518283,45.57938700448713],[-73.52710600518283,45.580644488678914],[-73.5253093746146,45.580644488678914],[-73.52351274404636,45.580644488678914],[-73.52351274404636,45.57938700448713],[-73.52171611347812,45.57938700448713],[-73.51991948290988,45.57938700448713],[-73.51991948290988,45.57812949213249],[-73.51812285234163,45.57812949213249],[-73.5163262217734,45.57812949213249],[-73.5163262217734,45.576871951615026],[-73.5163262217734,45.57561438293469],[-73.51812285234163,45.57561438293469],[-73.51812285234163,45.57435678609146],[-73.51812285234163,45.5730991610853],[-73.51991948290988,45.5730991610853],[-73.51991948290988,45.57184150791623],[-73.52171611347812,45.57184150791623],[-73.52171611347812,45.5730991610853],[-73.52351274404636,45.5730991610853],[-73.5253093746146,45.5730991610853],[-73.5253093746146,45.57435678609146],[-73.52710600518283,45.57435678609146],[-73.52710600518283,45.5730991610853],[-73.52710600518283,45.57184150791623],[-73.52890263575107,45.57184150791623],[-73.53069926631932,45.57184150791623],[-73.53069926631932,45.5730991610853],[-73.53249589688755,45.5730991610853],[-73.53429252745579,45.5730991610853]],[[-73.52890263575107,45.57561438293469],[-73.52890263575107,45.576871951615026],[-73.53069926631932,45.576871951615026],[-73.53069926631932,45.57561438293469],[-73.53069926631932,45.57435678609146],[-73.52890263575107,45.57435678609146],[-73.52890263575107,45.57561438293469]]],[[[-73.78402417644102,45.69370274249305],[-73.78222754587277,45.69370274249305],[-73.78222754587277,45.694957663979885],[-73.78043091530454,45.694957663979885],[-73.78043091530454,45.69621255730645],[-73.7786342847363,45.69621255730645],[-73.7786342847363,45.694957663979885],[-73.77683765416805,45.694957663979885],[-73.77683765416805,45.69370274249305],[-73.77504102359981,45.69370274249305],[-73.77504102359981,45.69244779284589],[-73.77504102359981,45.69119281503837],[-73.77324439303158,45.69119281503837],[-73.77324439303158,45.68993780907048],[-73.77144776246334,45.68993780907048],[-73.77144776246334,45.68868277494219],[-73.77324439303158,45.68868277494219],[-73.77324439303158,45.68742771265344],[-73.77504102359981,45.68742771265344],[-73.77683765416805,45.68742771265344],[-73.7786342847363,45.68742771265344],[-73.7786342847363,45.68868277494219],[-73.78043091530454,45.68868277494219],[-73.78043091530454,45.68993780907048],[-73.78043091530454,45.69119281503837],[-73.78222754587277,45.69119281503837],[-73.78222754587277,45.69244779284589],[-73.78402417644102,45.69244779284589],[-73.78402417644102,45.69370274249305]]]]}},{"type":"Feature","properties":{"category":"prison"},"geometry":{"type":"MultiPolygon","coordinates":[[[[-73.6546667755278,45.619612530005654],[-73.65287014495956,45.619612530005654],[-73.65287014495956,45.61835591884856],[-73.65287014495956,45.61709927952943],[-73.6546667755278,45.61709927952943],[-73.6546667755278,45.61584261204824],[-73.65646340609604,45.61584261204824],[-73.65646340609604,45.61709927952943],[-73.65826003666427,45.61709927952943],[-73.65826003666427,45.61835591884856],[-73.65826003666427,45.619612530005654],[-73.65646340609604,45.619612530005654],[-73.6546667755278,45.619612530005654]]],[[[-73.6456836226866,45.62338219450517],[-73.64388699211837,45.62338219450517],[-73.64388699211837,45.622125667833956],[-73.64209036155013,45.622125667833956],[-73.64209036155013,45.62086911300079],[-73.64388699211837,45.62086911300079],[-73.64388699211837,45.619612530005654],[-73.6456836226866,45.619612530005654],[-73.64748025325484,45.619612530005654],[-73.64748025325484,45.62086911300079],[-73.6456836226866,45.62086911300079],[-73.6456836226866,45.622125667833956],[-73.6456836226866,45.62338219450517]]],[[[-73.53788578859226,45.66106489947612],[-73.53608915802403,45.66106489947612],[-73.53608915802403,45.66232055314087],[-73.53429252745579,45.66232055314087],[-73.53429252745579,45.66106489947612],[-73.53249589688755,45.66106489947612],[-73.53249589688755,45.659809217650285],[-73.53429252745579,45.659809217650285],[-73.53608915802403,45.659809217650285],[-73.53608915802403,45.658553507663356],[-73.53788578859226,45.658553507663356],[-73.53788578859226,45.659809217650285],[-73.5396824191605,45.659809217650285],[-73.5396824191605,45.66106489947612],[-73.53788578859226,45.66106489947612]]]]}}]}
