{"type":"FeatureCollection","features":[{"type":"Feature","properties":{"id":"parc-la-fontaine-767368","name":"Parc La Fontaine","type":"park"},"geometry":{"type":"Polygon","coordinates":[[[-73.573899,45.5255307],[-73.5732936,45.5262078],[-73.5732516,45.5264019],[-73.5733084,45.5264529],[-73.5694547,45.5303716],[-73.5641062,45.5278876],[-73.5651067,45.5248442],[-73.5672786,45.5257631],[-73.5674239,45.525614],[-73.5676645,45.5257213],[-73.5686028,45.5246039],[-73.5657899,45.5232975],[-73.5666834,45.5223237],[-73.5664791,45.5222336],[-73.5666181,45.5221165],[-73.5737435,45.5253531],[-73.573899,45.5255307]]]}},{"type":"Feature","properties":{"id":"parc-sir-wilfrid-laurier-687084","name":"Parc Sir-Wilfrid-Laurier","type":"park"},"geometry":{"type":"Polygon","coordinates":[[[-73.5906545,45.5318463],[-73.5868521,45.5301765],[-73.5848875,45.5323802],[-73.588637,45.5341316],[-73.5899009,45.532785],[-73.5900042,45.532561],[-73.590696,45.5319248],[-73.5906545,45.5318463]]]}},{"type":"Feature","properties":{"id":"parc-lucie-f-roussel-797842","name":"Parc Lucie-F.-Roussel","type":"park"},"geometry":{"type":"Polygon","coordinates":[[[-73.4759932,45.4103828],[-73.4745905,45.4097216],[-73.4746886,45.4097114],[-73.4750597,45.4093145],[-73.475376,45.4091605],[-73.4772518,45.4071443],[-73.4777382,45.4073522],[-73.4778612,45.4072248],[-73.4826366,45.409329],[-73.4825735,45.4093844],[-73.4822256,45.4092418],[-73.4813103,45.4101397],[-73.478445,45.4088907],[-73.4771811,45.4102454],[-73.4764309,45.4099005],[-73.4759932,45.4103828]]]}},{"type":"Feature","properties":{"id":"parc-du-pere-marquette-223690","name":"Parc du Père-Marquette","type":"park"},"geometry":{"type":"Polygon","coordinates":[[[-73.5962943,45.538491],[-73.5955848,45.5391884],[-73.596753,45.5397487],[-73.5966115,45.5399041],[-73.5964297,45.5406166],[-73.5953053,45.5417881],[-73.5938468,45.54113],[-73.5946816,45.5403274],[-73.5933271,45.5397135],[-73.5926002,45.5405462],[-73.5884844,45.5386366],[-73.5897537,45.5375023],[-73.5918039,45.5384334],[-73.5923831,45.5378583],[-73.5927772,45.5376244],[-73.5931778,45.5370825],[-73.5962943,45.538491]]]}},{"type":"Feature","properties":{"id":"parc-jarry-226098","name":"Parc Jarry","type":"park"},"geometry":{"type":"Polygon","coordinates":[[[-73.6225104,45.5362215],[-73.6224574,45.5361493],[-73.624369,45.5328939],[-73.6244521,45.5328734],[-73.6250652,45.533075],[-73.6253678,45.5338631],[-73.6266538,45.5336077],[-73.6267571,45.5338902],[-73.6275225,45.5336071],[-73.6287702,45.5334528],[-73.6291036,45.5333206],[-73.6289133,45.5328197],[-73.6296306,45.532689],[-73.6295673,45.5325025],[-73.6344038,45.5333075],[-73.6313546,45.538608],[-73.6310994,45.5387189],[-73.6225104,45.5362215]]]}},{"type":"Feature","properties":{"id":"parc-etienne-desmarteau-444822","name":"Parc Étienne-Desmarteau","type":"park"},"geometry":{"type":"Polygon","coordinates":[[[-73.5831407,45.5584202],[-73.5809031,45.5610518],[-73.5773727,45.559956],[-73.5796431,45.5573559],[-73.5831407,45.5584202]]]}},{"type":"Feature","properties":{"id":"terrains-du-centre-communautaire-sarto-desnoyers-775625","name":"Terrains du centre communautaire Sarto-Desnoyers","type":"park"},"geometry":{"type":"Polygon","coordinates":[[[-73.7591469,45.4418958],[-73.7581817,45.4391499],[-73.7572812,45.4389793],[-73.7554533,45.4391678],[-73.7531834,45.4391198],[-73.7522848,45.4392201],[-73.7530609,45.4419365],[-73.7556182,45.4420252],[-73.7591469,45.4418958]]]}},{"type":"Feature","properties":{"id":"parc-henri-julien-884425","name":"Parc Henri-Julien","type":"park"},"geometry":{"type":"Polygon","coordinates":[[[-73.6533638,45.5490686],[-73.6532447,45.5492795],[-73.653005,45.5493043],[-73.6458889,45.5472409],[-73.6468671,45.5455338],[-73.6541404,45.5476294],[-73.6537554,45.5482965],[-73.6532381,45.5481541],[-73.6532208,45.5485659],[-73.6533638,45.5490686]]]}},{"type":"Feature","properties":{"id":"parc-arthur-therrien-653030","name":"Parc Arthur-Therrien","type":"park"},"geometry":{"type":"Polygon","coordinates":[[[-73.5627323,45.4689494],[-73.5624036,45.4696774],[-73.562156,45.4695807],[-73.5615407,45.4695542],[-73.5615444,45.4695011],[-73.5588408,45.4694597],[-73.558394,45.4688901],[-73.5591678,45.4684826],[-73.5592698,45.4684097],[-73.5592986,45.4682536],[-73.5595621,45.4680735],[-73.5597031,45.4658781],[-73.5600094,45.4646971],[-73.559964,45.4642807],[-73.5598645,45.4640907],[-73.5600414,45.4630974],[-73.5607249,45.4633032],[-73.5609347,45.4631657],[-73.5608574,45.4632262],[-73.5608329,45.4635199],[-73.5608963,45.4635737],[-73.5619589,45.4636151],[-73.5620039,45.4633224],[-73.5622993,45.4645881],[-73.5623934,45.4645798],[-73.5624338,45.4647752],[-73.5627462,45.4647791],[-73.5626814,45.4650814],[-73.5623378,45.4658173],[-73.5622579,45.4662735],[-73.5623166,45.4667594],[-73.5626913,45.4677853],[-73.5627924,45.4683485],[-73.5627323,45.4689494]]]}},{"type":"Feature","properties":{"id":"parc-de-la-terre-562360","name":"Parc de la Terre","type":"park"},"geometry":{"type":"Polygon","coordinates":[[[-73.480085,45.4648594],[-73.4807854,45.4646957],[-73.4824659,45.4641159],[-73.4847232,45.4641161],[-73.485311,45.4639311],[-73.4855592,45.4642078],[-73.4863914,45.4638235],[-73.4880242,45.4636949],[-73.4887204,45.4634028],[-73.4883825,45.463163],[-73.4885874,45.4629322],[-73.4886738,45.4626747],[-73.4896463,45.4626958],[-73.4896621,45.4624196],[-73.4897327,45.4624211],[-73.4897157,45.4627036],[-73.4908202,45.4627415],[-73.4908294,45.4631872],[-73.4913666,45.4632066],[-73.4912869,45.4643837],[-73.4892247,45.4643042],[-73.48684,45.4648721],[-73.4846473,45.4652904],[-73.4819499,45.4651194],[-73.4819585,45.4650557],[-73.4813637,45.4650627],[-73.4813527,45.4651362],[-73.4786033,45.4650138],[-73.4786139,45.464918],[-73.480085,45.4648594]]]}},{"type":"Feature","properties":{"id":"parc-de-la-cite-479305","name":"Parc de la Cité","type":"park"},"geometry":{"type":"Polygon","coordinates":[[[-73.4073003,45.4923472],[-73.409492,45.4894452],[-73.4111639,45.490017],[-73.4110541,45.4903011],[-73.4113918,45.4903997],[-73.4121639,45.4892811],[-73.4107461,45.4888302],[-73.4112102,45.4881559],[-73.4125905,45.4886322],[-73.4145905,45.4857911],[-73.4175192,45.4834302],[-73.4169795,45.4830869],[-73.4170053,45.4829305],[-73.418234,45.4820288],[-73.4160632,45.4812145],[-73.4080488,45.4796347],[-73.407169,45.4794015],[-73.4055168,45.4787546],[-73.4044868,45.480229],[-73.4055168,45.4805751],[-73.4075982,45.4820194],[-73.404165,45.4845318],[-73.4034354,45.4845092],[-73.4033925,45.4852614],[-73.4019963,45.4852458],[-73.4012676,45.4862518],[-73.4007103,45.4860662],[-73.4005724,45.4862723],[-73.4001755,45.4861445],[-73.4000665,45.4863069],[-73.4023148,45.4871725],[-73.4021688,45.4875456],[-73.402289,45.4878946],[-73.4021173,45.4879969],[-73.4014135,45.4877863],[-73.4000022,45.4893532],[-73.4013736,45.4907148],[-73.4022467,45.4914138],[-73.4036113,45.4921806],[-73.4063167,45.4934186],[-73.4073003,45.4923472]]]}},{"type":"Feature","properties":{"id":"parc-du-centenaire-798520","name":"Parc du Centenaire","type":"park"},"geometry":{"type":"Polygon","coordinates":[[[-73.8105074,45.4865521],[-73.8099555,45.4876879],[-73.8095311,45.4878406],[-73.8102356,45.4885463],[-73.8091555,45.4898668],[-73.8095394,45.4902981],[-73.810319,45.4899312],[-73.8106795,45.4899794],[-73.8113318,45.4896484],[-73.8113661,45.4893837],[-73.8117448,45.4891948],[-73.8119326,45.4893837],[-73.8129116,45.4888517],[-73.8133695,45.4887934],[-73.8150432,45.4904967],[-73.8218381,45.4871809],[-73.8235112,45.4864839],[-73.8232708,45.4861404],[-73.8249802,45.4852812],[-73.8253659,45.4856372],[-73.82561,45.4855249],[-73.8258756,45.4852757],[-73.8260171,45.4850129],[-73.8259775,45.4849321],[-73.8249073,45.4846524],[-73.824741,45.4849551],[-73.8221464,45.484311],[-73.8222975,45.4839801],[-73.8206815,45.4835673],[-73.8199434,45.4839721],[-73.8198024,45.4839498],[-73.8183698,45.4846316],[-73.8182075,45.4846336],[-73.8177363,45.4844194],[-73.8161606,45.4851007],[-73.8155236,45.4850702],[-73.815177,45.4846962],[-73.812748,45.4857071],[-73.8117953,45.4853822],[-73.8115378,45.4851535],[-73.8115463,45.4844133],[-73.809218,45.4855086],[-73.8101593,45.4855042],[-73.8101645,45.4859358],[-73.8105074,45.4865521]]]}},{"type":"Feature","properties":{"id":"parc-felix-leclerc-317160","name":"Parc Félix-Leclerc","type":"park"},"geometry":{"type":"Polygon","coordinates":[[[-73.5630055,45.589323],[-73.567519,45.5904261],[-73.5672733,45.5911781],[-73.5662946,45.5925617],[-73.5595594,45.590347],[-73.5606227,45.5886241],[-73.5630055,45.589323]]]}},{"type":"Feature","properties":{"id":"parc-esther-blondin-169897","name":"Parc Esther-Blondin","type":"park"},"geometry":{"type":"Polygon","coordinates":[[[-73.660298,45.704583],[-73.6591055,45.7041041],[-73.6588408,45.7044645],[-73.6579699,45.7046357],[-73.6577722,45.704941],[-73.6569365,45.7044889],[-73.6562299,45.7035309],[-73.6561947,45.7033617],[-73.6562115,45.7017572],[-73.6581981,45.7018448],[-73.6601223,45.6994361],[-73.661492,45.6996787],[-73.6599445,45.7015228],[-73.6599174,45.7030321],[-73.6603952,45.7030372],[-73.6604226,45.7042503],[-73.660298,45.704583]]]}},{"type":"Feature","properties":{"id":"parc-angora-261337","name":"Parc Angora","type":"park"},"geometry":{"type":"Polygon","coordinates":[[[-73.6678723,45.7139218],[-73.6678731,45.7126437],[-73.6698269,45.7126553],[-73.6697009,45.712074],[-73.6691491,45.7114081],[-73.6686757,45.7115663],[-73.6684111,45.711163],[-73.6643119,45.7115113],[-73.6642943,45.7107858],[-73.6630685,45.7105333],[-73.6623035,45.7106681],[-73.6625269,45.712237],[-73.6630616,45.713437],[-73.6641989,45.7135763],[-73.666429,45.7136993],[-73.6678723,45.7139218]]]}},{"type":"Feature","properties":{"id":"parc-ahuntsic-830566","name":"Parc Ahuntsic","type":"park"},"geometry":{"type":"Polygon","coordinates":[[[-73.6658417,45.5578831],[-73.6607913,45.556405],[-73.6616086,45.5550553],[-73.661164,45.5549262],[-73.6612448,45.5547846],[-73.6616836,45.5549058],[-73.6624252,45.553642],[-73.6674646,45.5551076],[-73.6670833,45.5558949],[-73.666767,45.5563276],[-73.6666633,45.5566727],[-73.6665989,45.5566701],[-73.6665556,45.5570824],[-73.6664881,45.5571908],[-73.6663088,45.5571383],[-73.6658417,45.5578831]]]}},{"type":"Feature","properties":{"id":"parc-des-hirondelles-844959","name":"Parc des Hirondelles","type":"park"},"geometry":{"type":"Polygon","coordinates":[[[-73.6451982,45.5781349],[-73.6468662,45.5761464],[-73.6460882,45.5758173],[-73.646378,45.5754862],[-73.6414673,45.5734263],[-73.6395565,45.5757018],[-73.6422495,45.5768435],[-73.642481,45.5770369],[-73.6451982,45.5781349]]]}},{"type":"Feature","properties":{"id":"parc-de-lausanne-940742","name":"Parc de Lausanne","type":"park"},"geometry":{"type":"Polygon","coordinates":[[[-73.7227116,45.6158819],[-73.7216417,45.6159689],[-73.720798,45.6163056],[-73.7204039,45.6165871],[-73.7192383,45.6180657],[-73.7179641,45.618841],[-73.7176513,45.6192532],[-73.7176204,45.6196307],[-73.7178299,45.6200206],[-73.719274,45.6211534],[-73.7202353,45.622288],[-73.7209346,45.6224283],[-73.7212996,45.622366],[-73.7230285,45.6214678],[-73.7222118,45.6206712],[-73.7237463,45.6197321],[-73.7235564,45.6195651],[-73.722641,45.6200859],[-73.7216442,45.6192858],[-73.7220749,45.6190302],[-73.7215356,45.618711],[-73.7224032,45.6180238],[-73.7227535,45.6180187],[-73.7230475,45.615973],[-73.7227116,45.6158819]]]}},{"type":"Feature","properties":{"id":"parc-jeanne-mance-939935","name":"Parc Jeanne-Mance","type":"park"},"geometry":{"type":"Polygon","coordinates":[[[-73.5890409,45.5168194],[-73.588564,45.5166566],[-73.5886191,45.5166053],[-73.5835633,45.5142926],[-73.58263,45.5139828],[-73.5812152,45.5133305],[-73.5807297,45.5131797],[-73.5803662,45.5129349],[-73.5791479,45.5123678],[-73.5790512,45.5122297],[-73.5781908,45.5118309],[-73.5778147,45.5121454],[-73.5798327,45.5130596],[-73.579531,45.5134028],[-73.5818,45.5144212],[-73.5811419,45.5151363],[-73.5811973,45.5152457],[-73.5877342,45.5182185],[-73.5879286,45.5181808],[-73.5890289,45.5169826],[-73.5890409,45.5168194]]]}},{"type":"Feature","properties":{"id":"parc-de-la-promenade-bellerive-768486","name":"Parc de la Promenade-Bellerive","type":"park"},"geometry":{"type":"Polygon","coordinates":[[[-73.5084403,45.5962588],[-73.5079267,45.5952589],[-73.5075116,45.5936258],[-73.5071172,45.592561],[-73.5067385,45.5917937],[-73.5070787,45.5917405],[-73.5077776,45.5917899],[-73.5078128,45.591735],[-73.509382,45.5945931],[-73.510002,45.5961388],[-73.5104012,45.5971656],[-73.5106265,45.5987946],[-73.5107027,45.6008378],[-73.5104538,45.6037507],[-73.5102646,45.6045205],[-73.5103559,45.6045461],[-73.5101321,45.6065722],[-73.509987,45.6065128],[-73.509847,45.6065847],[-73.5100339,45.6068341],[-73.5096477,45.6084383],[-73.508666,45.6108589],[-73.50841,45.6108187],[-73.5078595,45.6103883],[-73.5072049,45.6100415],[-73.5074553,45.6095985],[-73.5074557,45.6089418],[-73.5075948,45.6084735],[-73.5081077,45.6074702],[-73.5083341,45.6071732],[-73.5084531,45.6065259],[-73.5087308,45.6058079],[-73.5090238,45.6046325],[-73.5091404,45.6037035],[-73.5093447,45.6029227],[-73.5092955,45.6013315],[-73.5094671,45.600874],[-73.5092349,45.5999952],[-73.5087659,45.5972644],[-73.5084403,45.5962588]]]}},{"type":"Feature","properties":{"id":"parc-eugene-dostie-194606","name":"Parc Eugène-Dostie","type":"park"},"geometry":{"type":"Polygon","coordinates":[[[-73.882256,45.4848572],[-73.8809011,45.4856213],[-73.8815748,45.4861945],[-73.8812859,45.4863769],[-73.8812712,45.4865418],[-73.8822932,45.487419],[-73.8816505,45.4878243],[-73.8817294,45.4878899],[-73.8811768,45.4882523],[-73.8824441,45.4893378],[-73.8841264,45.4883871],[-73.8848029,45.4886478],[-73.8851222,45.4888752],[-73.8859849,45.4883448],[-73.8865265,45.4877651],[-73.8849933,45.4864685],[-73.8844614,45.4867853],[-73.882256,45.4848572]]]}},{"type":"Feature","properties":{"id":"vieux-port-255355","name":"Vieux-Port","type":"park"},"geometry":{"type":"Polygon","coordinates":[[[-73.5521916,45.499319],[-73.5516079,45.4993152],[-73.5514404,45.4998002],[-73.5507754,45.4997086],[-73.5508138,45.4995147],[-73.550964,45.4995023],[-73.5510225,45.4992342],[-73.5508272,45.4991935],[-73.5507071,45.499216],[-73.5504735,45.4996831],[-73.5493573,45.4996002],[-73.5493897,45.499275],[-73.5502277,45.4993505],[-73.5504582,45.4973291],[-73.5506218,45.4970865],[-73.5505841,45.496892],[-73.5507177,45.4968021],[-73.5508791,45.4954676],[-73.5525585,45.4962386],[-73.5528419,45.4965768],[-73.5527299,45.498158],[-73.5527763,45.4989943],[-73.5528966,45.4997658],[-73.5533424,45.5003806],[-73.5536723,45.5015416],[-73.5537953,45.5030414],[-73.5537483,45.5036075],[-73.5528991,45.5058484],[-73.552246,45.5067888],[-73.5506755,45.5096095],[-73.5467551,45.5097523],[-73.5460577,45.5120984],[-73.5465156,45.5121702],[-73.5477493,45.5101139],[-73.5478769,45.5101512],[-73.5465495,45.512396],[-73.5464071,45.512432],[-73.5462199,45.5128661],[-73.545567,45.5123592],[-73.5466633,45.5086679],[-73.546315,45.5086207],[-73.546816,45.5069499],[-73.5512242,45.506767],[-73.552179,45.505244],[-73.5527924,45.5029012],[-73.5528164,45.5023571],[-73.5521916,45.499319]]]}},{"type":"Feature","properties":{"id":"parc-maisonneuve-382614","name":"Parc Maisonneuve","type":"park"},"geometry":{"type":"Polygon","coordinates":[[[-73.5546764,45.5611744],[-73.5547707,45.5645488],[-73.5546931,45.5651834],[-73.5547548,45.5652567],[-73.5556868,45.5656578],[-73.5661464,45.5690784],[-73.566302,45.5690048],[-73.5699908,45.56486],[-73.5633929,45.5628215],[-73.5623634,45.5620518],[-73.5605121,45.5613774],[-73.5596977,45.561864],[-73.5592014,45.5626629],[-73.5557842,45.5615738],[-73.5558121,45.5613026],[-73.555227,45.5611582],[-73.5546764,45.5611744]]]}},{"type":"Feature","properties":{"id":"jardin-botanique-de-montreal-382664","name":"Jardin botanique de Montréal","type":"park"},"geometry":{"type":"Polygon","coordinates":[[[-73.5596977,45.561864],[-73.5605121,45.5613774],[-73.5623634,45.5620518],[-73.5633929,45.5628215],[-73.5699908,45.56486],[-73.5734864,45.560926],[-73.5710445,45.560001],[-73.5710351,45.560204],[-73.5705911,45.5608961],[-73.5676387,45.5599359],[-73.5681771,45.5590737],[-73.5551623,45.5549401],[-73.5547697,45.5551105],[-73.5545225,45.5560146],[-73.5544459,45.5567963],[-73.5546721,45.561046],[-73.555274,45.5610467],[-73.5558335,45.5611717],[-73.5557842,45.5615738],[-73.5592014,45.5626629],[-73.5596977,45.561864]]]}},{"type":"Feature","properties":{"id":"parc-pierre-laporte-137090","name":"Parc Pierre-Laporte","type":"park"},"geometry":{"type":"Polygon","coordinates":[[[-73.4465777,45.6047405],[-73.4478216,45.6041265],[-73.4500059,45.6038955],[-73.45062,45.6039303],[-73.4512409,45.6043612],[-73.452417,45.6035931],[-73.452432,45.6035199],[-73.4504888,45.6020104],[-73.4501298,45.6018377],[-73.4498438,45.6014286],[-73.4491608,45.6009665],[-73.4490328,45.6011179],[-73.4474782,45.6019579],[-73.4456154,45.6032298],[-73.4442432,45.6043133],[-73.4436698,45.60515],[-73.44346,45.6055963],[-73.443379,45.6060758],[-73.4442299,45.6061882],[-73.4445431,45.6054822],[-73.4457018,45.6057999],[-73.4462593,45.604979],[-73.4465777,45.6047405]]]}},{"type":"Feature","properties":{"id":"parc-olympique-486554","name":"Parc olympique","type":"park"},"geometry":{"type":"Polygon","coordinates":[[[-73.5542375,45.5649637],[-73.5538282,45.5649779],[-73.546437,45.562598],[-73.5464846,45.5625237],[-73.5462472,45.5624477],[-73.551828,45.5539125],[-73.5543487,45.5547223],[-73.5541394,45.556921],[-73.5544066,45.5642551],[-73.5543631,45.5647171],[-73.5542375,45.5649637]]]}},{"type":"Feature","properties":{"id":"parc-emilie-gamelin-806139","name":"Parc Émilie-Gamelin","type":"park"},"geometry":{"type":"Polygon","coordinates":[[[-73.4616995,45.4155751],[-73.4605553,45.4166405],[-73.4602496,45.4167831],[-73.4596488,45.4168012],[-73.4594171,45.4177471],[-73.4600179,45.41847],[-73.4602754,45.4185303],[-73.4605672,45.41847],[-73.4608075,45.4185905],[-73.4613728,45.4185338],[-73.4628145,45.4190112],[-73.4642266,45.4169074],[-73.463075,45.4152458],[-73.4630716,45.4151295],[-73.4628246,45.4150576],[-73.462606,45.4147051],[-73.4631839,45.4145125],[-73.4634661,45.4149283],[-73.4637587,45.4148308],[-73.4637977,45.4147387],[-73.4634112,45.4141646],[-73.4623207,45.4144224],[-73.4617774,45.4144635],[-73.4622655,45.4149019],[-73.4621648,45.4152455],[-73.4619645,45.4154862],[-73.4616995,45.4155751]]]}},{"type":"Feature","properties":{"id":"parc-rene-levesque-595232","name":"Parc René-Lévesque","type":"park"},"geometry":{"type":"Polygon","coordinates":[[[-73.6691317,45.4299363],[-73.6687901,45.430196],[-73.6688814,45.4302508],[-73.6688204,45.4302816],[-73.668737,45.4303005],[-73.6686095,45.4300886],[-73.6689799,45.4297758],[-73.670073,45.4293212],[-73.6698721,45.4290514],[-73.6719853,45.4283298],[-73.6729884,45.4280839],[-73.6750334,45.4279391],[-73.6758606,45.4277071],[-73.6763387,45.4276687],[-73.682459,45.4281568],[-73.6868347,45.4283732],[-73.6880714,45.428672],[-73.688241,45.4288186],[-73.6883713,45.4291434],[-73.6884864,45.4292408],[-73.6915104,45.4299845],[-73.6914955,45.4300563],[-73.6910472,45.4299656],[-73.6878182,45.4291769],[-73.6870007,45.4290569],[-73.6857406,45.4290231],[-73.6825815,45.4293065],[-73.6813657,45.4293131],[-73.6798107,45.4291324],[-73.6763638,45.4284788],[-73.6753286,45.4283981],[-73.6742131,45.4284497],[-73.6730504,45.428646],[-73.6691317,45.4299363]]]}},{"type":"Feature","properties":{"id":"parc-de-l-honorable-george-o-reilly-752680","name":"Parc de l'Honorable-George-O'Reilly","type":"park"},"geometry":{"type":"Polygon","coordinates":[[[-73.5675624,45.4503757],[-73.566749,45.4501216],[-73.5655734,45.452075],[-73.5650159,45.4528572],[-73.5650968,45.4528855],[-73.5648934,45.4530368],[-73.5651247,45.4531288],[-73.5648659,45.4534687],[-73.5647983,45.4534413],[-73.5647338,45.4536071],[-73.5646435,45.4535715],[-73.5644375,45.4537718],[-73.5643323,45.4537306],[-73.5642787,45.453881],[-73.5639685,45.4537647],[-73.5644166,45.452992],[-73.5658472,45.45093],[-73.5670569,45.4494282],[-73.5676644,45.4489559],[-73.5689083,45.447706],[-73.5690496,45.4474863],[-73.5689614,45.4473117],[-73.5706526,45.4460666],[-73.5723127,45.4444918],[-73.5739481,45.443313],[-73.5757802,45.4416028],[-73.5762986,45.4411912],[-73.5767424,45.4410305],[-73.5779931,45.4399842],[-73.5786259,45.4393326],[-73.5797793,45.4384791],[-73.5798611,45.4383549],[-73.5798081,45.4382815],[-73.5804002,45.437923],[-73.5838274,45.4350097],[-73.5857727,45.4353373],[-73.583212,45.4371987],[-73.5809087,45.4391963],[-73.5795013,45.4405536],[-73.5779494,45.4425205],[-73.5771773,45.4432594],[-73.5763851,45.4437752],[-73.5745436,45.4447195],[-73.5735504,45.4453183],[-73.5719879,45.4470906],[-73.5715145,45.4474681],[-73.5710172,45.4477478],[-73.5696186,45.4482708],[-73.5689186,45.4487045],[-73.5686006,45.4491166],[-73.5680574,45.4503371],[-73.5677565,45.4502689],[-73.5675624,45.4503757]]]}},{"type":"Feature","properties":{"id":"parc-historique-pointe-du-moulin-073672","name":"Parc historique Pointe-du-Moulin","type":"park"},"geometry":{"type":"Polygon","coordinates":[[[-73.8580314,45.3685967],[-73.856405,45.3688448],[-73.8558756,45.3676769],[-73.8553773,45.3671376],[-73.8550739,45.3670593],[-73.8544672,45.3670658],[-73.8542195,45.3669049],[-73.8541638,45.3667157],[-73.853975,45.3665895],[-73.8527894,45.3663416],[-73.8520279,45.3658588],[-73.8527419,45.3659191],[-73.8536933,45.3656],[-73.8545569,45.3655282],[-73.8548046,45.3653368],[-73.8546436,45.3650367],[-73.8555135,45.3645321],[-73.8556559,45.3642472],[-73.8565783,45.3642385],[-73.8572501,45.3641232],[-73.8580725,45.3678305],[-73.8578869,45.3678548],[-73.8580502,45.3679869],[-73.8581947,45.3684195],[-73.8580314,45.3685967]]]}},{"type":"Feature","properties":{"id":"recre-o-parc-de-sainte-catherine-460592","name":"Récré-O-Parc de Sainte-Catherine","type":"park"},"geometry":{"type":"Polygon","coordinates":[[[-73.6005709,45.4071881],[-73.6004073,45.4082787],[-73.6001228,45.408414],[-73.599997,45.4094068],[-73.5996315,45.4093658],[-73.5987222,45.409667],[-73.5976875,45.410276],[-73.597031,45.410542],[-73.5965282,45.4106152],[-73.5958858,45.4105133],[-73.5943206,45.4100501],[-73.5938436,45.4100247],[-73.5935966,45.4100398],[-73.5934854,45.4101925],[-73.5927892,45.4102254],[-73.5911566,45.4102606],[-73.5910737,45.4102046],[-73.5899572,45.4101848],[-73.5895033,45.4102961],[-73.5894073,45.4104234],[-73.588892,45.4105763],[-73.5870634,45.4107421],[-73.5852963,45.410737],[-73.5802856,45.4100625],[-73.5786817,45.410187],[-73.5776327,45.410133],[-73.5764055,45.4111885],[-73.5763138,45.4114016],[-73.574366,45.4117271],[-73.5741271,45.4116461],[-73.5740157,45.4114521],[-73.5736855,45.4112135],[-73.5726314,45.4106567],[-73.5721899,45.4100447],[-73.5723174,45.4099478],[-73.5726263,45.4100222],[-73.5734059,45.4098459],[-73.5734559,45.4095802],[-73.5735365,45.4095679],[-73.5734055,45.4090246],[-73.5734302,45.4088162],[-73.5754592,45.408883],[-73.5848681,45.4085992],[-73.5891242,45.4085875],[-73.5921495,45.4084567],[-73.5958306,45.4080215],[-73.6005709,45.4071881]]]}},{"type":"Feature","properties":{"id":"parc-thomas-chapais-948460","name":"Parc Thomas-Chapais","type":"park"},"geometry":{"type":"Polygon","coordinates":[[[-73.5409021,45.6101114],[-73.541507,45.6085439],[-73.5372558,45.6066598],[-73.5342884,45.605749],[-73.533203,45.607742],[-73.5326934,45.608391],[-73.5335864,45.6086283],[-73.5348307,45.6087039],[-73.5409021,45.6101114]]]}},{"type":"Feature","properties":{"id":"parc-delorme-746551","name":"Parc Delorme","type":"park"},"geometry":{"type":"Polygon","coordinates":[[[-73.5910669,45.5931865],[-73.5903709,45.5929219],[-73.5900756,45.5929624],[-73.588655,45.5923396],[-73.588682,45.5922006],[-73.588542,45.5920901],[-73.5854795,45.5908787],[-73.5869779,45.5892323],[-73.587079,45.5892138],[-73.5887974,45.5899296],[-73.589127,45.5899144],[-73.5927256,45.5915933],[-73.5922705,45.5921117],[-73.5916473,45.5925567],[-73.5910669,45.5931865]]]}},{"type":"Feature","properties":{"id":"parc-ignace-bourget-661481","name":"Parc Ignace-Bourget","type":"park"},"geometry":{"type":"Polygon","coordinates":[[[-73.6042067,45.4579326],[-73.6032516,45.4551802],[-73.6045684,45.4535512],[-73.6068312,45.4544712],[-73.6079494,45.4551526],[-73.6073997,45.455603],[-73.6076582,45.4568195],[-73.6042067,45.4579326]]]}},{"type":"Feature","properties":{"id":"parc-du-bois-franc-592320","name":"Parc du Bois-Franc","type":"park"},"geometry":{"type":"Polygon","coordinates":[[[-73.705377,45.5191799],[-73.7043443,45.5185367],[-73.7089726,45.5149225],[-73.7093204,45.5147592],[-73.7098671,45.5151263],[-73.7116411,45.513705],[-73.7126881,45.5129737],[-73.7134928,45.5134821],[-73.7133814,45.5137057],[-73.7134337,45.5143006],[-73.7109858,45.5162721],[-73.7102808,45.5159047],[-73.7093595,45.5160053],[-73.705377,45.5191799]]]}},{"type":"Feature","properties":{"id":"parc-du-boise-du-pays-brule-448607","name":"Parc du Boisé-Du-Pays-Brûlé","type":"park"},"geometry":{"type":"Polygon","coordinates":[[[-73.4158098,45.5993378],[-73.4153487,45.5990373],[-73.4166723,45.5978748],[-73.4162927,45.5976336],[-73.418035,45.5963901],[-73.4211517,45.5988191],[-73.420891,45.5989833],[-73.4214641,45.5997388],[-73.4219368,45.6001558],[-73.4200114,45.6015149],[-73.4190158,45.6008784],[-73.4158098,45.5993378]]]}},{"type":"Feature","properties":{"id":"parc-533084","name":"Parc","type":"park"},"geometry":{"type":"Polygon","coordinates":[[[-73.6018468,45.498245],[-73.5987899,45.5009022],[-73.5973898,45.5017772],[-73.5969244,45.5029023],[-73.5953901,45.502669],[-73.5949853,45.5028393],[-73.5941102,45.5035543],[-73.5933618,45.5030084],[-73.5923479,45.5027941],[-73.5918173,45.5028518],[-73.5915793,45.5027656],[-73.59179,45.5023279],[-73.5921119,45.5019218],[-73.5924874,45.501809],[-73.5931472,45.5008803],[-73.593276,45.5007562],[-73.5935818,45.5006923],[-73.5936783,45.5001885],[-73.5941284,45.4997498],[-73.5943542,45.4993086],[-73.5943113,45.4991244],[-73.5940109,45.4990718],[-73.5940847,45.4988302],[-73.5945527,45.4987898],[-73.5955666,45.4981693],[-73.5956042,45.4978986],[-73.5954754,45.4976221],[-73.5952125,45.4973534],[-73.595436,45.4971818],[-73.5958992,45.4971165],[-73.596323,45.4971579],[-73.5966177,45.4973008],[-73.5969935,45.4973233],[-73.5972497,45.4975329],[-73.598037,45.4978065],[-73.5985653,45.4978685],[-73.5990052,45.4977821],[-73.599311,45.4978422],[-73.5994612,45.4979249],[-73.599757,45.498416],[-73.5998495,45.4987384],[-73.5992788,45.4987627],[-73.5988612,45.4989236],[-73.5987262,45.4990755],[-73.5980664,45.4992259],[-73.5973038,45.499518],[-73.5970669,45.4994877],[-73.5967441,45.4992714],[-73.5963226,45.4997548],[-73.5961141,45.4997227],[-73.595915,45.4998293],[-73.5960535,45.4999883],[-73.595749,45.4999441],[-73.5954057,45.4997373],[-73.5952662,45.4998012],[-73.59547,45.5001133],[-73.5952833,45.5001854],[-73.595057,45.5001584],[-73.5951374,45.5004178],[-73.5948639,45.5004141],[-73.5946707,45.5001659],[-73.5944194,45.5003637],[-73.5945527,45.5006058],[-73.594424,45.5007036],[-73.5940753,45.5007449],[-73.5937335,45.5009498],[-73.5940017,45.5011717],[-73.5945685,45.5012037],[-73.5950181,45.5011021],[-73.595572,45.5017112],[-73.5958885,45.5019143],[-73.5960494,45.5018804],[-73.5959958,45.5015232],[-73.5961585,45.5013582],[-73.596382,45.5013954],[-73.5965957,45.5017035],[-73.5967414,45.50173],[-73.5968648,45.501621],[-73.5968326,45.5014067],[-73.5969774,45.5013503],[-73.5973637,45.5014105],[-73.5989247,45.5004818],[-73.5994451,45.4999591],[-73.5993914,45.4998125],[-73.5999101,45.4989407],[-73.6004911,45.4988123],[-73.6012529,45.4980302],[-73.6015587,45.4980716],[-73.6018468,45.498245]]]}},{"type":"Feature","properties":{"id":"parc-pasquale-gattuso-690922","name":"Parc Pasquale-Gattuso","type":"park"},"geometry":{"type":"Polygon","coordinates":[[[-73.5807829,45.6299601],[-73.5811986,45.6302786],[-73.5815018,45.6301831],[-73.5820376,45.6305833],[-73.5809009,45.631408],[-73.5805624,45.6311571],[-73.5799544,45.6315052],[-73.5759531,45.6345193],[-73.5770594,45.6356094],[-73.5754753,45.6367717],[-73.5745026,45.6359122],[-73.5742507,45.6358814],[-73.5722583,45.6373876],[-73.5725511,45.6376357],[-73.5721462,45.6378672],[-73.5738852,45.6394961],[-73.5734521,45.6397276],[-73.5731762,45.639465],[-73.5720974,45.6400767],[-73.5718565,45.6398026],[-73.5714985,45.6397877],[-73.5715561,45.639645],[-73.5713201,45.639375],[-73.5710996,45.6394841],[-73.5703545,45.6388049],[-73.5691557,45.6393576],[-73.5690812,45.6394441],[-73.5691681,45.6395999],[-73.5691068,45.6396229],[-73.5686428,45.6391667],[-73.5807829,45.6299601]]]}},{"type":"Feature","properties":{"id":"parc-maynard-ferguson-396378","name":"Parc Maynard-Ferguson","type":"park"},"geometry":{"type":"Polygon","coordinates":[[[-73.5616829,45.4489586],[-73.56144,45.448416],[-73.5612925,45.4483568],[-73.5613246,45.4482034],[-73.5607684,45.4470176],[-73.5604767,45.4469171],[-73.5606426,45.446791],[-73.5606504,45.4466102],[-73.5599072,45.4461411],[-73.5582296,45.4464749],[-73.5586313,45.4473002],[-73.5589129,45.4475127],[-73.5586591,45.4477252],[-73.5577068,45.4471262],[-73.5574584,45.4465559],[-73.5572221,45.4466203],[-73.5563114,45.4474716],[-73.5557777,45.4477187],[-73.5554518,45.4476718],[-73.5549533,45.4478792],[-73.5547511,45.4478405],[-73.5542391,45.4475768],[-73.5542928,45.4475344],[-73.554113,45.4474207],[-73.5540926,45.4473064],[-73.5535365,45.4477771],[-73.5530146,45.4480627],[-73.552435,45.4480966],[-73.552301,45.4479242],[-73.5529637,45.4478472],[-73.5534873,45.4473515],[-73.5539134,45.4472104],[-73.5540276,45.4468391],[-73.5541766,45.4465957],[-73.5543397,45.4464973],[-73.5544267,45.4462379],[-73.5546845,45.4460699],[-73.5551424,45.4459749],[-73.5554034,45.445743],[-73.5556328,45.4457569],[-73.5557455,45.4458895],[-73.5559948,45.445931],[-73.5564018,45.4458184],[-73.556722,45.4458374],[-73.5569068,45.4457117],[-73.5571665,45.4458234],[-73.5574395,45.4458265],[-73.5575558,45.4457842],[-73.5577389,45.4454293],[-73.5581403,45.4454283],[-73.558508,45.4456616],[-73.5586467,45.4455948],[-73.5587113,45.4453845],[-73.5588654,45.4452603],[-73.5591326,45.4452485],[-73.5593756,45.4453299],[-73.5596031,45.4455935],[-73.560171,45.4457538],[-73.5609751,45.4464263],[-73.5611138,45.4466279],[-73.5610635,45.4467767],[-73.561114,45.4469227],[-73.5613833,45.4473308],[-73.5614261,45.4476431],[-73.5616688,45.4479135],[-73.5616689,45.4482367],[-73.5620011,45.4490252],[-73.5619855,45.449149],[-73.5614494,45.449977],[-73.5599696,45.4528731],[-73.5597391,45.4534859],[-73.5595201,45.4550437],[-73.5593821,45.4550421],[-73.5593798,45.4549142],[-73.5592848,45.4549111],[-73.5592926,45.4546162],[-73.5595644,45.452936],[-73.5598771,45.4519455],[-73.5603936,45.4510359],[-73.5605378,45.450559],[-73.5608704,45.4500128],[-73.5612325,45.4499295],[-73.5615108,45.4494723],[-73.5616829,45.4489586]]]}},{"type":"Feature","properties":{"id":"parc-fritz-467700","name":"Parc Fritz","type":"park"},"geometry":{"type":"Polygon","coordinates":[[[-73.921727,45.4100128],[-73.9201337,45.4099578],[-73.9184681,45.4102364],[-73.9182683,45.4097568],[-73.9171847,45.4099627],[-73.9169848,45.4081188],[-73.9163565,45.4082449],[-73.914582,45.4089727],[-73.9144845,45.4086456],[-73.9146247,45.4085765],[-73.9150568,45.4080387],[-73.9156976,45.4077306],[-73.9167918,45.4074901],[-73.9174255,45.4076906],[-73.9182727,45.4076992],[-73.9188728,45.4074511],[-73.9191149,45.4072006],[-73.9195015,45.4065728],[-73.9202328,45.4068179],[-73.9205375,45.4063006],[-73.9212831,45.4056876],[-73.9218951,45.4054395],[-73.9228894,45.4052987],[-73.9228255,45.4058666],[-73.9238003,45.4059342],[-73.923634,45.4069087],[-73.9211865,45.4067514],[-73.9210162,45.4085869],[-73.9224176,45.4086557],[-73.9223626,45.4089748],[-73.9221856,45.4090219],[-73.922132,45.4093529],[-73.92248,45.4098789],[-73.921727,45.4100128]]]}},{"type":"Feature","properties":{"id":"le-boutillier-park-655404","name":"Le Boutillier Park","type":"park"},"geometry":{"type":"Polygon","coordinates":[[[-73.7717347,45.5389406],[-73.7706181,45.5379935],[-73.7704787,45.5381005],[-73.7708399,45.5383668],[-73.7711554,45.5387527],[-73.7708657,45.5388955],[-73.7710974,45.5399073],[-73.7716982,45.5410646],[-73.7731513,45.5426736],[-73.7729213,45.5430333],[-73.7715094,45.5438473],[-73.7716292,45.5439415],[-73.7730973,45.5431562],[-73.7736172,45.5431334],[-73.7742234,45.5436368],[-73.774279,45.5439494],[-73.7750438,45.5445639],[-73.7752318,45.5448533],[-73.7751298,45.5450873],[-73.7755553,45.5452321],[-73.77596,45.544703],[-73.7755763,45.5446159],[-73.7756048,45.5444179],[-73.7747721,45.5437413],[-73.7746818,45.543202],[-73.7747364,45.5430643],[-73.776744,45.541809],[-73.7776938,45.5425689],[-73.7778109,45.5425236],[-73.7776984,45.5421585],[-73.7787788,45.5422782],[-73.7788432,45.5420048],[-73.7792878,45.5420598],[-73.7791647,45.5414811],[-73.7793307,45.5412137],[-73.7792231,45.5408308],[-73.7808714,45.5397909],[-73.7812254,45.5396519],[-73.7818842,45.5395793],[-73.7819407,45.5398724],[-73.7827673,45.5398029],[-73.7829034,45.539414],[-73.7821718,45.5387887],[-73.7791483,45.5405788],[-73.776105,45.5406287],[-73.775378,45.5400574],[-73.7751026,45.540229],[-73.7766037,45.5414919],[-73.7744126,45.5428004],[-73.7739019,45.5427429],[-73.7731895,45.5421617],[-73.7731413,45.5414482],[-73.7714558,45.5396695],[-73.7717347,45.5389406]]]}},{"type":"Feature","properties":{"id":"parc-des-meandres-221903","name":"Parc des Méandres","type":"park"},"geometry":{"type":"Polygon","coordinates":[[[-73.8250295,45.7603615],[-73.8251804,45.7595378],[-73.8261143,45.7595451],[-73.826987,45.7593807],[-73.8279208,45.759663],[-73.8284745,45.7593839],[-73.8291293,45.7593076],[-73.8300231,45.7598337],[-73.8310807,45.7598924],[-73.8316072,45.7603203],[-73.8315628,45.7608448],[-73.8316813,45.7609579],[-73.8318907,45.7609818],[-73.8319547,45.7611649],[-73.8318485,45.761543],[-73.8316541,45.761665],[-73.8313532,45.7616767],[-73.8302658,45.7620409],[-73.8283433,45.7632833],[-73.8246916,45.760525],[-73.8250295,45.7603615]]]}},{"type":"Feature","properties":{"id":"parc-de-l-ile-lebel-852320","name":"Parc de l'Île-Lebel","type":"park"},"geometry":{"type":"Polygon","coordinates":[[[-73.4476587,45.7378259],[-73.4479449,45.7375555],[-73.4473159,45.737292],[-73.4488691,45.73563],[-73.4495932,45.7359934],[-73.4509695,45.7345144],[-73.4497802,45.7339594],[-73.4492764,45.7348358],[-73.4471236,45.7338985],[-73.446688,45.7338833],[-73.4457615,45.7342254],[-73.4430962,45.7359954],[-73.441539,45.7369183],[-73.440702,45.7379588],[-73.4404017,45.7385714],[-73.4399704,45.7389214],[-73.4397173,45.7389656],[-73.4389093,45.7394199],[-73.4389631,45.7396878],[-73.4388408,45.7399554],[-73.4385096,45.7401785],[-73.4382937,45.7406041],[-73.4375628,45.7413146],[-73.4375606,45.7414315],[-73.4380249,45.7416499],[-73.4383337,45.7415702],[-73.443219,45.7384715],[-73.4436603,45.7381015],[-73.4457519,45.7370463],[-73.4476587,45.7378259]]]}},{"type":"Feature","properties":{"id":"parc-nature-harwood-543109","name":"Parc-Nature Harwood","type":"park"},"geometry":{"type":"Polygon","coordinates":[[[-74.1511723,45.4386335],[-74.1485365,45.4399375],[-74.1450324,45.4418703],[-74.1443756,45.4412697],[-74.1441887,45.4412722],[-74.1438917,45.4414193],[-74.1436739,45.4411131],[-74.1436739,45.4409116],[-74.1434742,45.440626],[-74.1429203,45.4408119],[-74.1428122,45.4409311],[-74.1429234,45.4415738],[-74.1417544,45.4416195],[-74.1414962,45.4414405],[-74.1406192,45.4420398],[-74.1380606,45.4412086],[-74.1414492,45.4396878],[-74.1472285,45.4368792],[-74.1511723,45.4386335]]]}},{"type":"Feature","properties":{"id":"parc-saint-charles-408821","name":"Parc Saint-Charles","type":"park"},"geometry":{"type":"Polygon","coordinates":[[[-73.435219,45.672103],[-73.4350649,45.6719659],[-73.4348043,45.6722094],[-73.4345525,45.6721884],[-73.4340774,45.6715924],[-73.4337272,45.6712852],[-73.4334353,45.6712999],[-73.432667,45.6715824],[-73.4323262,45.6715117],[-73.4314813,45.6711359],[-73.4311286,45.6711341],[-73.4308536,45.6712643],[-73.4307557,45.6714283],[-73.4308986,45.6722445],[-73.4308134,45.6724732],[-73.4305687,45.6726344],[-73.4302086,45.6726531],[-73.429475,45.6724395],[-73.4288004,45.6721133],[-73.4285845,45.6720796],[-73.4280051,45.6721752],[-73.4276363,45.6721105],[-73.427415,45.6719372],[-73.427291,45.6710741],[-73.427124,45.670911],[-73.4269805,45.6708876],[-73.426424,45.6709972],[-73.4252948,45.6714236],[-73.4245209,45.6712531],[-73.4242232,45.6712952],[-73.4239027,45.6717141],[-73.4234132,45.6720918],[-73.4231302,45.6724516],[-73.4227292,45.6726447],[-73.4224959,45.6726213],[-73.4220721,45.6723411],[-73.4216617,45.6722192],[-73.4213197,45.6722586],[-73.4207605,45.6725313],[-73.4204413,45.6725716],[-73.4195173,45.672521],[-73.4190539,45.672319],[-73.4189316,45.6724333],[-73.4192856,45.6729581],[-73.419189,45.673138],[-73.4188672,45.6732055],[-73.4186955,45.6731455],[-73.4186633,45.6728907],[-73.4185239,45.6727332],[-73.4180625,45.6725458],[-73.4176656,45.6725533],[-73.41729,45.6727257],[-73.4172364,45.6728457],[-73.4176977,45.673303],[-73.4177192,45.6734979],[-73.4175797,45.6737153],[-73.4173437,45.6736778],[-73.4168823,45.6732655],[-73.4162279,45.6732505],[-73.416185,45.6734379],[-73.4166463,45.6735054],[-73.4168394,45.6736103],[-73.416936,45.6738502],[-73.4168716,45.6739402],[-73.4160991,45.6741951],[-73.4157666,45.674465],[-73.4155734,45.6745024],[-73.4151657,45.6742176],[-73.4145971,45.6740377],[-73.4143933,45.6740452],[-73.4138461,45.6742701],[-73.4133204,45.6746149],[-73.4121831,45.6750047],[-73.4120544,45.6751172],[-73.4123762,45.6753645],[-73.4123548,45.675477],[-73.4120866,45.6756719],[-73.4120115,45.6760242],[-73.4122475,45.6763316],[-73.4122797,45.6766239],[-73.4123762,45.6767739],[-73.4117218,45.6770212],[-73.4116252,45.6774335],[-73.4113892,45.677501],[-73.4112283,45.6778533],[-73.4112497,45.6780557],[-73.4110029,45.6783181],[-73.4108527,45.6783031],[-73.4108742,45.6780857],[-73.4106704,45.6780332],[-73.4105416,45.6780557],[-73.4103699,45.6783781],[-73.4101232,45.678543],[-73.409576,45.6783181],[-73.4093507,45.6782881],[-73.4091254,45.6783856],[-73.4087392,45.6786479],[-73.4092112,45.6792251],[-73.4092434,45.67936],[-73.4087606,45.6795849],[-73.4082671,45.6795924],[-73.4079345,45.67948],[-73.4077521,45.6796599],[-73.4080096,45.6798847],[-73.4080096,45.6799747],[-73.4076663,45.680342],[-73.4074946,45.6802595],[-73.4075053,45.6801321],[-73.4073444,45.6800871],[-73.4069904,45.6803195],[-73.406529,45.680372],[-73.4063466,45.6804769],[-73.4062179,45.6808217],[-73.4070436,45.6813588],[-73.4046251,45.6838549],[-73.4048329,45.6839781],[-73.406874,45.6818711],[-73.4080895,45.6809771],[-73.4129304,45.6777498],[-73.4131296,45.6779044],[-73.41745,45.674996],[-73.4185478,45.6742173],[-73.4184458,45.6741608],[-73.4191762,45.6736458],[-73.4199541,45.6733373],[-73.4213183,45.6733096],[-73.4215588,45.6733972],[-73.4220335,45.6737604],[-73.4223671,45.6735153],[-73.4231945,45.673267],[-73.423589,45.6732505],[-73.4308744,45.6731327],[-73.431082,45.6735168],[-73.4313219,45.6734773],[-73.4311554,45.6731357],[-73.4340887,45.6730677],[-73.4348067,45.6728135],[-73.4349611,45.6726721],[-73.4347038,45.6724474],[-73.435219,45.672103]]]}},{"type":"Feature","properties":{"id":"parc-667507","name":"Parc","type":"park"},"geometry":{"type":"Polygon","coordinates":[[[-73.4386531,45.6635453],[-73.4423586,45.666441],[-73.4422155,45.6706474],[-73.4419661,45.672574],[-73.4418843,45.6740389],[-73.4419742,45.6747965],[-73.4418196,45.6749723],[-73.4416878,45.674955],[-73.4416582,45.6745135],[-73.4409961,45.672954],[-73.4411439,45.6724068],[-73.441091,45.6712769],[-73.4406675,45.6709807],[-73.4395735,45.6707444],[-73.4390757,45.6707024],[-73.4382946,45.6708344],[-73.4377518,45.6705965],[-73.438573,45.6706439],[-73.4393064,45.6704395],[-73.4395603,45.6702013],[-73.4396394,45.6697506],[-73.439617,45.6672019],[-73.4393847,45.6668615],[-73.4390158,45.6668955],[-73.4388587,45.6667493],[-73.4385051,45.6666913],[-73.4385328,45.6666065],[-73.4390612,45.6666761],[-73.4393458,45.6665288],[-73.4386531,45.6635453]]]}},{"type":"Feature","properties":{"id":"parc-des-ecluses-456373","name":"Parc des Écluses","type":"park"},"geometry":{"type":"Polygon","coordinates":[[[-73.9123105,45.3168638],[-73.9136086,45.3168412],[-73.9149061,45.3165766],[-73.9154026,45.316438],[-73.9181963,45.315218],[-73.9190374,45.3150833],[-73.9185225,45.3158378],[-73.917986,45.3163206],[-73.9170464,45.3178003],[-73.9167888,45.3177619],[-73.9162331,45.3185942],[-73.916848,45.3188073],[-73.9131678,45.3235461],[-73.9128138,45.3233267],[-73.9127075,45.3218002],[-73.9118327,45.3192888],[-73.9119135,45.3181614],[-73.9123105,45.3168638]]]}},{"type":"Feature","properties":{"id":"parc-du-boise-de-la-voliere-457283","name":"Parc du Boisé de la Volière","type":"park"},"geometry":{"type":"Polygon","coordinates":[[[-74.1211453,45.7014101],[-74.1195863,45.701862],[-74.1186583,45.7022479],[-74.1174969,45.7025532],[-74.1146171,45.7030187],[-74.1139912,45.7023019],[-74.1121188,45.7026533],[-74.1122939,45.7030312],[-74.1111109,45.7033153],[-74.1113434,45.7037701],[-74.1116075,45.7037062],[-74.1116899,45.7038766],[-74.1111527,45.7041325],[-74.1092692,45.7025523],[-74.1094914,45.7023492],[-74.110351,45.7020671],[-74.1119243,45.7012523],[-74.1130294,45.7004102],[-74.1135123,45.7001599],[-74.1142779,45.7000709],[-74.1160884,45.6995658],[-74.1175126,45.6992778],[-74.1178884,45.69933],[-74.1184706,45.6995908],[-74.1193187,45.7001025],[-74.1200146,45.7001842],[-74.1211453,45.7014101]]]}},{"type":"Feature","properties":{"id":"parc-marie-victorin-728918","name":"Parc Marie-Victorin","type":"park"},"geometry":{"type":"Polygon","coordinates":[[[-73.3671353,45.525564],[-73.3623082,45.5219498],[-73.3617261,45.5211625],[-73.3613851,45.521193],[-73.3616192,45.5238896],[-73.3605562,45.5261046],[-73.3608614,45.5262115],[-73.360152,45.5277907],[-73.3601785,45.5278601],[-73.3599244,45.5279184],[-73.3590055,45.5302964],[-73.3662639,45.5358281],[-73.3685618,45.5340914],[-73.3668435,45.5327142],[-73.3667991,45.532437],[-73.3633772,45.5297024],[-73.3642132,45.5275206],[-73.3643595,45.5273185],[-73.3671353,45.525564]]]}},{"type":"Feature","properties":{"id":"parc-de-la-commune-479801","name":"Parc de la Commune","type":"park"},"geometry":{"type":"Polygon","coordinates":[[[-73.4421482,45.6776283],[-73.4390641,45.6780176],[-73.4381902,45.676607],[-73.438028,45.6752385],[-73.4377948,45.6744414],[-73.4394067,45.6743655],[-73.4394722,45.6743029],[-73.4394481,45.674056],[-73.4396187,45.6739849],[-73.4395209,45.673156],[-73.4403649,45.6731019],[-73.4397549,45.6710247],[-73.4405978,45.6711969],[-73.4408357,45.6714023],[-73.4408686,45.6723654],[-73.4406661,45.6730275],[-73.4411436,45.6740611],[-73.441235,45.6744632],[-73.4412036,45.6751503],[-73.441648,45.6760931],[-73.4418266,45.6762275],[-73.4422397,45.6768665],[-73.4423334,45.6771726],[-73.4421482,45.6776283]]]}},{"type":"Feature","properties":{"id":"parc-michel-chartrand-740215","name":"Parc Michel Chartrand","type":"park"},"geometry":{"type":"Polygon","coordinates":[[[-73.4719791,45.542136],[-73.4715377,45.5419812],[-73.4692783,45.5433266],[-73.4683771,45.5437324],[-73.4674222,45.5441156],[-73.4655018,45.544604],[-73.4637208,45.544852],[-73.4571333,45.5450924],[-73.4567363,45.5457086],[-73.4558887,45.5463848],[-73.4565117,45.5472111],[-73.45719,45.5477667],[-73.4702754,45.5576825],[-73.4706409,45.557797],[-73.4713433,45.5577802],[-73.4717863,45.557636],[-73.4732248,45.5568739],[-73.4756549,45.5552512],[-73.4837159,45.5510048],[-73.4832616,45.5505009],[-73.4832981,45.5508845],[-73.4811926,45.5521308],[-73.4809787,45.5519459],[-73.480998,45.5517784],[-73.4808746,45.5517756],[-73.4808578,45.5519525],[-73.480525,45.5521614],[-73.4792013,45.551105],[-73.4795824,45.5508247],[-73.4793021,45.5506106],[-73.4789025,45.5508795],[-73.4775358,45.5497956],[-73.4777876,45.5496135],[-73.4780277,45.5495871],[-73.478017,45.5494988],[-73.4777957,45.5494946],[-73.4776153,45.5493637],[-73.4795201,45.5481158],[-73.479851,45.5480878],[-73.4798272,45.5484026],[-73.4799117,45.5484063],[-73.4799288,45.5481127],[-73.4802249,45.5479126],[-73.4793341,45.547177],[-73.4790955,45.5473814],[-73.4792272,45.547599],[-73.4772787,45.548857],[-73.4770899,45.5487128],[-73.4770889,45.5485487],[-73.4769754,45.5485603],[-73.4769555,45.5487086],[-73.4766521,45.5489172],[-73.4753132,45.5478412],[-73.4756914,45.5476006],[-73.4754567,45.5474203],[-73.4750612,45.5476614],[-73.4737339,45.5466451],[-73.4740515,45.5464407],[-73.474241,45.546443],[-73.4742444,45.5463746],[-73.4740601,45.5463686],[-73.4737958,45.5461659],[-73.4750199,45.5453731],[-73.473696,45.5448338],[-73.474537,45.5437381],[-73.4719791,45.542136]]]}},{"type":"Feature","properties":{"id":"parc-du-ruisseau-237744","name":"Parc du Ruisseau","type":"park"},"geometry":{"type":"Polygon","coordinates":[[[-73.2908769,45.5140143],[-73.2908981,45.5140965],[-73.2946041,45.5166995],[-73.2947819,45.5166817],[-73.2961115,45.5150413],[-73.2952487,45.5145242],[-73.2951217,45.5134885],[-73.293413,45.5122624],[-73.2908769,45.5140143]]]}},{"type":"Feature","properties":{"id":"parc-recreotouristique-de-saint-lin-laurentides-455762","name":"Parc récréotouristique de Saint-Lin-Laurentides","type":"park"},"geometry":{"type":"Polygon","coordinates":[[[-73.7694383,45.8192544],[-73.7680811,45.8215968],[-73.7697355,45.8220408],[-73.7702544,45.8220524],[-73.7727989,45.8216288],[-73.7773422,45.8206701],[-73.7760986,45.8197593],[-73.7754777,45.8190172],[-73.7761041,45.818787],[-73.7781625,45.8176375],[-73.7784983,45.8168233],[-73.7783397,45.8164246],[-73.7769154,45.8154103],[-73.770612,45.81245],[-73.7694383,45.8192544]]]}},{"type":"Feature","properties":{"id":"parc-le-rocher-532549","name":"Parc Le Rocher","type":"park"},"geometry":{"type":"Polygon","coordinates":[[[-73.3404039,45.647813],[-73.3403159,45.6476654],[-73.3388005,45.6465762],[-73.3373581,45.6457786],[-73.3300395,45.6405359],[-73.3281377,45.6435509],[-73.3278361,45.644865],[-73.3277532,45.6449669],[-73.327816,45.645053],[-73.3275748,45.6455977],[-73.327233,45.6467906],[-73.3253407,45.6496277],[-73.3255191,45.649698],[-73.3267103,45.6495786],[-73.3285549,45.6492483],[-73.3287006,45.6494977],[-73.3284493,45.6496541],[-73.3286101,45.6497665],[-73.328874,45.649705],[-73.3290776,45.6497841],[-73.32954,45.6501916],[-73.3295852,45.6503726],[-73.3298717,45.6506396],[-73.3309548,45.6512386],[-73.3329395,45.6527588],[-73.3336629,45.6528468],[-73.3362201,45.6510071],[-73.3361585,45.6507781],[-73.3372044,45.6501541],[-73.3403047,45.647954],[-73.3404039,45.647813]]]}},{"type":"Feature","properties":{"id":"parc-sandy-beach-892390","name":"Parc Sandy Beach","type":"park"},"geometry":{"type":"Polygon","coordinates":[[[-74.128959,45.4591801],[-74.1282166,45.4583932],[-74.1287283,45.4580384],[-74.1291046,45.4578991],[-74.1293244,45.4578716],[-74.1297099,45.4579693],[-74.129806,45.4578716],[-74.1298452,45.4576351],[-74.1300378,45.457443],[-74.1307964,45.4569531],[-74.1314226,45.4567335],[-74.1319404,45.4567757],[-74.1321361,45.4564716],[-74.1326207,45.4563175],[-74.1331445,45.4562689],[-74.1336563,45.4563703],[-74.1342644,45.4566659],[-74.1344871,45.4568686],[-74.1344179,45.4571199],[-74.1344661,45.4571938],[-74.1347852,45.4573036],[-74.1352909,45.4577196],[-74.135873,45.4577381],[-74.1359483,45.4577928],[-74.1357918,45.4579502],[-74.1363033,45.458272],[-74.1368371,45.4577438],[-74.1399776,45.4591917],[-74.1390315,45.4602444],[-74.1387555,45.4604024],[-74.1369985,45.4605505],[-74.1366367,45.4604826],[-74.1366777,45.4603518],[-74.1373574,45.4596612],[-74.1371762,45.4594706],[-74.1368332,45.4595387],[-74.1365517,45.4594706],[-74.1363672,45.4595682],[-74.1365258,45.4597429],[-74.1363802,45.4599472],[-74.1361278,45.4600448],[-74.1358139,45.4599291],[-74.13528,45.4599654],[-74.1350535,45.4601923],[-74.1350761,45.4604011],[-74.1347952,45.4606029],[-74.1344833,45.4603129],[-74.134612,45.4601029],[-74.1346071,45.4599396],[-74.1347213,45.4598196],[-74.1345452,45.4598633],[-74.1342655,45.4601914],[-74.1338348,45.4600976],[-74.1337556,45.459891],[-74.1327134,45.4594015],[-74.1323448,45.458782],[-74.1320377,45.4585734],[-74.1315905,45.4585114],[-74.1307834,45.4586088],[-74.128959,45.4591801]]]}},{"type":"Feature","properties":{"id":"parc-428091","name":"Parc","type":"park"},"geometry":{"type":"Polygon","coordinates":[[[-74.1899495,45.4548503],[-74.1888779,45.4567371],[-74.188902,45.4580377],[-74.1915385,45.4588484],[-74.1911426,45.4595966],[-74.1903393,45.459504],[-74.1890466,45.4591121],[-74.1876751,45.4588649],[-74.1869085,45.4589313],[-74.1869684,45.4596303],[-74.1866367,45.4597253],[-74.1861224,45.459377],[-74.1865612,45.4587872],[-74.1860799,45.458632],[-74.1845337,45.4583722],[-74.1817979,45.4580613],[-74.1816957,45.4580262],[-74.1818098,45.4578772],[-74.1813986,45.4576721],[-74.1821337,45.456347],[-74.1826828,45.4557113],[-74.1833124,45.455253],[-74.1842146,45.4544289],[-74.183665,45.4541299],[-74.1844978,45.4537413],[-74.1853323,45.4532218],[-74.1861347,45.4536352],[-74.1869524,45.4539208],[-74.1869631,45.4540158],[-74.1899495,45.4548503]]]}},{"type":"Feature","properties":{"id":"parc-600388","name":"Parc","type":"park"},"geometry":{"type":"Polygon","coordinates":[[[-74.1644055,45.4629454],[-74.1630582,45.4621945],[-74.1624145,45.4628515],[-74.1622669,45.462781],[-74.1610501,45.4640274],[-74.1597755,45.4634154],[-74.158021,45.4652224],[-74.1587538,45.4655626],[-74.1583649,45.4660008],[-74.1589232,45.4662513],[-74.1590076,45.4663828],[-74.1600541,45.4652619],[-74.1609352,45.4656649],[-74.1599585,45.4666912],[-74.1600081,45.4667081],[-74.1596509,45.4672423],[-74.160179,45.4673998],[-74.1625373,45.4646944],[-74.1630937,45.4642799],[-74.1644055,45.4629454]]]}},{"type":"Feature","properties":{"id":"parc-philippe-laheurte-164223","name":"Parc Philippe-Laheurte","type":"park"},"geometry":{"type":"Polygon","coordinates":[[[-73.715758,45.5078571],[-73.7204681,45.504207],[-73.7236466,45.5033883],[-73.7253569,45.5017971],[-73.7249277,45.5015025],[-73.7262798,45.5005348],[-73.725716,45.5001792],[-73.7230965,45.5022275],[-73.7209176,45.5029393],[-73.7192997,45.5036605],[-73.7181579,45.5043158],[-73.7161192,45.5056508],[-73.714429,45.5070243],[-73.715758,45.5078571]]]}},{"type":"Feature","properties":{"id":"parc-des-benevoles-123914","name":"Parc des Bénévoles","type":"park"},"geometry":{"type":"Polygon","coordinates":[[[-73.8793474,45.4447937],[-73.8812896,45.443768],[-73.8808142,45.4424451],[-73.8809822,45.4423703],[-73.880948,45.4422586],[-73.8820211,45.4418694],[-73.8823251,45.4419478],[-73.8827822,45.4418703],[-73.8835238,45.4412038],[-73.8836596,45.4415186],[-73.8858748,45.4407205],[-73.8858402,45.4406081],[-73.886027,45.440544],[-73.8865931,45.4423656],[-73.8849761,45.4430809],[-73.8846634,45.442766],[-73.8838866,45.4430987],[-73.8837197,45.4429396],[-73.8830477,45.4427022],[-73.8829544,45.4428358],[-73.8834043,45.4438763],[-73.8818913,45.4446143],[-73.8817471,45.4445446],[-73.8816441,45.4445959],[-73.8817143,45.4446918],[-73.8816039,45.4447936],[-73.8797036,45.4457012],[-73.8793474,45.4447937]]]}},{"type":"Feature","properties":{"id":"parc-terra-cotta-571584","name":"Parc Terra Cotta","type":"park"},"geometry":{"type":"Polygon","coordinates":[[[-73.8133403,45.4517217],[-73.813301,45.4504269],[-73.8131747,45.4501243],[-73.8118876,45.4507805],[-73.8118898,45.448342],[-73.8111302,45.4476889],[-73.8120567,45.4474823],[-73.811913,45.4469941],[-73.8104006,45.4475033],[-73.8099359,45.4474418],[-73.8094698,45.4475709],[-73.8092419,45.4472615],[-73.8085886,45.4474549],[-73.8078491,45.4462886],[-73.8076787,45.4463283],[-73.8084178,45.4481811],[-73.8077449,45.448302],[-73.8070844,45.448652],[-73.805066,45.4492671],[-73.804916,45.4494265],[-73.8046909,45.4495124],[-73.805264,45.4508003],[-73.8035848,45.4512929],[-73.8038296,45.4517845],[-73.8039932,45.451903],[-73.8039476,45.4520122],[-73.8040924,45.4523584],[-73.8042909,45.4524769],[-73.8044035,45.452714],[-73.8042238,45.45281],[-73.8042572,45.4529523],[-73.804416,45.4531298],[-73.805321,45.4555332],[-73.8130846,45.4517271],[-73.8133403,45.4517217]]]}},{"type":"Feature","properties":{"id":"parc-naturel-de-riviere-a-gagnon-511556","name":"Parc naturel de Rivière-à-Gagnon","type":"park"},"geometry":{"type":"Polygon","coordinates":[[[-74.0882406,45.7804948],[-74.0883152,45.780279],[-74.0882239,45.7799695],[-74.0882621,45.7797476],[-74.0883911,45.779692],[-74.0883806,45.7795236],[-74.0880866,45.7793515],[-74.0880966,45.7792296],[-74.0884369,45.7790863],[-74.0884303,45.7790008],[-74.0879168,45.7787983],[-74.0879831,45.7784138],[-74.0872244,45.7784533],[-74.0869304,45.7782734],[-74.0869025,45.7781438],[-74.0871298,45.7779285],[-74.0870499,45.7778816],[-74.0869377,45.7778642],[-74.0866234,45.7780779],[-74.0814665,45.7787328],[-74.0820112,45.7803599],[-74.0851748,45.7799682],[-74.0853697,45.7807347],[-74.0882406,45.7804948]]]}},{"type":"Feature","properties":{"id":"parc-bernard-landry-903245","name":"Parc Bernard-Landry","type":"park"},"geometry":{"type":"Polygon","coordinates":[[[-73.6902345,45.554744],[-73.6910509,45.5554586],[-73.6893264,45.5564732],[-73.6912801,45.5581561],[-73.6931463,45.5571453],[-73.6926829,45.5567543],[-73.6941696,45.5557558],[-73.6943277,45.5556621],[-73.6944183,45.5557588],[-73.6981785,45.5539279],[-73.6977097,45.5534474],[-73.69892,45.5528616],[-73.6995172,45.5534502],[-73.7006255,45.5529202],[-73.7022353,45.5545291],[-73.7019367,45.5547152],[-73.7020393,45.5547165],[-73.7025707,45.5543707],[-73.6994767,45.5512624],[-73.6998176,45.5510937],[-73.6993843,45.5506765],[-73.6987456,45.5509671],[-73.6990516,45.5512857],[-73.6983223,45.5517515],[-73.6973734,45.5520579],[-73.696935,45.551551],[-73.695859,45.5517281],[-73.6961099,45.5520189],[-73.6953058,45.5521381],[-73.6920282,45.5523042],[-73.6917553,45.552429],[-73.6920511,45.5526906],[-73.6914329,45.5530355],[-73.6904716,45.5521363],[-73.6903472,45.5519095],[-73.6900717,45.5519223],[-73.6903275,45.5522918],[-73.690928,45.5528419],[-73.6897971,45.5534238],[-73.6908819,45.5544073],[-73.6902345,45.554744]]]}},{"type":"Feature","properties":{"id":"parc-de-la-voie-maritime-649964","name":"Parc de la Voie maritime","type":"park"},"geometry":{"type":"Polygon","coordinates":[[[-73.5185752,45.5157847],[-73.5177109,45.5133634],[-73.5177288,45.5122867],[-73.5179701,45.5105627],[-73.5174172,45.5083357],[-73.517321,45.5076104],[-73.5173363,45.5064737],[-73.5176207,45.5049058],[-73.517721,45.5048464],[-73.5186199,45.5051682],[-73.5185175,45.5052461],[-73.5191156,45.5062038],[-73.5195019,45.5070932],[-73.5220678,45.5152385],[-73.5185752,45.5157847]]]}},{"type":"Feature","properties":{"id":"parc-530275","name":"Parc","type":"park"},"geometry":{"type":"Polygon","coordinates":[[[-73.5984163,45.4373711],[-73.5997327,45.4358779],[-73.6009099,45.4348952],[-73.6040592,45.4327497],[-73.6087953,45.4296854],[-73.6119205,45.4276817],[-73.6122291,45.42756],[-73.6169183,45.4245054],[-73.6177772,45.4240216],[-73.619185,45.423396],[-73.6220808,45.4224726],[-73.622491,45.4222475],[-73.6223504,45.4219574],[-73.6209736,45.4223557],[-73.621243,45.4220882],[-73.6207834,45.4218899],[-73.6202009,45.4219298],[-73.6183124,45.4232327],[-73.6163686,45.4242063],[-73.6090632,45.4290319],[-73.608955,45.4292149],[-73.6090878,45.4294059],[-73.6088103,45.4295855],[-73.6085062,45.4294117],[-73.6007635,45.4344121],[-73.5988087,45.4362561],[-73.5979839,45.4372488],[-73.5984163,45.4373711]]]}},{"type":"Feature","properties":{"id":"parc-naturel-des-ruisseaux-607466","name":"Parc naturel des Ruisseaux","type":"park"},"geometry":{"type":"Polygon","coordinates":[[[-73.2850055,45.4263432],[-73.2875851,45.418766],[-73.2878866,45.4188148],[-73.2906343,45.4104753],[-73.2942102,45.410374],[-73.2885306,45.4268723],[-73.2850055,45.4263432]]]}},{"type":"Feature","properties":{"id":"parc-marcel-laurin-021074","name":"Parc Marcel-Laurin","type":"park"},"geometry":{"type":"Polygon","coordinates":[[[-73.7045143,45.5075955],[-73.7054373,45.5069409],[-73.7045472,45.5059181],[-73.7032374,45.5051602],[-73.7053519,45.5033964],[-73.706305,45.5039678],[-73.707282,45.503173],[-73.7088646,45.5041744],[-73.709821,45.5045859],[-73.7108196,45.5052081],[-73.7108718,45.5053479],[-73.7108283,45.505493],[-73.7097869,45.5063481],[-73.7095003,45.5066895],[-73.7092283,45.5070952],[-73.7088584,45.5082876],[-73.7082218,45.5090853],[-73.7027337,45.5095409],[-73.7020447,45.5096589],[-73.7013477,45.5096297],[-73.7012921,45.5098007],[-73.6985342,45.5098819],[-73.6978594,45.5094834],[-73.6983325,45.5090303],[-73.6990506,45.5085309],[-73.6992586,45.5082036],[-73.699871,45.5077171],[-73.7004299,45.5074411],[-73.7009069,45.5068937],[-73.7017297,45.5062186],[-73.7028338,45.5069159],[-73.7033078,45.5068446],[-73.7045143,45.5075955]]]}},{"type":"Feature","properties":{"id":"grand-parc-urbain-380604","name":"Grand Parc Urbain","type":"park"},"geometry":{"type":"Polygon","coordinates":[[[-73.4347303,45.4552763],[-73.43465,45.4552112],[-73.4340691,45.455506],[-73.4329723,45.4557964],[-73.4313935,45.4559286],[-73.4295365,45.4565604],[-73.4300799,45.4573887],[-73.4297246,45.4579385],[-73.4269345,45.4589866],[-73.42567,45.4603353],[-73.4252677,45.4602364],[-73.424801,45.4596669],[-73.4250985,45.4566658],[-73.4250751,45.4563303],[-73.4231117,45.4576826],[-73.4233907,45.4591877],[-73.4245387,45.4604317],[-73.4261909,45.4610314],[-73.4347303,45.4552763]]]}},{"type":"Feature","properties":{"id":"parc-du-canal-de-lachine-186666","name":"Parc du Canal-de-Lachine","type":"park"},"geometry":{"type":"Polygon","coordinates":[[[-73.5567872,45.489535],[-73.5568814,45.489411],[-73.5570035,45.4894267],[-73.5571188,45.489859],[-73.557358,45.4897314],[-73.5573451,45.489557],[-73.5574863,45.4895658],[-73.5591778,45.4887741],[-73.5622951,45.4868365],[-73.5623634,45.4868951],[-73.562524,45.4868013],[-73.5624776,45.4867633],[-73.5639911,45.4859174],[-73.5644319,45.4857624],[-73.5645146,45.4858351],[-73.5650282,45.4855585],[-73.5657926,45.4850987],[-73.565902,45.4849914],[-73.5658547,45.4849488],[-73.566264,45.4847008],[-73.5661991,45.4846415],[-73.5676449,45.4837626],[-73.5688623,45.4828297],[-73.5689309,45.4827615],[-73.5688197,45.4826956],[-73.5695268,45.4821039],[-73.5698327,45.4818602],[-73.5699421,45.4819301],[-73.5716365,45.4805153],[-73.5712295,45.4802462],[-73.5717185,45.4798741],[-73.5722602,45.4801573],[-73.5723556,45.4800867],[-73.5718997,45.479721],[-73.5726313,45.4791711],[-73.5729358,45.4793802],[-73.574135,45.4784675],[-73.5744282,45.478201],[-73.5742554,45.4779446],[-73.5765696,45.4761612],[-73.5768533,45.4757085],[-73.5770757,45.4757673],[-73.57906,45.4736101],[-73.5789737,45.4735737],[-73.5793476,45.4731548],[-73.5788616,45.4729332],[-73.5811969,45.4705639],[-73.5834036,45.46944],[-73.5845924,45.4687093],[-73.5888467,45.4669212],[-73.5918845,45.4662779],[-73.5928307,45.4659754],[-73.595116,45.4648734],[-73.5974775,45.4630232],[-73.5976428,45.4630268],[-73.5978765,45.4632541],[-73.5981012,45.4631554],[-73.597923,45.462939],[-73.5979802,45.4628336],[-73.5984188,45.4627253],[-73.5985157,45.462852],[-73.5990606,45.4626175],[-73.5990361,45.4625685],[-73.6032491,45.4607741],[-73.6130781,45.4575432],[-73.6202027,45.4543886],[-73.6217818,45.4534856],[-73.6256125,45.4507609],[-73.6267869,45.4497165],[-73.6282507,45.4481954],[-73.6291413,45.4475012],[-73.6301074,45.4468995],[-73.6331029,45.445477],[-73.6454524,45.4407198],[-73.6456732,45.4407365],[-73.6460848,45.4405804],[-73.6462688,45.4403524],[-73.6488338,45.4389624],[-73.6504112,45.4379412],[-73.6540504,45.4358511],[-73.6544756,45.4354686],[-73.6550362,45.4356482],[-73.6551677,45.4358241],[-73.6553095,45.4357632],[-73.6552351,45.4356792],[-73.6559567,45.4356048],[-73.6572435,45.4346755],[-73.6597685,45.4335295],[-73.6643942,45.4315768],[-73.6652954,45.4312319],[-73.6656449,45.4311684],[-73.6658524,45.4312663],[-73.6660209,45.4312443],[-73.6660235,45.4310198],[-73.6661034,45.4309509],[-73.6679441,45.430464],[-73.6684255,45.4301808],[-73.6685595,45.4301881],[-73.6688268,45.4306247],[-73.6690793,45.4307097],[-73.669193,45.4308765],[-73.669168,45.4310125],[-73.6694259,45.4314124],[-73.6681068,45.4317013],[-73.6673054,45.4320802],[-73.6666626,45.4320668],[-73.6660493,45.4321914],[-73.6621379,45.4335875],[-73.6586413,45.4353048],[-73.6546002,45.4369364],[-73.651506,45.4386032],[-73.6510955,45.4387588],[-73.6510075,45.4386923],[-73.6506469,45.4388864],[-73.6503685,45.4388383],[-73.6499859,45.4390331],[-73.649968,45.4392102],[-73.6484621,45.4400506],[-73.6460481,45.4411476],[-73.6462305,45.4414431],[-73.6455926,45.441991],[-73.6447722,45.441931],[-73.6433598,45.4424293],[-73.632072,45.4468882],[-73.6309969,45.4474268],[-73.6299827,45.4481289],[-73.6290527,45.4489158],[-73.6278226,45.450351],[-73.6271605,45.4509488],[-73.6255603,45.4520859],[-73.6254991,45.452024],[-73.6251794,45.4522049],[-73.6257615,45.4526916],[-73.6227618,45.454028],[-73.6161955,45.4576963],[-73.6159725,45.4575009],[-73.6128588,45.4587008],[-73.6108997,45.4593149],[-73.6105703,45.4593516],[-73.6030113,45.4619269],[-73.6009194,45.46286],[-73.5999543,45.4631189],[-73.5988565,45.4636445],[-73.5982928,45.4639367],[-73.5982711,45.4640213],[-73.5975833,45.4644511],[-73.5975457,45.4643735],[-73.5973848,45.4644709],[-73.5962594,45.4652714],[-73.5960742,45.4653096],[-73.5942483,45.4663208],[-73.5938929,45.4666056],[-73.5910009,45.4672764],[-73.5892005,45.4678148],[-73.5881194,45.4682349],[-73.5879275,45.4683678],[-73.5880134,45.4684842],[-73.5874294,45.4687111],[-73.5873292,45.4685772],[-73.5850339,45.4697067],[-73.5841431,45.4702963],[-73.5833458,45.4709852],[-73.583287,45.4711192],[-73.5829968,45.4713684],[-73.5829367,45.4713391],[-73.5814539,45.4727819],[-73.579577,45.4748205],[-73.5798381,45.4749846],[-73.5794225,45.4752517],[-73.579278,45.4751641],[-73.5782571,45.4762477],[-73.5779998,45.476165],[-73.5771387,45.4770309],[-73.5756834,45.4782501],[-73.5759338,45.4784111],[-73.5758668,45.4784967],[-73.5731711,45.480499],[-73.5723462,45.4813728],[-73.5712583,45.4822504],[-73.5703229,45.4835274],[-73.568819,45.4842531],[-73.5685387,45.4844869],[-73.5688681,45.4847663],[-73.5673993,45.4855365],[-73.5664918,45.4857727],[-73.5662976,45.4857596],[-73.5662088,45.4859159],[-73.5660103,45.4858938],[-73.5654843,45.4860507],[-73.5643117,45.4867349],[-73.5645016,45.486919],[-73.5644231,45.4870591],[-73.5645107,45.4871415],[-73.5628279,45.488091],[-73.5627772,45.4880479],[-73.5621694,45.4882374],[-73.5596938,45.4897239],[-73.5595591,45.4896091],[-73.559353,45.4896604],[-73.5593686,45.4897328],[-73.5577464,45.4905692],[-73.557562,45.4905459],[-73.5573252,45.490671],[-73.5574881,45.4910497],[-73.5577139,45.4912613],[-73.5576269,45.4913007],[-73.5577649,45.4914386],[-73.5576046,45.4915167],[-73.5572105,45.4910329],[-73.556804,45.4909767],[-73.5560569,45.4913879],[-73.5558721,45.4929501],[-73.5539788,45.4930476],[-73.5532508,45.4931764],[-73.5525422,45.4958416],[-73.552794,45.4960341],[-73.5528316,45.4962109],[-73.5510357,45.4953042],[-73.5510262,45.4952259],[-73.5515764,45.4952702],[-73.5517802,45.4942608],[-73.5522707,45.4908611],[-73.5517386,45.4908613],[-73.5517639,45.4906841],[-73.554602,45.4907079],[-73.5552536,45.4906251],[-73.5561931,45.4903573],[-73.5567196,45.4900963],[-73.5567872,45.489535]]]}},{"type":"Feature","properties":{"id":"centre-de-la-nature-590823","name":"Centre de la nature","type":"park"},"geometry":{"type":"Polygon","coordinates":[[[-73.6551076,45.6015416],[-73.6563316,45.6003245],[-73.6564964,45.6003549],[-73.6657528,45.6087757],[-73.6666623,45.6095245],[-73.667261,45.6097657],[-73.6671966,45.6102986],[-73.6674166,45.6107737],[-73.6658461,45.6114916],[-73.6654892,45.6110827],[-73.6649572,45.6112867],[-73.664766,45.611116],[-73.6643943,45.6112477],[-73.6638196,45.6107734],[-73.6628281,45.6107954],[-73.6617049,45.6098141],[-73.6602121,45.609458],[-73.6599117,45.6093004],[-73.6573672,45.6071642],[-73.6585975,45.6064583],[-73.6582736,45.6062457],[-73.654941,45.6032067],[-73.6551343,45.6030952],[-73.6550838,45.6030485],[-73.6560367,45.6025249],[-73.6556175,45.6021368],[-73.6557037,45.6020811],[-73.6556947,45.6019549],[-73.6551076,45.6015416]]]}},{"type":"Feature","properties":{"id":"parc-jacques-locas-091685","name":"Parc Jacques-Locas","type":"park"},"geometry":{"type":"Polygon","coordinates":[[[-73.9856739,45.7891089],[-73.9861932,45.7890322],[-73.9863414,45.7895676],[-73.9900658,45.7890502],[-73.9905343,45.7915864],[-73.9853324,45.7921369],[-73.9848074,45.7898588],[-73.9858178,45.7897427],[-73.9856739,45.7891089]]]}},{"type":"Feature","properties":{"id":"parc-jean-drapeau-607592","name":"Parc Jean-Drapeau","type":"park"},"geometry":{"type":"MultiPolygon","coordinates":[[[[-73.5258792,45.5187867],[-73.5287442,45.5185489],[-73.5283043,45.5151157],[-73.5281455,45.5131318],[-73.5281643,45.5119433],[-73.529968,45.5069534],[-73.5301463,45.5061518],[-73.5302083,45.5052932],[-73.5299114,45.503224],[-73.5293402,45.5018524],[-73.528027,45.5000003],[-73.5272521,45.4992578],[-73.5261657,45.4983991],[-73.5242174,45.4970876],[-73.520664,45.4958422],[-73.5194403,45.4956594],[-73.5198315,45.4965083],[-73.5191307,45.4968473],[-73.521686,45.5048211],[-73.5258792,45.5187867]]],[[[-73.5384798,45.5153997],[-73.5384844,45.5136955],[-73.5372181,45.5098963],[-73.5369946,45.5094249],[-73.5351763,45.5071193],[-73.5346221,45.5065556],[-73.5339563,45.50634],[-73.533569,45.5063268],[-73.5331703,45.5064169],[-73.5327206,45.5066422],[-73.531064,45.510576],[-73.5306253,45.5119131],[-73.5303646,45.5134341],[-73.5298397,45.5145406],[-73.5298465,45.5150528],[-73.5302191,45.5161545],[-73.5305394,45.5180724],[-73.5311715,45.5194221],[-73.5312872,45.5205958],[-73.5314396,45.5212497],[-73.5329213,45.5211341],[-73.5331639,45.5209919],[-73.5335056,45.5209653],[-73.5337813,45.5210043],[-73.5348047,45.521418],[-73.5357924,45.5214696],[-73.536164,45.5213105],[-73.5362618,45.5209169],[-73.5390722,45.5215089],[-73.5390638,45.5210788],[-73.5383386,45.5192539],[-73.5382834,45.5187178],[-73.5380969,45.5186093],[-73.5381755,45.5184747],[-73.5382356,45.5184903],[-73.5381879,45.5176395],[-73.5384798,45.5153997]]]]}},{"type":"Feature","properties":{"id":"parc-equestre-868446","name":"Parc Équestre","type":"park"},"geometry":{"type":"Polygon","coordinates":[[[-73.871991,45.6817734],[-73.8698105,45.6832343],[-73.8753502,45.6874059],[-73.8789216,45.6850707],[-73.875855,45.6827923],[-73.8761385,45.6826154],[-73.8743765,45.6813676],[-73.8738916,45.6817071],[-73.8739485,45.6817546],[-73.872887,45.6824377],[-73.871991,45.6817734]],[[-73.8739778,45.682421],[-73.8735486,45.6823749],[-73.8735168,45.6822252],[-73.8739937,45.6820859],[-73.8740815,45.6821112],[-73.8741151,45.6823335],[-73.8743705,45.6823218],[-73.8746145,45.6825095],[-73.8745359,45.6825774],[-73.874046,45.6825845],[-73.8739589,45.6825434],[-73.8739778,45.682421]]]}},{"type":"Feature","properties":{"id":"parc-des-rapides-906778","name":"Parc des Rapides","type":"park"},"geometry":{"type":"Polygon","coordinates":[[[-73.6091889,45.4172042],[-73.6091024,45.4171165],[-73.6069353,45.4179744],[-73.6050497,45.4184394],[-73.604414,45.4187265],[-73.6033014,45.4194024],[-73.6024557,45.4197807],[-73.6014663,45.4207682],[-73.601068,45.4210186],[-73.5996866,45.4222197],[-73.5994895,45.4226443],[-73.5984689,45.4232542],[-73.5966235,45.4248628],[-73.5941291,45.4276535],[-73.5938073,45.4276856],[-73.5933199,45.4273567],[-73.5932037,45.427371],[-73.5931018,45.4273067],[-73.5931116,45.427213],[-73.5927464,45.4269636],[-73.5920919,45.4265834],[-73.5918465,45.4265213],[-73.5917379,45.4263914],[-73.5917419,45.4261947],[-73.5956392,45.4233672],[-73.5958014,45.4231262],[-73.5955882,45.4231055],[-73.5926901,45.4251885],[-73.5911478,45.4260365],[-73.5901527,45.4270352],[-73.5896449,45.4271904],[-73.5895827,45.4275302],[-73.5887915,45.4280578],[-73.588768,45.4281736],[-73.5881498,45.4286719],[-73.5881317,45.4287698],[-73.5883851,45.4288093],[-73.5894527,45.4280347],[-73.5898503,45.4279147],[-73.5901062,45.4280169],[-73.5896987,45.4282032],[-73.5900562,45.4282018],[-73.5905405,45.4285923],[-73.5915314,45.4288432],[-73.5918807,45.4288381],[-73.5920611,45.4289613],[-73.5922075,45.4289638],[-73.5922495,45.4290573],[-73.5916413,45.4297157],[-73.5909425,45.4301141],[-73.590441,45.4306126],[-73.5900374,45.4308902],[-73.5895653,45.4311283],[-73.5890356,45.4315462],[-73.58899,45.4317504],[-73.5887781,45.4319067],[-73.5880204,45.4322069],[-73.5870641,45.4328939],[-73.5866296,45.4329871],[-73.5862595,45.4331951],[-73.5838274,45.4350097],[-73.5857727,45.4353373],[-73.5860478,45.4351481],[-73.5877289,45.4332303],[-73.5917038,45.43065],[-73.5952479,45.4276299],[-73.5956171,45.4272294],[-73.5966184,45.425637],[-73.59726,45.4249859],[-73.6001833,45.4234208],[-73.601191,45.422634],[-73.6019353,45.4217375],[-73.6023616,45.4213438],[-73.6040964,45.4200766],[-73.6075355,45.4184738],[-73.6091889,45.4172042]],[[-73.5925247,45.4286744],[-73.5922082,45.4287874],[-73.591834,45.4287991],[-73.5906327,45.428518],[-73.5901333,45.4279406],[-73.590193,45.4278808],[-73.5901697,45.4275073],[-73.5911867,45.4268225],[-73.5917083,45.4267137],[-73.5918622,45.4269182],[-73.5923772,45.4271478],[-73.5924496,45.427289],[-73.5930167,45.4274934],[-73.5931187,45.4275983],[-73.5931255,45.4277525],[-73.5925247,45.4286744]]]}},{"type":"Feature","properties":{"id":"parc-champlain-048365","name":"Parc Champlain","type":"park"},"geometry":{"type":"MultiPolygon","coordinates":[[[[-73.5272866,45.3893031],[-73.5273347,45.3897049],[-73.5279348,45.3904112],[-73.53119,45.3896311],[-73.5324855,45.38968],[-73.5324348,45.3885031],[-73.5320801,45.388464],[-73.5309495,45.3884096],[-73.5272866,45.3893031]]],[[[-73.5267875,45.3906345],[-73.5276558,45.390328],[-73.52717,45.3897535],[-73.527107,45.3893538],[-73.525173,45.3899103],[-73.5243743,45.390017],[-73.5220596,45.3905771],[-73.518589,45.3908917],[-73.5186211,45.3911888],[-73.5183892,45.3911571],[-73.5182725,45.3912233],[-73.5193546,45.3922306],[-73.5199094,45.3924342],[-73.5203099,45.3921039],[-73.5203529,45.3919547],[-73.5227113,45.3916989],[-73.5267393,45.3907441],[-73.5267875,45.3906345]]]]}},{"type":"Feature","properties":{"id":"parc-726477","name":"Parc","type":"park"},"geometry":{"type":"Polygon","coordinates":[[[-73.6788842,45.7121694],[-73.6789798,45.7123771],[-73.6793897,45.7124049],[-73.6797368,45.7115851],[-73.680226,45.7111172],[-73.6808835,45.7108459],[-73.6803616,45.7088058],[-73.6817213,45.7082171],[-73.6819734,45.7080043],[-73.681143,45.7075298],[-73.6810379,45.7075432],[-73.6807222,45.7078622],[-73.6794412,45.7085361],[-73.6781275,45.7078178],[-73.6775549,45.7073074],[-73.6777438,45.7077868],[-73.6781557,45.7081345],[-73.6780871,45.7093032],[-73.6748898,45.7094086],[-73.6746243,45.7097536],[-73.6736067,45.7098036],[-73.6736067,45.7083862],[-73.6721819,45.7089137],[-73.6721218,45.7105199],[-73.6705511,45.7105319],[-73.6705147,45.7111116],[-73.6692983,45.7113832],[-73.6699258,45.7121236],[-73.6700251,45.7124944],[-73.6707741,45.7125471],[-73.6710142,45.7126679],[-73.6711147,45.713373],[-73.6714163,45.7134062],[-73.6715128,45.7130686],[-73.6723103,45.7130607],[-73.6722438,45.7136549],[-73.6722901,45.7148874],[-73.6709861,45.7150357],[-73.6719466,45.7151679],[-73.6781438,45.7152552],[-73.6782148,45.7128453],[-73.6787309,45.7128159],[-73.6787136,45.7123199],[-73.6785182,45.7120921],[-73.6784719,45.7115172],[-73.6785962,45.7114484],[-73.6787711,45.7114612],[-73.6788816,45.7116584],[-73.6788842,45.7121694]]]}},{"type":"Feature","properties":{"id":"parc-de-la-coulee-199853","name":"Parc de la Coulée","type":"park"},"geometry":{"type":"MultiPolygon","coordinates":[[[[-73.3508768,45.5926659],[-73.3505601,45.592862],[-73.3510623,45.5932498],[-73.3513724,45.5930579],[-73.351537,45.593183],[-73.35186,45.5929831],[-73.3512662,45.5925223],[-73.3509489,45.5927233],[-73.3508768,45.5926659]]],[[[-73.3494607,45.5937616],[-73.3502232,45.5937941],[-73.3509782,45.5933161],[-73.3504077,45.5928709],[-73.3500722,45.5930904],[-73.3492874,45.5925842],[-73.3478763,45.5934942],[-73.3481544,45.5938711],[-73.347768,45.5939963],[-73.3478157,45.5940743],[-73.3482055,45.5939406],[-73.3485214,45.5943433],[-73.3494607,45.5937616]]],[[[-73.3521396,45.5921733],[-73.3516028,45.5924809],[-73.3524759,45.5931624],[-73.3533993,45.5925953],[-73.3560962,45.5929961],[-73.3564089,45.5934232],[-73.3564299,45.5948454],[-73.3562307,45.59519],[-73.3556885,45.5953974],[-73.3558188,45.5957309],[-73.3558793,45.5962698],[-73.3556518,45.5999061],[-73.3560045,45.599914],[-73.3560019,45.6002758],[-73.3564707,45.6004931],[-73.35684,45.6008056],[-73.3569255,45.5998905],[-73.3569016,45.5988916],[-73.3566101,45.5986224],[-73.3567835,45.5983589],[-73.3567242,45.5966879],[-73.3569109,45.5964724],[-73.3567356,45.596216],[-73.3567306,45.59588],[-73.3568169,45.5957388],[-73.3566277,45.5954165],[-73.3568621,45.59516],[-73.3569309,45.5945009],[-73.3570964,45.594162],[-73.3569819,45.5928933],[-73.356927,45.592633],[-73.3568153,45.5925654],[-73.3570397,45.5916267],[-73.357054,45.5908805],[-73.3567918,45.5906892],[-73.3569648,45.5904543],[-73.3556734,45.5901863],[-73.3555172,45.5904101],[-73.3561104,45.5908758],[-73.3558841,45.5921316],[-73.3541135,45.5919724],[-73.3521396,45.5921733]]]]}},{"type":"Feature","properties":{"id":"parc-edmour-j-harvey-366256","name":"Parc Edmour-J.-Harvey","type":"park"},"geometry":{"type":"MultiPolygon","coordinates":[[[[-73.3293418,45.5651898],[-73.3288046,45.5652138],[-73.3280998,45.5655097],[-73.3279293,45.565384],[-73.3261906,45.5664319],[-73.3259062,45.5662215],[-73.3253612,45.5665992],[-73.3249896,45.5666179],[-73.3248839,45.5667679],[-73.3254029,45.567071],[-73.3261047,45.5672515],[-73.3273776,45.5682862],[-73.3278541,45.5678905],[-73.3280276,45.5676099],[-73.3309414,45.566393],[-73.3312384,45.56657],[-73.3312274,45.5667052],[-73.3313372,45.5665382],[-73.3315562,45.5664375],[-73.3326242,45.5673344],[-73.3332591,45.5669584],[-73.3306058,45.5648303],[-73.3303803,45.5650592],[-73.3297865,45.5654167],[-73.3293418,45.5651898]]],[[[-73.3278278,45.5680492],[-73.328909,45.5687356],[-73.3294685,45.568524],[-73.3286589,45.5679266],[-73.3281657,45.5677604],[-73.3278278,45.5680492]]]]}},{"type":"Feature","properties":{"id":"parc-de-l-aqueduc-304346","name":"Parc de l'Aqueduc","type":"park"},"geometry":{"type":"MultiPolygon","coordinates":[[[[-73.5984163,45.4373711],[-73.5979839,45.4372488],[-73.5966363,45.4387664],[-73.5954189,45.4403105],[-73.5927426,45.4433396],[-73.5900676,45.446155],[-73.5900879,45.4462105],[-73.5869517,45.4493368],[-73.5853479,45.4506868],[-73.5845274,45.4512285],[-73.5837851,45.451597],[-73.5840104,45.4518591],[-73.5829499,45.4524465],[-73.5827889,45.4527476],[-73.5822051,45.4528225],[-73.581704,45.4538619],[-73.5807253,45.4550034],[-73.5801483,45.455947],[-73.5796252,45.4573107],[-73.5794328,45.4580809],[-73.5792359,45.4602827],[-73.5795598,45.4622718],[-73.5797638,45.4623772],[-73.5798171,45.4632575],[-73.5802323,45.4632703],[-73.5801889,45.4627132],[-73.5802518,45.4623977],[-73.5801002,45.4620767],[-73.579979,45.4613643],[-73.5800282,45.4613339],[-73.579926,45.4613399],[-73.5799028,45.461166],[-73.5800094,45.46116],[-73.5799433,45.4611355],[-73.5798346,45.4602426],[-73.5798292,45.4592579],[-73.5799332,45.4583008],[-73.5804014,45.4566497],[-73.5809223,45.455557],[-73.5814717,45.454696],[-73.5822281,45.4537659],[-73.5833059,45.4527046],[-73.586805,45.4501236],[-73.5888814,45.4481107],[-73.5928802,45.4439073],[-73.5984163,45.4373711]]],[[[-73.5802461,45.4634508],[-73.5800308,45.46345],[-73.5798532,45.4654436],[-73.5797625,45.4655093],[-73.5795077,45.4665112],[-73.5785214,45.4664665],[-73.5782087,45.4665783],[-73.577603,45.4665657],[-73.5775783,45.4667854],[-73.5783056,45.4667992],[-73.5783069,45.4666704],[-73.5788273,45.4666835],[-73.5788269,45.4668624],[-73.5795865,45.4669515],[-73.5800124,45.4657325],[-73.5802214,45.4641334],[-73.5802461,45.4634508]]]]}},{"type":"Feature","properties":{"id":"parc-angrignon-337188","name":"Parc Angrignon","type":"park"},"geometry":{"type":"Polygon","coordinates":[[[-73.6118597,45.4394752],[-73.5997297,45.4375233],[-73.5947952,45.4432461],[-73.5931285,45.4449727],[-73.5931077,45.4451156],[-73.5932863,45.4452436],[-73.6012904,45.4464838],[-73.6014345,45.4460997],[-73.6008494,45.444956],[-73.6034385,45.444315],[-73.6036888,45.4445334],[-73.6039218,45.4449855],[-73.603738,45.4453891],[-73.6037142,45.4456914],[-73.6038206,45.4458113],[-73.6037538,45.4459165],[-73.6039318,45.4459246],[-73.604274,45.4457216],[-73.6043601,45.4457925],[-73.6046705,45.4457822],[-73.6052658,45.4462768],[-73.6053385,45.446604],[-73.6052218,45.4466784],[-73.6052944,45.4467411],[-73.6056301,45.4468672],[-73.6059308,45.4468358],[-73.6088929,45.4443371],[-73.6093948,45.4444927],[-73.6102554,45.4436409],[-73.6107354,45.4428129],[-73.6107612,45.4427385],[-73.6106588,45.4427197],[-73.6117368,45.4395202],[-73.6118597,45.4394752]]]}},{"type":"Feature","properties":{"id":"parc-multifonctionnel-722974","name":"Parc multifonctionnel","type":"park"},"geometry":{"type":"MultiPolygon","coordinates":[[[[-73.5835144,45.3745565],[-73.5840297,45.3746283],[-73.5839627,45.3742788],[-73.5835323,45.3742157],[-73.5815411,45.3743924],[-73.5808975,45.3743157],[-73.5805339,45.3751042],[-73.5801664,45.3750159],[-73.5801107,45.3751564],[-73.5804704,45.3752162],[-73.5805043,45.3751466],[-73.580969,45.3750301],[-73.5821894,45.3749831],[-73.5825874,45.374692],[-73.5835144,45.3745565]]],[[[-73.5841943,45.3739244],[-73.5844437,45.3752433],[-73.5852092,45.3751822],[-73.5852652,45.3755074],[-73.585443,45.3754888],[-73.5853815,45.3751762],[-73.5860054,45.3750757],[-73.5867417,45.3748393],[-73.5884066,45.3740874],[-73.5886445,45.3743558],[-73.5888997,45.374405],[-73.5891173,45.3746358],[-73.5905679,45.3739869],[-73.5927859,45.3764605],[-73.5908391,45.3773234],[-73.590724,45.3771943],[-73.5901291,45.3771459],[-73.5900739,45.3772386],[-73.5903711,45.3775453],[-73.5889931,45.3781425],[-73.5891581,45.3782758],[-73.5931027,45.3792632],[-73.5930474,45.3793753],[-73.5944722,45.3797589],[-73.5950057,45.378793],[-73.595203,45.3786671],[-73.5982567,45.3794808],[-73.5985996,45.3794509],[-73.5994792,45.3796523],[-73.6008851,45.377143],[-73.5958096,45.3759914],[-73.5954896,45.3754577],[-73.5955889,45.3749759],[-73.5958537,45.3748105],[-73.595977,45.374364],[-73.5955884,45.3740303],[-73.5954993,45.373539],[-73.5952443,45.3731883],[-73.5936295,45.3725918],[-73.5920849,45.3722137],[-73.5869819,45.3735183],[-73.586745,45.3736594],[-73.5864938,45.3734996],[-73.585946,45.3736427],[-73.5845785,45.3733134],[-73.5846909,45.3738806],[-73.5841943,45.3739244]]]]}},{"type":"Feature","properties":{"id":"parc-marcelin-wilson-489293","name":"Parc Marcelin-Wilson","type":"park"},"geometry":{"type":"MultiPolygon","coordinates":[[[[-73.6763849,45.5351065],[-73.6794636,45.536212],[-73.6803379,45.53479],[-73.6800965,45.5342243],[-73.6799613,45.5341134],[-73.6790261,45.5338978],[-73.6778338,45.5337898],[-73.676704,45.5338481],[-73.6754808,45.5340849],[-73.675566,45.534307],[-73.6759336,45.5342379],[-73.6761572,45.5345715],[-73.6765871,45.5348716],[-73.6763849,45.5351065]]],[[[-73.6873326,45.5398082],[-73.6885955,45.5379452],[-73.6815776,45.5347772],[-73.680738,45.5349623],[-73.6798685,45.5363118],[-73.6800701,45.5364793],[-73.6809986,45.5368109],[-73.6810809,45.5369246],[-73.6817024,45.5371453],[-73.6819011,45.537138],[-73.6855346,45.5384434],[-73.6856036,45.5385663],[-73.6852723,45.5391651],[-73.6873326,45.5398082]]],[[[-73.6888866,45.5380754],[-73.6885711,45.5382855],[-73.6879467,45.5393082],[-73.6898085,45.5399765],[-73.6903519,45.5392856],[-73.6908337,45.5394567],[-73.6910589,45.5391453],[-73.6888866,45.5380754]]]]}},{"type":"Feature","properties":{"id":"parc-frederic-back-172242","name":"Parc Frédéric-Back","type":"park"},"geometry":{"type":"Polygon","coordinates":[[[-73.6419724,45.5651514],[-73.6420943,45.5650185],[-73.641742,45.5648609],[-73.6426221,45.5637866],[-73.6262062,45.5566799],[-73.6256646,45.5572662],[-73.6237237,45.5564208],[-73.6232512,45.5564089],[-73.6226341,45.5571675],[-73.6227594,45.5573233],[-73.6225419,45.5580741],[-73.6218677,45.5583038],[-73.6216592,45.5583051],[-73.6208889,45.5588153],[-73.6204502,45.5584802],[-73.6202944,45.5585805],[-73.6201965,45.558503],[-73.6198539,45.558729],[-73.619394,45.5588228],[-73.6187096,45.5592454],[-73.6182779,45.5593585],[-73.6175668,45.5593923],[-73.617019,45.5596503],[-73.6167153,45.5601014],[-73.6157971,45.5597317],[-73.6156925,45.5600317],[-73.6152471,45.5605162],[-73.6162783,45.5609688],[-73.6163402,45.5608855],[-73.6167644,45.5609896],[-73.6185314,45.561775],[-73.6175653,45.5628609],[-73.6184308,45.5632549],[-73.6184377,45.5633667],[-73.6181143,45.5637316],[-73.6197205,45.5644531],[-73.6193978,45.5648214],[-73.6257261,45.5674879],[-73.6269228,45.5661617],[-73.6338542,45.5692391],[-73.6357599,45.5671849],[-73.6359019,45.5671729],[-73.6374906,45.5678746],[-73.6384057,45.5668453],[-73.6400612,45.5675834],[-73.6406875,45.566876],[-73.641027,45.5670115],[-73.641168,45.566845],[-73.6408419,45.566707],[-73.6421202,45.5652155],[-73.6419724,45.5651514]],[[-73.6369827,45.5674856],[-73.6368443,45.5675048],[-73.6357536,45.5670904],[-73.6344436,45.5683438],[-73.6344014,45.5678282],[-73.6343074,45.5678358],[-73.6338124,45.5674771],[-73.633883,45.5671388],[-73.6341621,45.5665832],[-73.6340778,45.5664203],[-73.633452,45.5661836],[-73.6325854,45.5661281],[-73.6324783,45.566073],[-73.632485,45.5658956],[-73.6319881,45.565887],[-73.6310053,45.5656445],[-73.6305083,45.5653769],[-73.6301418,45.5650283],[-73.6300379,45.5647905],[-73.6290748,45.5643116],[-73.6285165,45.5643021],[-73.6278272,45.5644138],[-73.6264935,45.5649019],[-73.6245558,45.5640136],[-73.6236065,45.563671],[-73.6228872,45.5635396],[-73.6218662,45.5635834],[-73.6213585,45.5633065],[-73.6216455,45.5629986],[-73.6210296,45.5619254],[-73.620549,45.561435],[-73.6205472,45.5612689],[-73.6189375,45.5610221],[-73.6190414,45.5608027],[-73.6189899,45.5606748],[-73.6182575,45.5608366],[-73.6182205,45.5607471],[-73.6177289,45.5607896],[-73.6163078,45.5605673],[-73.6166814,45.5603926],[-73.6167075,45.560218],[-73.6172718,45.5596484],[-73.6175963,45.5595606],[-73.6183685,45.5595239],[-73.6189207,45.5592235],[-73.6190173,45.5592665],[-73.6196051,45.5588677],[-73.6216048,45.5590589],[-73.6222302,45.5589092],[-73.6225927,45.5585703],[-73.6228254,45.5573338],[-73.6229896,45.5570027],[-73.6230576,45.5569234],[-73.6232219,45.5569234],[-73.6235673,45.5566101],[-73.6238165,45.5566319],[-73.625582,45.5573942],[-73.6260907,45.5576972],[-73.6363944,45.5621134],[-73.6367636,45.5622838],[-73.6367746,45.5624744],[-73.6404384,45.5640761],[-73.6403843,45.5641378],[-73.6411101,45.5644792],[-73.6395968,45.5662538],[-73.6392162,45.5664225],[-73.6384595,45.5664411],[-73.6380004,45.5665714],[-73.6369827,45.5674856]]]}},{"type":"Feature","properties":{"id":"parc-marie-victorin-386897","name":"Parc Marie-Victorin","type":"park"},"geometry":{"type":"MultiPolygon","coordinates":[[[[-73.5234901,45.5321111],[-73.5223105,45.5326959],[-73.5206953,45.5331202],[-73.5194613,45.5342021],[-73.5220104,45.5350684],[-73.5214681,45.5347351],[-73.5214494,45.5344613],[-73.5216518,45.5341172],[-73.5234511,45.5332621],[-73.5238405,45.5332031],[-73.5244095,45.5332604],[-73.5244211,45.5330281],[-73.5240327,45.5324999],[-73.523807,45.5322741],[-73.5234901,45.5321111]]],[[[-73.5119017,45.5438827],[-73.5125925,45.5433034],[-73.5133375,45.5431729],[-73.51448,45.5425926],[-73.5158836,45.5416424],[-73.5168222,45.540796],[-73.5166829,45.5407641],[-73.5157472,45.5415726],[-73.5145519,45.5423851],[-73.5134856,45.5429336],[-73.512809,45.5430192],[-73.5126242,45.5431459],[-73.5122865,45.543183],[-73.5104564,45.5419187],[-73.5090671,45.5431992],[-73.5067274,45.5456775],[-73.5068586,45.5458421],[-73.5072458,45.545907],[-73.5077382,45.5458186],[-73.5083211,45.5455916],[-73.508401,45.5458318],[-73.5081191,45.545963],[-73.5080728,45.5460602],[-73.5083632,45.5462489],[-73.508502,45.5464861],[-73.5087482,45.5464758],[-73.5091396,45.5461133],[-73.5103986,45.5453174],[-73.511076,45.5451687],[-73.5112505,45.5450526],[-73.5115189,45.5447506],[-73.5115629,45.5444877],[-73.5119017,45.5438827]]]]}},{"type":"Feature","properties":{"id":"parc-lasalle-837014","name":"Parc LaSalle","type":"park"},"geometry":{"type":"MultiPolygon","coordinates":[[[[-73.67302,45.44006],[-73.677349,45.4399339],[-73.6773526,45.4395897],[-73.6774135,45.4395906],[-73.677408,45.4376899],[-73.6773211,45.4376933],[-73.6773769,45.436435],[-73.6727731,45.4373166],[-73.6727102,45.4397264],[-73.6728433,45.4399853],[-73.67302,45.44006]]],[[[-73.6724894,45.4374269],[-73.6707419,45.4377287],[-73.6707658,45.4393649],[-73.6711195,45.439367],[-73.6710856,45.4399954],[-73.6715789,45.4400961],[-73.6724233,45.4400876],[-73.6724894,45.4374269]]]]}},{"type":"Feature","properties":{"id":"parc-d-anjou-sur-le-lac-284855","name":"Parc d'Anjou-sur-le-Lac","type":"park"},"geometry":{"type":"MultiPolygon","coordinates":[[[[-73.5876463,45.6061224],[-73.5867757,45.6066126],[-73.5867662,45.6067068],[-73.5884514,45.6074524],[-73.5886511,45.6072318],[-73.588836,45.6073134],[-73.5888949,45.6072469],[-73.5888239,45.6070354],[-73.5897089,45.6069883],[-73.589763,45.6069143],[-73.5903918,45.6070551],[-73.5907205,45.6071885],[-73.5909732,45.6074075],[-73.5912,45.6074177],[-73.5916519,45.6078618],[-73.592318,45.6081935],[-73.5923531,45.6083139],[-73.5925934,45.6084188],[-73.5926168,45.6085672],[-73.5925224,45.6086732],[-73.5928647,45.6089013],[-73.5930935,45.6089228],[-73.5938209,45.6093097],[-73.5939312,45.6090699],[-73.5930747,45.6087409],[-73.5928666,45.6085295],[-73.5926872,45.6081709],[-73.5919175,45.6077586],[-73.5910555,45.6071271],[-73.5905184,45.6068701],[-73.5896164,45.6067211],[-73.5882244,45.6069247],[-73.5878265,45.6067545],[-73.5880861,45.6065159],[-73.5886466,45.6065395],[-73.5896119,45.6064193],[-73.590265,45.606481],[-73.5920708,45.6073621],[-73.5927174,45.6078731],[-73.5937073,45.6080585],[-73.5940153,45.6087393],[-73.5941644,45.6088014],[-73.5942309,45.6087292],[-73.5940127,45.6085807],[-73.5938912,45.6080892],[-73.5936369,45.6079357],[-73.5930774,45.6078906],[-73.5926107,45.607673],[-73.5916397,45.6069487],[-73.5900304,45.6063069],[-73.5880456,45.606382],[-73.5876463,45.6061224]]],[[[-73.5960942,45.6081034],[-73.5952025,45.6091409],[-73.5944521,45.6087344],[-73.5943249,45.6088683],[-73.5961594,45.6096292],[-73.5970043,45.6096956],[-73.5972994,45.6096468],[-73.5978304,45.6098007],[-73.5980557,45.6100033],[-73.5981469,45.610311],[-73.5982213,45.6103313],[-73.5982443,45.6101852],[-73.5989327,45.6093633],[-73.5960942,45.6081034]]],[[[-73.594516,45.6115676],[-73.5948744,45.6116257],[-73.5954237,45.6118572],[-73.5963953,45.6107646],[-73.5968339,45.6106943],[-73.5972187,45.6107292],[-73.5973825,45.6105448],[-73.596425,45.6104161],[-73.5960414,45.6100382],[-73.5958107,45.6099594],[-73.5956444,45.6096404],[-73.5949524,45.6095541],[-73.5948076,45.6094228],[-73.5945957,45.6093766],[-73.5944428,45.609434],[-73.5945045,45.6096468],[-73.5948478,45.6096843],[-73.5951697,45.6098607],[-73.5956257,45.6098607],[-73.5956391,45.6099294],[-73.5945018,45.6100757],[-73.5940914,45.6099358],[-73.5940002,45.6096168],[-73.594047,45.6093334],[-73.5936421,45.6096011],[-73.5932239,45.6097334],[-73.5924377,45.6096311],[-73.5916801,45.610436],[-73.594516,45.6115676]]]]}},{"type":"Feature","properties":{"id":"parc-de-la-traversee-940244","name":"Parc de la Traversée","type":"park"},"geometry":{"type":"MultiPolygon","coordinates":[[[[-73.4953213,45.6354151],[-73.4956825,45.6354702],[-73.4972587,45.6337459],[-73.496919,45.6337053],[-73.4953213,45.6354151]]],[[[-73.4929534,45.6384479],[-73.49342,45.6385662],[-73.494216,45.6372726],[-73.4955144,45.6355901],[-73.4952116,45.6355653],[-73.4939058,45.6370991],[-73.4929534,45.6384479]]],[[[-73.4923144,45.640178],[-73.4926678,45.6402246],[-73.4932913,45.6386893],[-73.4928664,45.6386442],[-73.4923144,45.640178]]],[[[-73.4919531,45.6436691],[-73.4921155,45.6422558],[-73.4925821,45.6404644],[-73.4922424,45.6403906],[-73.4919565,45.640919],[-73.4916305,45.6419518],[-73.491743,45.6419676],[-73.4916904,45.6422827],[-73.4917494,45.6423403],[-73.491644,45.6436064],[-73.4919531,45.6436691]]],[[[-73.4926874,45.6497135],[-73.4920542,45.645543],[-73.4919742,45.6438344],[-73.4916886,45.643791],[-73.4916538,45.6446554],[-73.4917604,45.645784],[-73.4917328,45.6458481],[-73.4916173,45.6458307],[-73.4918816,45.6475346],[-73.4920019,45.6475472],[-73.4923155,45.6496352],[-73.4926874,45.6497135]]],[[[-73.4933262,45.6559752],[-73.4937272,45.6559773],[-73.4931242,45.6523284],[-73.4933505,45.6522078],[-73.4931786,45.6518453],[-73.4930455,45.6518556],[-73.4927516,45.6500152],[-73.4924082,45.6499363],[-73.4933262,45.6559752]]],[[[-73.494916,45.6637039],[-73.4944387,45.6604854],[-73.4945048,45.6604079],[-73.4937589,45.6562069],[-73.4933559,45.6561269],[-73.4934299,45.6565056],[-73.4931982,45.6566518],[-73.4933909,45.6575742],[-73.4935991,45.6576857],[-73.4936978,45.6578753],[-73.4946175,45.6636612],[-73.494916,45.6637039]]],[[[-73.4955247,45.6676427],[-73.4949812,45.6639099],[-73.4946442,45.6638174],[-73.4952641,45.6676022],[-73.4955247,45.6676427]]],[[[-73.4959243,45.6707007],[-73.4959433,45.6700743],[-73.4956048,45.6678859],[-73.4953671,45.6678301],[-73.4954098,45.6688358],[-73.495601,45.6699601],[-73.4954562,45.670634],[-73.4959243,45.6707007]]]]}}]}
