{"type":"FeatureCollection","features":[{"type":"Feature","properties":{"id":"foret-de-vives-055771","name":"Forêt de Vivès","type":"park"},"geometry":{"type":"Polygon","coordinates":[[[2.7444913,42.5356672],[2.7452715,42.5341771],[2.7453974,42.5331934],[2.7452572,42.5321377],[2.7458828,42.5314238],[2.7470115,42.5312713],[2.7482681,42.5305301],[2.7488926,42.5295692],[2.7492179,42.5285847],[2.7502423,42.5278445],[2.7516684,42.5275931],[2.7527292,42.5272938],[2.7534567,42.5268488],[2.7541819,42.5256629],[2.7537748,42.5248631],[2.7526038,42.5238576],[2.7525581,42.5230856],[2.7535594,42.522755],[2.7541187,42.5224566],[2.7539152,42.5220118],[2.7529114,42.5219854],[2.7524265,42.5215417],[2.7512999,42.5212195],[2.749584,42.5211307],[2.749445,42.5201447],[2.7508089,42.519915],[2.7520535,42.5198809],[2.7537397,42.519963],[2.7524057,42.5191601],[2.7520794,42.5184015],[2.7514976,42.5178808],[2.7504681,42.5176468],[2.7501428,42.5170308],[2.7503956,42.5164125],[2.7510961,42.5156017],[2.7511555,42.5148887],[2.7505724,42.5141783],[2.7498611,42.5135638],[2.749217,42.5132329],[2.748058,42.5128098],[2.7477972,42.5122889],[2.748264,42.5117865],[2.7475387,42.5115536],[2.7475347,42.5109891],[2.7478524,42.5105423],[2.7498532,42.5096737],[2.7505363,42.5097305],[2.7506595,42.5102048],[2.7514247,42.5104993],[2.7521452,42.5102888],[2.7529436,42.5096022],[2.7529391,42.5089782],[2.7527349,42.5085345],[2.7520527,42.5084777],[2.7498082,42.5089904],[2.7491255,42.5088752],[2.7487608,42.5084602],[2.7479986,42.5084631],[2.7473951,42.508287],[2.7458765,42.5092435],[2.7446772,42.5098721],[2.7448907,42.5103113],[2.7452408,42.5104252],[2.7454045,42.5107034],[2.7453545,42.5108845],[2.745059,42.5112297],[2.7450226,42.5115247],[2.7456774,42.5116822],[2.7457865,42.5118464],[2.7458047,42.5122017],[2.7461502,42.5123321],[2.7459807,42.5126281],[2.7461855,42.5131627],[2.7467517,42.5137542],[2.7469555,42.5142585],[2.7467993,42.5149124],[2.7463207,42.5153598],[2.7454388,42.5155113],[2.7450805,42.5158988],[2.7448927,42.5177997],[2.7451375,42.5183038],[2.7457398,42.5183015],[2.7464197,42.5180014],[2.7470583,42.5174356],[2.7476591,42.5172245],[2.7479797,42.5171941],[2.7483055,42.5178763],[2.7474484,42.5186507],[2.746648,42.5190702],[2.7449672,42.519759],[2.7437213,42.5196157],[2.7427581,42.5196496],[2.7427225,42.5202132],[2.7415805,42.5203881],[2.741417,42.5198938],[2.7410651,42.5193598],[2.7404224,42.5193431],[2.7399964,42.5196018],[2.7399192,42.5200768],[2.740513,42.5208075],[2.740088,42.5212255],[2.7402504,42.5215604],[2.740839,42.5215391],[2.7422808,42.5210578],[2.7433244,42.5210145],[2.7446556,42.521097],[2.7457,42.5212714],[2.7464294,42.522189],[2.7473588,42.521879],[2.7481154,42.5221241],[2.7482863,42.5224748],[2.7482058,42.5229925],[2.7478475,42.5237178],[2.7463447,42.5247158],[2.7462649,42.5253367],[2.7463244,42.5258124],[2.7461315,42.5262262],[2.7433184,42.5277679],[2.7427882,42.5278934],[2.7418077,42.527649],[2.7414734,42.5277951],[2.740945,42.5281899],[2.7395724,42.5284274],[2.739335,42.5286066],[2.7389319,42.5286053],[2.7386959,42.5284034],[2.7392481,42.5281145],[2.73865,42.5281613],[2.7384601,42.5279826],[2.7369162,42.5285333],[2.7365742,42.5285752],[2.7362459,42.5288765],[2.7359335,42.5290045],[2.735492,42.5290215],[2.7349064,42.5289711],[2.7343263,42.5288195],[2.7343349,42.5285493],[2.7339239,42.5284673],[2.7336058,42.5282813],[2.7336305,42.528157],[2.7338386,42.528021],[2.7347994,42.5277443],[2.735346,42.5277237],[2.7359254,42.5275359],[2.7364125,42.5272901],[2.7381056,42.5260513],[2.7369803,42.5258176],[2.7362553,42.525524],[2.7353738,42.5257652],[2.7338556,42.5268697],[2.7326896,42.5266653],[2.7317661,42.5266396],[2.7311674,42.5270873],[2.7309304,42.5277112],[2.7309631,42.5284792],[2.7304354,42.528836],[2.7295196,42.5291506],[2.7290559,42.5295599],[2.7289393,42.529812],[2.7293494,42.5306275],[2.7293838,42.5308882],[2.7291724,42.5312053],[2.7286765,42.5316085],[2.7276771,42.5320874],[2.7276637,42.5322625],[2.7278919,42.5325044],[2.7263254,42.5326621],[2.7258155,42.5332341],[2.7250481,42.5337599],[2.7247313,42.5343784],[2.7249272,42.5348525],[2.7255707,42.535088],[2.7264048,42.5348953],[2.7268523,42.5345132],[2.727879,42.534414],[2.728396,42.5347926],[2.7294851,42.534361],[2.7296095,42.5337904],[2.729478,42.5333161],[2.7298191,42.5329197],[2.7313293,42.5318355],[2.7318904,42.5316674],[2.7333895,42.5317448],[2.7344226,42.5315738],[2.7354477,42.5325812],[2.7351951,42.5332466],[2.7347501,42.5338667],[2.734246,42.5353883],[2.7339928,42.5358651],[2.7332856,42.5358677],[2.7329613,42.5353931],[2.7325104,42.5352522],[2.7319325,42.5353026],[2.7316154,42.5358739],[2.7320696,42.5364896],[2.7321407,42.5375825],[2.7327228,42.5381505],[2.7330494,42.538862],[2.7336299,42.5391921],[2.7346571,42.5391411],[2.7353663,42.5394236],[2.735812,42.5388989],[2.7357359,42.5370932],[2.7363102,42.5365209],[2.7370166,42.5365183],[2.7375965,42.536754],[2.7377935,42.5373706],[2.7377342,42.5381318],[2.7381875,42.5386049],[2.7383841,42.5391743],[2.7381947,42.5396498],[2.7385818,42.5398863],[2.7391594,42.5397887],[2.7401801,42.5386928],[2.7404329,42.5381688],[2.7396501,42.5364612],[2.73971,42.5357954],[2.7399643,42.5353668],[2.7403491,42.5352711],[2.7408642,42.5354588],[2.7408684,42.5360761],[2.741128,42.5364085],[2.7417055,42.5363109],[2.7421531,42.5360712],[2.7426041,42.5361099],[2.743517,42.5357809],[2.7444913,42.5356672]]]}},{"type":"Feature","properties":{"id":"foret-de-vives-2-055785","name":"Forêt de Vivès (2)","type":"park"},"geometry":{"type":"Polygon","coordinates":[[[2.7694854,42.5188215],[2.7697344,42.5195434],[2.7697402,42.5203156],[2.7691802,42.5206142],[2.7686532,42.5199339],[2.7683342,42.520291],[2.7670366,42.5211571],[2.7668414,42.5219604],[2.7662835,42.5225261],[2.7660076,42.5231815],[2.7666205,42.5246045],[2.7673624,42.5254185],[2.7668542,42.5263966],[2.7673718,42.526873],[2.7683023,42.5267358],[2.7694228,42.5263149],[2.7703894,42.5260805],[2.7704787,42.5261991],[2.7711567,42.5260133],[2.7715928,42.5257738],[2.7716776,42.5251197],[2.7720324,42.5250614],[2.7726477,42.5252378],[2.7729802,42.5251749],[2.7735867,42.5247172],[2.7736602,42.5245782],[2.7736026,42.5242737],[2.7736822,42.5241527],[2.7738543,42.5241145],[2.7743328,42.5242531],[2.7745821,42.5242361],[2.7748779,42.5240054],[2.7752131,42.5235485],[2.7756884,42.5232068],[2.7759652,42.5231504],[2.7769435,42.5232099],[2.7775488,42.5225807],[2.7781436,42.5225301],[2.7783743,42.5221762],[2.776317,42.5223561],[2.7735624,42.5229353],[2.7728382,42.5228918],[2.77257,42.5225657],[2.7724358,42.5221308],[2.7720737,42.5216998],[2.7719745,42.5214389],[2.7719825,42.5210119],[2.7722749,42.5204386],[2.7722803,42.5200452],[2.7719101,42.5196953],[2.7716204,42.5195529],[2.7714837,42.5193414],[2.7714998,42.5191734],[2.7709043,42.5191061],[2.7707246,42.5189164],[2.7707112,42.5187404],[2.7708426,42.5184162],[2.7710867,42.5182264],[2.7710545,42.5180841],[2.7706978,42.5178468],[2.7707273,42.51809],[2.7706119,42.5184399],[2.7702498,42.518691],[2.7700299,42.5186001],[2.7697831,42.5183391],[2.7697429,42.5180841],[2.7699387,42.5177104],[2.7699494,42.5174712],[2.7693862,42.5174297],[2.7692011,42.5172933],[2.7690871,42.5173303],[2.7685875,42.5186937],[2.7687108,42.5188513],[2.7689168,42.5185803],[2.7692467,42.5186653],[2.7694854,42.5188215]]]}},{"type":"Feature","properties":{"id":"foret-de-l-albere-055835","name":"Forêt de l'Albère","type":"park"},"geometry":{"type":"Polygon","coordinates":[[[2.9211963,42.4830981],[2.9215247,42.4827349],[2.9228621,42.4816827],[2.9234954,42.4808711],[2.9243286,42.480724],[2.9261303,42.4811416],[2.9265236,42.4819475],[2.927871,42.4818929],[2.9290278,42.482029],[2.9292554,42.4818964],[2.9294018,42.4809337],[2.9292652,42.4801746],[2.9293234,42.4795559],[2.9286769,42.4791319],[2.9286721,42.4786572],[2.9284728,42.4779928],[2.9286625,42.4777066],[2.9296858,42.4773216],[2.9314138,42.476836],[2.9325075,42.477115],[2.9334707,42.4771579],[2.9342458,42.4776283],[2.9337379,42.4781541],[2.9335517,42.4787724],[2.9336856,42.4793418],[2.934214,42.4799337],[2.9352314,42.4798562],[2.9358696,42.4794721],[2.9360151,42.4783669],[2.9360068,42.4775589],[2.936729,42.4770161],[2.9365083,42.4768404],[2.9369633,42.4765412],[2.9367154,42.4761839],[2.9336824,42.4751449],[2.9323472,42.4748762],[2.9314376,42.4754487],[2.930651,42.4757034],[2.9295604,42.4757992],[2.9284761,42.4765236],[2.9253363,42.4778878],[2.9225611,42.4793398],[2.9220742,42.4791629],[2.9206187,42.4791709],[2.9200185,42.4798027],[2.9190545,42.4804365],[2.9199184,42.4826012],[2.9211963,42.4830981]]]}},{"type":"Feature","properties":{"id":"foret-de-maureillas-las-illas-055837","name":"Forêt de Maureillas-las-Illas","type":"park"},"geometry":{"type":"Polygon","coordinates":[[[2.8239213,42.4716712],[2.822557,42.4716775],[2.82136,42.4723956],[2.8204767,42.4722806],[2.8202244,42.4709159],[2.8185412,42.4710425],[2.817181,42.4714651],[2.816709,42.4725951],[2.8157532,42.4734311],[2.8154972,42.4752457],[2.8165524,42.475708],[2.8167227,42.4760786],[2.8189012,42.4766258],[2.8200768,42.4772395],[2.8204985,42.4776708],[2.8215896,42.478161],[2.8225083,42.478033],[2.8227575,42.4777714],[2.8218034,42.4775013],[2.8209167,42.4769711],[2.8198647,42.4759063],[2.821219,42.4747722],[2.8226434,42.4742811],[2.8231478,42.474502],[2.824164,42.4760448],[2.8242528,42.4766633],[2.8256752,42.4767806],[2.8266754,42.4764046],[2.8270893,42.4759075],[2.8275842,42.4751006],[2.8288331,42.4744759],[2.8315123,42.4748967],[2.8319266,42.4744615],[2.8314182,42.4736592],[2.8303302,42.4735405],[2.8271563,42.4739265],[2.8245624,42.4736909],[2.8235736,42.4734866],[2.8240108,42.4728594],[2.8239213,42.4716712]]]}},{"type":"Feature","properties":{"id":"foret-du-perthus-055842","name":"Forêt du Perthus","type":"park"},"geometry":{"type":"Polygon","coordinates":[[[2.8414288,42.464654],[2.8425013,42.4655498],[2.8425222,42.46585],[2.8432237,42.4659286],[2.8439943,42.4680293],[2.8448303,42.4680254],[2.8460865,42.4682669],[2.8475136,42.468941],[2.8487665,42.4688111],[2.8499304,42.4680628],[2.8506751,42.4671926],[2.8511674,42.466138],[2.8502441,42.4657092],[2.8487404,42.4658403],[2.8472357,42.4658475],[2.8462293,42.4654809],[2.8456377,42.464741],[2.8452947,42.4637523],[2.8445397,42.4634465],[2.8438661,42.4628926],[2.8440263,42.4620872],[2.8446044,42.4612798],[2.8459386,42.460902],[2.8473628,42.4612666],[2.8487046,42.4617553],[2.8500453,42.4621202],[2.8514663,42.4621133],[2.8525448,42.4611797],[2.8527846,42.4599406],[2.8532801,42.4592574],[2.8533899,42.4587489],[2.852491,42.4588981],[2.8512062,42.459809],[2.8492705,42.4604041],[2.8482612,42.4599825],[2.8490093,42.4590512],[2.8485119,42.4588471],[2.8477553,42.4583556],[2.8474155,42.4577383],[2.8454128,42.4581193],[2.8449032,42.4571933],[2.8456473,42.4562613],[2.8473125,42.4555106],[2.848736,42.4558132],[2.8501477,42.4547542],[2.8503886,42.4536389],[2.8510523,42.4530786],[2.8514636,42.4523339],[2.8525419,42.4514002],[2.8537901,42.4507752],[2.8549535,42.4500268],[2.8558662,42.4492796],[2.8562741,42.4481635],[2.8564341,42.4473581],[2.8518263,42.4460808],[2.8501692,42.447698],[2.8485873,42.4483865],[2.8463309,42.4483973],[2.8442341,42.4475408],[2.8434755,42.4468017],[2.8429372,42.446719],[2.8404295,42.4511055],[2.8386042,42.4533115],[2.8378974,42.455096],[2.839269,42.4559806],[2.8411129,42.4559124],[2.8422428,42.4567981],[2.8420989,42.4586394],[2.8435456,42.4589894],[2.8433963,42.4602965],[2.8410834,42.4617923],[2.8394059,42.4626319],[2.8391151,42.4635457],[2.8414288,42.464654]]]}},{"type":"Feature","properties":{"id":"foret-de-maureillas-las-illas-2-169460","name":"Forêt de Maureillas-las-Illas (2)","type":"park"},"geometry":{"type":"Polygon","coordinates":[[[2.8311333,42.4946903],[2.8288092,42.4959946],[2.8268377,42.4965206],[2.8265023,42.4973149],[2.8260529,42.4976211],[2.8250247,42.497444],[2.8242034,42.4975387],[2.8232626,42.4980301],[2.8226092,42.498519],[2.8210768,42.4990894],[2.819933,42.5000756],[2.8213575,42.5011948],[2.8230297,42.5021984],[2.8241692,42.5032404],[2.8241754,42.5039856],[2.8240146,42.504442],[2.8236901,42.5049912],[2.8236959,42.5056904],[2.8239912,42.5065409],[2.8235446,42.5071816],[2.823809,42.5076046],[2.8244531,42.5078991],[2.8249789,42.5083715],[2.8261087,42.5091463],[2.826789,42.5088682],[2.8271073,42.5084807],[2.827141,42.5077083],[2.8260942,42.5073271],[2.8255639,42.5063205],[2.8261616,42.5057824],[2.8264443,42.5050392],[2.8256161,42.5043135],[2.8257344,42.5036743],[2.8271723,42.5036677],[2.8274986,42.5033317],[2.82734,42.502778],[2.8270574,42.5025414],[2.8261719,42.5022188],[2.8260059,42.5015967],[2.826605,42.501237],[2.8278887,42.5012019],[2.8286669,42.50059],[2.8296113,42.5005239],[2.8303965,42.5010074],[2.8304846,42.5017365],[2.8303697,42.5026798],[2.8298412,42.5034118],[2.8297238,42.504051],[2.8293818,42.5046513],[2.8301755,42.5046756],[2.8315192,42.5052883],[2.8327766,42.505592],[2.834366,42.5055846],[2.8357892,42.5057017],[2.8362874,42.5052661],[2.835948,42.5047106],[2.8352746,42.5042185],[2.8355991,42.503041],[2.8370163,42.5024772],[2.8400298,42.5027106],[2.8410336,42.5027059],[2.8422009,42.502267],[2.8419441,42.5015874],[2.841424,42.4994853],[2.8401688,42.4994293],[2.8378294,42.4997499],[2.8347293,42.4991454],[2.834714,42.4973505],[2.8350358,42.4958634],[2.8357716,42.4938792],[2.8345548,42.4922814],[2.8344043,42.4923595],[2.834183,42.4927175],[2.8332938,42.4929588],[2.832803,42.4933197],[2.8328057,42.4934077],[2.8326394,42.4935531],[2.8323269,42.4937163],[2.8320171,42.4937261],[2.8317368,42.4942344],[2.8311333,42.4946903]]]}},{"type":"Feature","properties":{"id":"foret-de-maureillas-las-illas-3-289811","name":"Forêt de Maureillas-las-Illas (3)","type":"park"},"geometry":{"type":"Polygon","coordinates":[[[2.7647814,42.4387427],[2.7640593,42.4386266],[2.7626927,42.4382157],[2.7626214,42.439345],[2.7619824,42.4397033],[2.7619129,42.4411884],[2.7620774,42.4417219],[2.7626414,42.4420765],[2.7618447,42.4428519],[2.7618477,42.4432671],[2.7624117,42.4436217],[2.7627348,42.4439762],[2.7623379,42.4445131],[2.7597013,42.4457705],[2.7584986,42.4458347],[2.7572125,42.445364],[2.75653,42.4464351],[2.7546958,42.4479271],[2.7555024,42.4485176],[2.7571099,42.449105],[2.7587225,42.450286],[2.7594571,42.4520058],[2.7623535,42.4533006],[2.7634826,42.4542466],[2.7640484,42.454838],[2.7657356,42.4551881],[2.7677223,42.4528042],[2.7688395,42.4520275],[2.7699611,42.4518445],[2.773169,42.4518909],[2.7739648,42.4511155],[2.7740362,42.4499278],[2.7733051,42.4486245],[2.7732958,42.4473765],[2.7743335,42.4467191],[2.7744054,42.4457099],[2.7730349,42.4447055],[2.7718299,42.4443546],[2.7693451,42.4444837],[2.7685383,42.4437744],[2.7685317,42.4428833],[2.7692476,42.4421677],[2.770369,42.4419847],[2.7720488,42.4415031],[2.7720448,42.4409678],[2.7701153,42.4402631],[2.768831,42.4400315],[2.7674638,42.4394433],[2.7657771,42.4390933],[2.7647814,42.4387427]]]}},{"type":"Feature","properties":{"id":"foret-de-ceret-028473","name":"Forêt de Céret","type":"park"},"geometry":{"type":"Polygon","coordinates":[[[2.726598,42.4944503],[2.7271085,42.4939164],[2.7280295,42.4934192],[2.7311082,42.4929892],[2.732746,42.4921852],[2.734818,42.4909096],[2.7357981,42.4906567],[2.7375435,42.4898478],[2.737753,42.4897001],[2.7378858,42.4890522],[2.7383517,42.4891703],[2.7383,42.4895658],[2.7384053,42.4896944],[2.7386507,42.4896549],[2.7390109,42.4898305],[2.7392838,42.4897536],[2.7403003,42.4890951],[2.7408449,42.4881566],[2.740712,42.4881834],[2.7396752,42.4876621],[2.739913,42.4868165],[2.7407966,42.4866973],[2.7406902,42.4865969],[2.7406165,42.4854688],[2.7410733,42.4852274],[2.7413022,42.4849803],[2.7419772,42.4852899],[2.7421083,42.4852458],[2.7422709,42.4849886],[2.7425443,42.4848888],[2.7430278,42.4844372],[2.7437791,42.4848905],[2.744029,42.4846561],[2.7433025,42.4841873],[2.7440534,42.4834782],[2.7447438,42.4835554],[2.7445346,42.4839451],[2.7445774,42.4841914],[2.7452292,42.484366],[2.7454575,42.4841495],[2.7450469,42.4837912],[2.7450936,42.4836604],[2.7455416,42.4833822],[2.7450759,42.4831835],[2.7441922,42.4830085],[2.7435314,42.4829955],[2.7429314,42.4832416],[2.7420683,42.4831262],[2.7417904,42.4829451],[2.7419523,42.4825537],[2.7419611,42.4821052],[2.7436224,42.4818625],[2.7434844,42.4812098],[2.7440438,42.480871],[2.7436737,42.4802952],[2.7442878,42.4794545],[2.744333,42.4790276],[2.7415015,42.4793505],[2.7325326,42.4789537],[2.7318245,42.4794483],[2.7319801,42.4797509],[2.7316287,42.4803503],[2.731685,42.4812563],[2.7309903,42.4818181],[2.7309608,42.4822829],[2.7308562,42.4825717],[2.7304324,42.4824788],[2.7302393,42.4822572],[2.7298504,42.4822315],[2.7298933,42.4826746],[2.7301052,42.4830267],[2.7311969,42.4835904],[2.730808,42.4836874],[2.7304941,42.4844469],[2.7297968,42.4847733],[2.7296841,42.4849909],[2.7280936,42.4849929],[2.7277556,42.4856792],[2.7276,42.4856792],[2.7273211,42.4853252],[2.726385,42.4860491],[2.7274337,42.4865733],[2.7272192,42.486864],[2.7258512,42.4874376],[2.7255991,42.487042],[2.7252129,42.4874119],[2.7247918,42.487584],[2.7244377,42.4875108],[2.7241668,42.4879301],[2.7243948,42.488031],[2.7239576,42.4885136],[2.7233434,42.4884147],[2.7230859,42.4887787],[2.7224475,42.4885947],[2.7226084,42.4882802],[2.7224717,42.4879934],[2.722536,42.4877897],[2.7237993,42.4870401],[2.724022,42.4868344],[2.7245718,42.4859067],[2.7253845,42.4853964],[2.7256903,42.4852975],[2.7257842,42.4850423],[2.7265111,42.4847219],[2.7271146,42.4848682],[2.7278173,42.484172],[2.7282733,42.4841839],[2.7288365,42.4837784],[2.7281553,42.4832858],[2.7284986,42.4829753],[2.7284288,42.4829179],[2.727828,42.4827557],[2.7276564,42.48291],[2.7264252,42.4826786],[2.7264628,42.4820436],[2.7256662,42.4817034],[2.726444,42.4804373],[2.7255025,42.480473],[2.7252343,42.4805897],[2.7249715,42.4810169],[2.7248561,42.4810842],[2.7237162,42.4813829],[2.723567,42.4823087],[2.7231579,42.4825841],[2.7232012,42.4829487],[2.7230398,42.483406],[2.7227802,42.4836212],[2.7233969,42.4837831],[2.7241033,42.4842063],[2.7237928,42.4846046],[2.7236973,42.4850066],[2.7237286,42.4851849],[2.7236404,42.4852767],[2.7221903,42.4847895],[2.7218577,42.4861461],[2.7202188,42.4878384],[2.7186054,42.4878806],[2.7180679,42.4873366],[2.7172774,42.4879879],[2.7165743,42.4881677],[2.7159641,42.4882047],[2.7150623,42.4885121],[2.7145308,42.4889708],[2.7143705,42.4895179],[2.7143345,42.4904002],[2.7139263,42.4907058],[2.715562,42.4926595],[2.71694,42.4939889],[2.7168448,42.4941106],[2.7170205,42.4943074],[2.7172373,42.4942151],[2.7174452,42.4937509],[2.717674,42.4937711],[2.7178609,42.4944749],[2.7202099,42.4947401],[2.7221106,42.4951257],[2.7222507,42.4949329],[2.721793,42.4945128],[2.7209664,42.4941065],[2.7212513,42.4935797],[2.7221709,42.493378],[2.723079,42.4929708],[2.7257842,42.4935116],[2.7258179,42.4943126],[2.726598,42.4944503]]]}},{"type":"Feature","properties":{"id":"foret-de-maureillas-las-illas-4-401002","name":"Forêt de Maureillas-las-Illas (4)","type":"park"},"geometry":{"type":"Polygon","coordinates":[[[2.8525856,42.472043],[2.8524689,42.471901],[2.8526299,42.4714549],[2.8529672,42.4710404],[2.8534345,42.4709101],[2.8541603,42.471302],[2.8544173,42.4717063],[2.8546187,42.4726414],[2.8549082,42.472748],[2.8557217,42.4727034],[2.8559255,42.4725232],[2.8560854,42.4720959],[2.8566973,42.471607],[2.857023,42.4712406],[2.8571322,42.4697194],[2.8572081,42.4696397],[2.8560446,42.4693329],[2.8551289,42.4697707],[2.8532066,42.4698419],[2.8510423,42.4709046],[2.8498756,42.4713435],[2.8491962,42.4714548],[2.8483402,42.470725],[2.8460939,42.4706774],[2.8446572,42.4715147],[2.8427351,42.4718808],[2.8387249,42.4720188],[2.8374803,42.4718462],[2.8361928,42.471437],[2.8345826,42.4707902],[2.8336225,42.4710921],[2.8336296,42.4719237],[2.8333145,42.4725784],[2.8338848,42.4735858],[2.8339717,42.4743565],[2.8346954,42.474591],[2.8362986,42.4744051],[2.8366248,42.4750567],[2.8353481,42.4758349],[2.8357532,42.4763088],[2.8361607,42.4770791],[2.8352885,42.4782706],[2.8353002,42.4796364],[2.8330596,42.4803001],[2.8320908,42.4795919],[2.8282378,42.4793718],[2.8282572,42.4791],[2.8268645,42.4790034],[2.8257817,42.4795036],[2.8246136,42.4798184],[2.8233578,42.4796385],[2.8204411,42.4808278],[2.818601,42.4807743],[2.8170897,42.4800383],[2.8152471,42.4796753],[2.8140684,42.4786902],[2.8129759,42.4780142],[2.8123006,42.4771822],[2.8120132,42.4772491],[2.8112141,42.4776085],[2.8102538,42.4779102],[2.8098552,42.4782083],[2.8089001,42.4791631],[2.8072775,42.4797809],[2.8070809,42.4802273],[2.8072069,42.4809989],[2.8075332,42.4815912],[2.8089044,42.4825054],[2.8087492,42.4831885],[2.8079575,42.4844692],[2.8078412,42.4850039],[2.8078276,42.4855534],[2.8080261,42.4853588],[2.8078598,42.4857148],[2.8089503,42.4857444],[2.8095135,42.4860987],[2.8092246,42.4863103],[2.8090788,42.4862934],[2.8088335,42.4864369],[2.8087808,42.4866296],[2.8087098,42.4866484],[2.8092813,42.4866089],[2.8096381,42.4867988],[2.8095791,42.4865199],[2.8097923,42.4861648],[2.8101611,42.4860659],[2.8106587,42.4861005],[2.8113507,42.4862341],[2.8117517,42.4865189],[2.8116122,42.4870302],[2.8118026,42.4869431],[2.8118375,42.4867829],[2.8120145,42.4867691],[2.812272,42.486864],[2.8122157,42.4871469],[2.8126314,42.4872398],[2.8127253,42.4873644],[2.8125634,42.4881706],[2.8113754,42.4882018],[2.8116368,42.4887786],[2.8127763,42.4886442],[2.812964,42.4891861],[2.8136855,42.4890753],[2.8138304,42.4892435],[2.8135407,42.4893226],[2.8135863,42.4895085],[2.8133827,42.4898278],[2.8133872,42.4902089],[2.8138854,42.4903383],[2.8141938,42.4911201],[2.8132436,42.4919159],[2.813267,42.4919797],[2.8134602,42.4918799],[2.8136587,42.4920757],[2.8137767,42.4924015],[2.8141516,42.4929172],[2.8143487,42.4928994],[2.8145673,42.4926057],[2.8141361,42.4923961],[2.8140396,42.4922221],[2.8149515,42.4917474],[2.8152949,42.4918166],[2.8154062,42.4922043],[2.8163718,42.4920638],[2.8157401,42.4927402],[2.8160807,42.4933652],[2.8155416,42.4937133],[2.8155711,42.493917],[2.8158903,42.4941227],[2.8157347,42.4943857],[2.8157133,42.4945795],[2.8154048,42.4946804],[2.8156489,42.494977],[2.8152841,42.4951353],[2.8156435,42.4953676],[2.8158233,42.4957464],[2.8160754,42.4959975],[2.8167003,42.4963456],[2.8176002,42.4966551],[2.8179865,42.4966066],[2.8190942,42.4961775],[2.8192511,42.4957375],[2.8208484,42.4946092],[2.8218877,42.4941879],[2.822231,42.4937133],[2.8227648,42.4934661],[2.8236043,42.4933237],[2.8239048,42.4931833],[2.8238565,42.4921489],[2.8240067,42.4910967],[2.824122,42.490893],[2.8244117,42.4910097],[2.8250849,42.4908356],[2.824991,42.4906082],[2.8245914,42.4905805],[2.8244063,42.490353],[2.8253317,42.4901612],[2.8280058,42.490355],[2.8285208,42.489639],[2.8282231,42.4893958],[2.8284591,42.4891327],[2.8285879,42.48884],[2.8284243,42.4884385],[2.8281561,42.4883198],[2.828545,42.4879262],[2.8288186,42.4877937],[2.8292155,42.4877937],[2.8298217,42.4882624],[2.8300631,42.4883297],[2.830224,42.4882466],[2.8299102,42.4879301],[2.8300229,42.4877343],[2.8303716,42.4875425],[2.8306022,42.4875266],[2.8311145,42.4878075],[2.831077,42.4873269],[2.8312352,42.4870302],[2.831203,42.4862588],[2.8313747,42.4859561],[2.8314042,42.4856199],[2.8311789,42.4856753],[2.831254,42.4858058],[2.8311521,42.4858691],[2.8305593,42.4859245],[2.8304306,42.485883],[2.8303045,42.4855882],[2.8307229,42.4853885],[2.8313747,42.4852421],[2.8316402,42.4854379],[2.8316215,42.4855724],[2.8317878,42.4855902],[2.8325254,42.4859977],[2.8327373,42.4863181],[2.8329599,42.4862746],[2.833043,42.4862034],[2.8330323,42.4858691],[2.8332496,42.4856911],[2.8335875,42.4855249],[2.8346872,42.4853351],[2.834993,42.4849553],[2.8349125,42.4844331],[2.8351968,42.4841126],[2.8357762,42.4839702],[2.8368437,42.484077],[2.8387588,42.483808],[2.8395474,42.4836142],[2.8398371,42.4832898],[2.8399873,42.4828823],[2.8410172,42.4820199],[2.8415269,42.4818616],[2.8419077,42.4813156],[2.8426679,42.4806663],[2.8425406,42.4800507],[2.8427012,42.4796355],[2.8441249,42.4788506],[2.8459153,42.4786493],[2.846282,42.4784318],[2.846413,42.4780956],[2.8463725,42.4778985],[2.8461159,42.4775905],[2.845941,42.477221],[2.8460698,42.4767748],[2.8466696,42.4761451],[2.8467277,42.4756481],[2.8468972,42.4752945],[2.846772,42.4748907],[2.8466823,42.4738216],[2.8472297,42.4736759],[2.8483105,42.4740126],[2.8502335,42.4740034],[2.8514838,42.473564],[2.8525324,42.4736623],[2.8527193,42.4733585],[2.8527443,42.4731602],[2.8524535,42.4725128],[2.8524553,42.4723077],[2.8525856,42.472043]]]}},{"type":"Feature","properties":{"id":"foret-du-boulou-737449","name":"Forêt du Boulou","type":"park"},"geometry":{"type":"Polygon","coordinates":[[[2.8622044,42.5131692],[2.8618211,42.5135684],[2.8607679,42.5136833],[2.8603908,42.5136496],[2.8600892,42.5133653],[2.8593465,42.513656],[2.8592978,42.5138405],[2.8583001,42.5138603],[2.8583363,42.5133293],[2.8580788,42.5131771],[2.8578097,42.5132622],[2.8576766,42.513842],[2.8570595,42.5139639],[2.8570446,42.5142103],[2.8566567,42.514379],[2.8564399,42.5143159],[2.8558747,42.5144671],[2.8556675,42.5143137],[2.8549917,42.5141821],[2.8549013,42.5147376],[2.8546914,42.5150762],[2.8541225,42.5152806],[2.8537551,42.5152095],[2.8531999,42.5154076],[2.8522432,42.5161146],[2.8524489,42.5162811],[2.8523225,42.5165338],[2.8518614,42.5165895],[2.8516978,42.5168999],[2.8525863,42.5168678],[2.8527015,42.5174481],[2.8550251,42.517581],[2.8571021,42.5165596],[2.8597636,42.5166005],[2.8631329,42.5153066],[2.8647123,42.5149789],[2.8671549,42.514648],[2.8685266,42.5151732],[2.870543,42.5154291],[2.8717,42.5161147],[2.8702716,42.517187],[2.8704215,42.5178249],[2.8716185,42.5191922],[2.8718095,42.5188835],[2.8722318,42.5191238],[2.872543,42.5186945],[2.8725564,42.5184206],[2.8730758,42.517929],[2.8729005,42.5176327],[2.8737269,42.5172746],[2.8742976,42.5168394],[2.8744849,42.5174109],[2.8743751,42.5176781],[2.8754756,42.5178655],[2.876014,42.5178537],[2.8761297,42.5170777],[2.8765171,42.5168119],[2.8766257,42.5163151],[2.8761622,42.5154804],[2.876665,42.5149165],[2.8766403,42.5142309],[2.8768707,42.5138883],[2.8767546,42.5136765],[2.8754582,42.5135973],[2.8753225,42.5136685],[2.8751068,42.5140297],[2.8748562,42.5141055],[2.8742323,42.5137925],[2.873936,42.5138291],[2.873603,42.5140151],[2.8731869,42.5139731],[2.8716583,42.5133599],[2.8709963,42.5134641],[2.869747,42.5132824],[2.8680754,42.5131909],[2.8676677,42.5130841],[2.8659993,42.5133451],[2.8659886,42.5132581],[2.8662783,42.5130565],[2.8674316,42.5126116],[2.8675094,42.5120857],[2.8676784,42.5118939],[2.867913,42.5119591],[2.8688775,42.5116287],[2.8688395,42.511522],[2.8683844,42.5112835],[2.8681214,42.5108629],[2.8677209,42.5111907],[2.8673893,42.511174],[2.8672624,42.5113825],[2.8663216,42.5118328],[2.8660201,42.5117826],[2.8652657,42.5119645],[2.865022,42.5118165],[2.865144,42.5113831],[2.8649834,42.511118],[2.8647531,42.5114653],[2.8641576,42.5119237],[2.8640727,42.5121725],[2.8640898,42.5122589],[2.8643188,42.5123201],[2.8643934,42.5124451],[2.8643869,42.5125391],[2.8641022,42.512657],[2.8649506,42.5128825],[2.8649345,42.5130565],[2.8641245,42.5129714],[2.8635612,42.5132779],[2.8630596,42.5133926],[2.8629845,42.5133253],[2.8630167,42.5130881],[2.8633654,42.5125839],[2.8633654,42.5124277],[2.8628772,42.5128587],[2.8622044,42.5131692]]]}},{"type":"Feature","properties":{"id":"foret-de-l-albere-2-737454","name":"Forêt de l'Albère (2)","type":"park"},"geometry":{"type":"Polygon","coordinates":[[[2.8801522,42.5084867],[2.8804424,42.5082427],[2.8806621,42.5081898],[2.8815489,42.5083386],[2.8820807,42.50823],[2.8821525,42.508126],[2.8820406,42.507853],[2.8820784,42.5077308],[2.8827175,42.5074465],[2.8832253,42.5066408],[2.8841144,42.5062948],[2.88441,42.5062706],[2.8846031,42.5061045],[2.8847212,42.505456],[2.8846353,42.5049062],[2.8845817,42.5045899],[2.8843135,42.50423],[2.8842437,42.5039571],[2.8844315,42.5036565],[2.8855634,42.5028577],[2.8860676,42.5026283],[2.8862178,42.5023752],[2.8861427,42.5020429],[2.8862607,42.5018136],[2.8875482,42.5014022],[2.8883529,42.5009909],[2.8886962,42.5005954],[2.8892004,42.4996146],[2.8897583,42.4978901],[2.8905845,42.4963792],[2.8925586,42.4957701],[2.8929019,42.4959758],[2.8926015,42.4970595],[2.8926337,42.4976845],[2.8928161,42.4981749],[2.8932881,42.4986732],[2.8937387,42.4987998],[2.8947982,42.4986752],[2.8949189,42.4984597],[2.8951576,42.4982955],[2.8953266,42.4984399],[2.8953668,42.498695],[2.8949511,42.4991815],[2.8948331,42.4994425],[2.8948814,42.5004609],[2.8947231,42.5007062],[2.8944623,42.5008532],[2.8937318,42.5004258],[2.893321,42.5004771],[2.892851,42.5002799],[2.8923316,42.5005003],[2.8917782,42.500622],[2.8912824,42.500513],[2.8907382,42.5005639],[2.8902609,42.5007041],[2.8908107,42.5006421],[2.8910852,42.5006632],[2.8916366,42.500876],[2.8927116,42.5008671],[2.8928232,42.5010579],[2.8932351,42.5010854],[2.8933349,42.5011592],[2.893387,42.5017503],[2.8935955,42.5020803],[2.8950774,42.5019565],[2.8954232,42.5020452],[2.8963798,42.503041],[2.8965409,42.5030343],[2.8969317,42.502658],[2.8975881,42.502595],[2.8973095,42.502437],[2.8972808,42.4993192],[2.8975157,42.4985099],[2.8969012,42.497705],[2.8968961,42.4971663],[2.8965287,42.4968091],[2.8965243,42.4963602],[2.8956656,42.495377],[2.8954092,42.4939417],[2.8958884,42.4933107],[2.8952928,42.4929502],[2.8945549,42.4928631],[2.8938797,42.4929127],[2.8930826,42.4930527],[2.8929667,42.4937806],[2.892112,42.4942396],[2.8915553,42.4938328],[2.8907551,42.4936552],[2.889775,42.493933],[2.8884874,42.4941675],[2.8876871,42.4938989],[2.8869467,42.4935391],[2.8860877,42.4936345],[2.8853498,42.4935474],[2.8840546,42.4932196],[2.8829241,42.4924554],[2.8822374,42.4921706],[2.8810143,42.4918384],[2.8803813,42.4919254],[2.8799522,42.4921232],[2.8786325,42.4929934],[2.8784931,42.4939585],[2.8785145,42.4949553],[2.8789222,42.4961221],[2.8788418,42.4968637],[2.8788713,42.4974155],[2.8788123,42.4975836],[2.8785065,42.4978723],[2.8783938,42.4983647],[2.8785896,42.4996185],[2.8785353,42.5000201],[2.878748,42.5003793],[2.8791679,42.5006005],[2.8794273,42.5010975],[2.8794545,42.5014925],[2.8792711,42.5017504],[2.8794387,42.5023164],[2.8793025,42.502592],[2.8793057,42.5029355],[2.8790294,42.5031602],[2.8783633,42.5039538],[2.8769782,42.5043379],[2.8757338,42.5045193],[2.8735266,42.5061478],[2.8724424,42.5070971],[2.8725217,42.5077971],[2.8732174,42.5082257],[2.8745878,42.5080423],[2.8761649,42.5075242],[2.8764868,42.5071406],[2.8775221,42.5067649],[2.8773612,42.5064446],[2.8770179,42.5063734],[2.8767765,42.5058356],[2.8768033,42.5051356],[2.8769535,42.5048786],[2.8771627,42.5047322],[2.8779083,42.5046057],[2.8782141,42.5044712],[2.87911,42.5038503],[2.8792655,42.5035221],[2.8797564,42.5031286],[2.8801024,42.5033006],[2.880156,42.5035537],[2.8801453,42.5038859],[2.8799736,42.5043526],[2.8800166,42.505191],[2.8796947,42.5058237],[2.8799844,42.5065119],[2.8799844,42.5069943],[2.8798127,42.5077457],[2.8801319,42.5081649],[2.8801522,42.5084867]]]}},{"type":"Feature","properties":{"id":"foret-du-perthus-2-847033","name":"Forêt du Perthus (2)","type":"park"},"geometry":{"type":"Polygon","coordinates":[[[2.8562741,42.4481635],[2.8564341,42.4473581],[2.8597162,42.450473],[2.8648856,42.4563279],[2.8645581,42.4566684],[2.8641873,42.4577889],[2.8640966,42.458371],[2.8634587,42.4586009],[2.8632401,42.4593202],[2.863451,42.4599275],[2.8635009,42.4609306],[2.8630997,42.4619056],[2.8620576,42.4633996],[2.8613051,42.4636901],[2.8609138,42.4634371],[2.8605959,42.4635433],[2.8604241,42.4637257],[2.859249,42.4641067],[2.8588892,42.463992],[2.8581111,42.4643331],[2.8582412,42.4651528],[2.8582063,42.4658219],[2.8577581,42.4662191],[2.8570205,42.4663754],[2.8565707,42.4665908],[2.8564938,42.4672298],[2.8569926,42.4678345],[2.8578143,42.4679225],[2.8584296,42.4678275],[2.8590434,42.4675518],[2.8596181,42.4674872],[2.8607272,42.4675121],[2.8614645,42.4673266],[2.8618725,42.4670204],[2.8623674,42.4672615],[2.86241,42.4674432],[2.8622937,42.4681744],[2.8617245,42.4688461],[2.8607839,42.4692761],[2.8597973,42.4692203],[2.8590567,42.469041],[2.858318,42.4690749],[2.8575392,42.469292],[2.8572081,42.4696397],[2.8560446,42.4693329],[2.8551289,42.4697707],[2.8532066,42.4698419],[2.8510423,42.4709046],[2.8498756,42.4713435],[2.8491962,42.4714548],[2.8483402,42.470725],[2.8460939,42.4706774],[2.8446572,42.4715147],[2.8427351,42.4718808],[2.8387249,42.4720188],[2.8374803,42.4718462],[2.8361928,42.471437],[2.8345826,42.4707902],[2.8336225,42.4710921],[2.8336296,42.4719237],[2.8333145,42.4725784],[2.8338848,42.4735858],[2.8339717,42.4743565],[2.8346954,42.474591],[2.8362986,42.474405],[2.8366248,42.4750567],[2.8353481,42.4758349],[2.8357532,42.4763088],[2.8361607,42.4770791],[2.8352885,42.4782706],[2.8353002,42.4796364],[2.8330596,42.4803001],[2.8320908,42.4795919],[2.8282378,42.4793718],[2.8282572,42.4791],[2.8268645,42.4790034],[2.8257817,42.4795036],[2.8246136,42.4798184],[2.8233578,42.4796385],[2.8204411,42.4808278],[2.818601,42.4807743],[2.8170897,42.4800383],[2.8152471,42.4796753],[2.8140684,42.4786902],[2.8129759,42.4780142],[2.8123006,42.4771822],[2.8140954,42.476764],[2.8153739,42.4761645],[2.8154972,42.4752457],[2.8165524,42.475708],[2.8167227,42.4760786],[2.8189012,42.4766258],[2.8200768,42.4772395],[2.8204985,42.4776708],[2.8215896,42.478161],[2.8225083,42.478033],[2.8227575,42.4777714],[2.8218034,42.4775013],[2.8209167,42.4769711],[2.8198647,42.4759063],[2.821219,42.4747722],[2.8226434,42.4742811],[2.8231478,42.474502],[2.824164,42.4760448],[2.8242528,42.4766633],[2.8256752,42.4767806],[2.8266754,42.4764046],[2.8270893,42.4759075],[2.8275842,42.4751006],[2.8288331,42.4744759],[2.8315123,42.4748967],[2.8319266,42.4744615],[2.8314182,42.4736592],[2.8303302,42.4735405],[2.8271563,42.4739265],[2.8245624,42.4736909],[2.8235736,42.4734866],[2.8240108,42.4728594],[2.8239213,42.4716712],[2.8260197,42.4706156],[2.8254476,42.4693702],[2.8247151,42.4680672],[2.8266343,42.4673457],[2.8283922,42.4665654],[2.8300062,42.467687],[2.8331392,42.4682661],[2.8337114,42.4684412],[2.834626,42.4674547],[2.836126,42.4668906],[2.8380466,42.4666339],[2.8391291,42.4661337],[2.8402893,42.4649522],[2.8414288,42.464654],[2.8425013,42.4655498],[2.8425222,42.46585],[2.8432237,42.4659286],[2.8439943,42.4680293],[2.8448303,42.4680254],[2.8460865,42.4682669],[2.8475136,42.468941],[2.8487665,42.4688111],[2.8499304,42.4680628],[2.8506751,42.4671926],[2.8511674,42.466138],[2.8502441,42.4657092],[2.8487404,42.4658403],[2.8472357,42.4658475],[2.8462293,42.4654809],[2.8456377,42.464741],[2.8452947,42.4637523],[2.8445397,42.4634465],[2.8438661,42.4628926],[2.8440263,42.4620872],[2.8446044,42.4612798],[2.8459386,42.460902],[2.8473628,42.4612666],[2.8487046,42.4617553],[2.8500453,42.4621202],[2.8514663,42.4621133],[2.8525448,42.4611797],[2.8527846,42.4599406],[2.8532801,42.4592574],[2.8533899,42.4587489],[2.852491,42.4588981],[2.8512062,42.459809],[2.8492705,42.4604041],[2.8482612,42.4599825],[2.8490093,42.4590512],[2.8485119,42.4588471],[2.8477553,42.4583556],[2.8474155,42.4577383],[2.8454128,42.4581193],[2.8449032,42.4571933],[2.8456473,42.4562613],[2.8473125,42.4555106],[2.848736,42.4558132],[2.8494009,42.4553767],[2.8501477,42.4547542],[2.8503886,42.4536389],[2.8510523,42.4530786],[2.8514636,42.4523339],[2.8525419,42.4514002],[2.8537901,42.4507752],[2.8549535,42.4500268],[2.8558662,42.4492796],[2.8562741,42.4481635]],[[2.8598463,42.4593348],[2.8605008,42.4593388],[2.860989,42.4595208],[2.8611767,42.4595011],[2.8611928,42.4593823],[2.8610533,42.4592201],[2.8605545,42.4591211],[2.8605115,42.4589905],[2.8610265,42.4587412],[2.8611606,42.4584562],[2.8620887,42.4583573],[2.8625822,42.458195],[2.8627807,42.4580367],[2.8627968,42.4577874],[2.8625017,42.4575935],[2.8619009,42.4577399],[2.8618205,42.4576132],[2.8619438,42.457447],[2.8610319,42.4571185],[2.8601521,42.4573105],[2.8601092,42.4571858],[2.8601736,42.4570532],[2.8604257,42.4570671],[2.8609997,42.4568454],[2.8611875,42.4565724],[2.8614691,42.4553118],[2.8614047,42.4550664],[2.8609943,42.4547438],[2.8602326,42.4547122],[2.8601092,42.4550248],[2.8598303,42.4552781],[2.8596854,42.4560301],[2.859267,42.4561528],[2.8585267,42.4561924],[2.8583121,42.4565209],[2.8577918,42.4566871],[2.8575826,42.4569286],[2.8577167,42.4571146],[2.858119,42.4573085],[2.8581458,42.4576568],[2.8577878,42.4578329],[2.8578816,42.458104],[2.8577784,42.4581802],[2.8576577,42.4581475],[2.8575182,42.4577854],[2.8570998,42.4576429],[2.8569737,42.4575143],[2.8567618,42.4574985],[2.8562549,42.4578289],[2.8561476,42.4580783],[2.8561878,42.4583217],[2.8565258,42.4588322],[2.8567699,42.4588105],[2.8567752,42.4585809],[2.857022,42.4583415],[2.85725,42.4583969],[2.8572553,42.4585512],[2.8576416,42.4585057],[2.8579017,42.4586818],[2.8579903,42.4589747],[2.8579339,42.4591924],[2.8580171,42.4592923],[2.8578052,42.4591508],[2.8574485,42.4592399],[2.8569925,42.4591884],[2.8567296,42.4592636],[2.8567189,42.4595248],[2.8568155,42.4597583],[2.8574967,42.4598612],[2.8576201,42.4598216],[2.8578132,42.45941],[2.8581566,42.4593744],[2.8583658,42.45941],[2.8585374,42.4595486],[2.858516,42.4597148],[2.8586286,42.4599601],[2.8587627,42.4600037],[2.8589612,42.4596712],[2.8593153,42.459509],[2.8596103,42.4594852],[2.8598463,42.4593348]]]}},{"type":"Feature","properties":{"id":"foret-de-reynes-230791","name":"Forêt de Reynès","type":"park"},"geometry":{"type":"Polygon","coordinates":[[[2.7197894,42.4791654],[2.7194589,42.4791301],[2.7194837,42.4796817],[2.718958,42.4798103],[2.7187514,42.4799527],[2.7187112,42.4800892],[2.7188158,42.4804097],[2.7196634,42.4806965],[2.7197304,42.4808369],[2.7196875,42.4815708],[2.7196097,42.4818102],[2.7194434,42.4819605],[2.7196151,42.483003],[2.719709,42.4832087],[2.7202696,42.4838041],[2.7202266,42.4842313],[2.7199852,42.4847713],[2.7194568,42.4849929],[2.7185342,42.4851679],[2.718038,42.4851412],[2.7176879,42.4854409],[2.7180701,42.4856248],[2.7172346,42.4858938],[2.7169208,42.4862232],[2.7165064,42.4860728],[2.7162288,42.4861678],[2.7160947,42.4861173],[2.7153745,42.4865021],[2.7141809,42.4869748],[2.7138913,42.4875682],[2.7137679,42.4875682],[2.712528,42.4870267],[2.7126112,42.4869797],[2.7126025,42.4868373],[2.7123683,42.4868392],[2.7120853,42.4864542],[2.712042,42.4859796],[2.7122004,42.4856221],[2.7127205,42.4853823],[2.7134828,42.4854391],[2.7139652,42.4855867],[2.7144444,42.4852281],[2.7150433,42.4847512],[2.7151996,42.4841862],[2.7150761,42.4836221],[2.7130316,42.4838964],[2.7123907,42.4840771],[2.7114187,42.4845971],[2.7110456,42.4841494],[2.710023,42.4837714],[2.7103537,42.4836086],[2.7106563,42.4831664],[2.7105737,42.4826179],[2.7106608,42.4820817],[2.7102582,42.4817073],[2.7115041,42.480919],[2.7114692,42.4807113],[2.7107692,42.4807548],[2.710513,42.4804126],[2.7098586,42.4799626],[2.7097405,42.4797302],[2.7095702,42.4798488],[2.7093758,42.4797737],[2.7092738,42.479928],[2.7090794,42.479837],[2.7093087,42.47965],[2.7091487,42.4791475],[2.7092096,42.4790409],[2.7088652,42.4778781],[2.7086552,42.4766803],[2.7094476,42.4767363],[2.710128,42.4765554],[2.710811,42.476672],[2.7111741,42.4770265],[2.711498,42.4775304],[2.7115004,42.4779165],[2.7118247,42.4783609],[2.7119876,42.4788059],[2.7124314,42.4791006],[2.7125133,42.4794572],[2.7121172,42.4802308],[2.7121597,42.4805864],[2.7126432,42.4809113],[2.7138488,42.4811741],[2.7143327,42.4815585],[2.7146968,42.4820622],[2.7151405,42.4824467],[2.7155825,42.4825641],[2.7163798,42.4818183],[2.7169792,42.4814301],[2.7171799,42.4814002],[2.7171364,42.4808953],[2.7167746,42.4807485],[2.7161661,42.4797405],[2.7159202,42.4789996],[2.7154771,42.4787037],[2.7147143,42.4785583],[2.7139494,42.4782041],[2.7124196,42.47726],[2.711973,42.4765489],[2.7118081,42.4757774],[2.7126488,42.4755365],[2.7129281,42.475357],[2.7129654,42.4749125],[2.7143675,42.4746393],[2.7144718,42.4744157],[2.7156562,42.4742257],[2.716493,42.4744116],[2.7169061,42.4746569],[2.7176678,42.4749299],[2.7180541,42.4751871],[2.7182579,42.4755432],[2.7187147,42.4756908],[2.7185821,42.4758538],[2.7172926,42.4760177],[2.7172843,42.4761071],[2.7176033,42.4762],[2.7180145,42.4764858],[2.7182891,42.4763669],[2.7186977,42.4764163],[2.7191967,42.4761327],[2.719316,42.4766629],[2.7196178,42.4766738],[2.7196473,42.4768954],[2.7193938,42.4770952],[2.7196996,42.4772683],[2.7200496,42.4773177],[2.7203077,42.4769752],[2.7206763,42.4771684],[2.7204439,42.4778162],[2.7200925,42.4778479],[2.7198216,42.4784038],[2.7197224,42.478835],[2.7197894,42.4791654]],[[2.7129615,42.4770089],[2.713906,42.4768431],[2.714033,42.4762018],[2.7131406,42.4763531],[2.7131243,42.47643],[2.7127628,42.4765693],[2.7129615,42.4770089]],[[2.7129317,42.4771128],[2.7133263,42.4773091],[2.7137496,42.4777415],[2.7141502,42.4776526],[2.7141209,42.4775109],[2.7139157,42.4775061],[2.7140948,42.477434],[2.7140167,42.477117],[2.713792,42.4771482],[2.7139613,42.4770737],[2.7139353,42.4768912],[2.7129317,42.4771128]],[[2.7161435,42.4778247],[2.7157132,42.477187],[2.7154004,42.4773525],[2.7148793,42.4778233],[2.7155795,42.4781019],[2.7157847,42.4781115],[2.716222,42.4780781],[2.7161435,42.4778247]]]}},{"type":"Feature","properties":{"id":"foret-de-maureillas-las-illas-5-289160","name":"Forêt de Maureillas-las-Illas (5)","type":"park"},"geometry":{"type":"Polygon","coordinates":[[[2.7381486,42.4235422],[2.738009,42.4213267],[2.7403761,42.4208541],[2.7423749,42.4211048],[2.7428213,42.4217478],[2.7441611,42.4221702],[2.744653,42.4221897],[2.7451055,42.4220819],[2.7489466,42.4205266],[2.7497606,42.4198539],[2.7501247,42.4191918],[2.7505265,42.4187476],[2.7509833,42.4186287],[2.7519469,42.4185576],[2.7528241,42.4179415],[2.7530099,42.4179234],[2.7537417,42.4183991],[2.7545379,42.4176458],[2.7547549,42.4167626],[2.7550992,42.4160878],[2.7558544,42.4156214],[2.7563132,42.4155366],[2.7573197,42.4155387],[2.7584277,42.4153375],[2.7590401,42.4153385],[2.760192,42.4150477],[2.7612339,42.4140036],[2.7614497,42.4132989],[2.76244,42.4129053],[2.7639511,42.4133773],[2.7649598,42.4137997],[2.7656088,42.4142224],[2.7668963,42.4135259],[2.7679758,42.413893],[2.7688446,42.4148479],[2.7690679,42.4160657],[2.7701117,42.4162994],[2.7705982,42.4170695],[2.7698045,42.4180817],[2.7683655,42.4185622],[2.7676468,42.4189815],[2.767972,42.4196333],[2.7679781,42.4204649],[2.7688657,42.4211739],[2.769831,42.4216447],[2.7707994,42.4225318],[2.7723539,42.4220833],[2.7741236,42.4229671],[2.7733273,42.4236235],[2.7721254,42.4236285],[2.7712461,42.4240473],[2.7701267,42.4243493],[2.7688424,42.4241761],[2.7675559,42.4235876],[2.7672341,42.4227842],[2.7667497,42.4223104],[2.765869,42.4224329],[2.7649941,42.4233275],[2.764514,42.4234484],[2.76331,42.4232748],[2.7621837,42.4226261],[2.7608982,42.4222744],[2.7595422,42.4231709],[2.759309,42.4241223],[2.7513814,42.4259087],[2.7491867,42.4251968],[2.7485815,42.4252889],[2.7468244,42.4252957],[2.7456585,42.4249411],[2.7437065,42.4249082],[2.7430397,42.4247446],[2.7416547,42.4242382],[2.7413036,42.4236247],[2.7381486,42.4235422]],[[2.7488071,42.4212618],[2.7497422,42.4213817],[2.7497747,42.4212831],[2.7494534,42.4207661],[2.7499335,42.4206142],[2.7499299,42.4205476],[2.7496952,42.4205236],[2.7492151,42.4206862],[2.7487386,42.4206835],[2.7486194,42.4208487],[2.7488071,42.4212618]]]}},{"type":"Feature","properties":{"id":"foret-de-maureillas-las-illas-6-289162","name":"Forêt de Maureillas-las-Illas (6)","type":"park"},"geometry":{"type":"Polygon","coordinates":[[[2.7513814,42.4259087],[2.759309,42.4241223],[2.7597148,42.4248334],[2.7601979,42.4251277],[2.7614002,42.4251824],[2.7618842,42.4255968],[2.7616484,42.4261914],[2.7613303,42.4266079],[2.7605312,42.4269085],[2.7585305,42.4273912],[2.7580539,42.4279868],[2.7582999,42.4286984],[2.7592576,42.4288461],[2.7575007,42.4297442],[2.7571876,42.4307555],[2.7577536,42.4314064],[2.7585571,42.4316995],[2.7594388,42.431696],[2.7620025,42.4314489],[2.7620915,42.4320097],[2.7624965,42.4326018],[2.7632201,42.4328368],[2.7641821,42.4328329],[2.7648242,42.4330077],[2.7642673,42.4336036],[2.7633881,42.433964],[2.7616247,42.4339711],[2.7601804,42.4337984],[2.7594594,42.4339202],[2.7587366,42.4336852],[2.75801,42.4330349],[2.7571245,42.4325042],[2.7559963,42.4323639],[2.7557485,42.4312953],[2.7551775,42.4299318],[2.7537244,42.4285122],[2.7537979,42.4275614],[2.7530715,42.4269111],[2.7523517,42.4270923],[2.7515462,42.4266208],[2.7513814,42.4259087]]]}},{"type":"Feature","properties":{"id":"foret-de-maureillas-las-illas-7-289656","name":"Forêt de Maureillas-las-Illas (7)","type":"park"},"geometry":{"type":"Polygon","coordinates":[[[2.7818883,42.4155794],[2.7806474,42.4144124],[2.7806247,42.413732],[2.7807691,42.4133639],[2.7810227,42.4131519],[2.7811662,42.4125389],[2.7810704,42.4121731],[2.7806193,42.4117449],[2.7806333,42.4116146],[2.7807542,42.4114911],[2.7816617,42.4111809],[2.781749,42.4109906],[2.7816387,42.4108438],[2.7804674,42.4103674],[2.7804342,42.4102337],[2.7805263,42.4099862],[2.7807727,42.4097489],[2.7810697,42.4096136],[2.7819762,42.409402],[2.7835027,42.4094191],[2.7839922,42.4093357],[2.7845861,42.4090843],[2.7847167,42.4088369],[2.7864576,42.4089854],[2.786316,42.4094022],[2.7864228,42.4100724],[2.7857779,42.4107639],[2.7875523,42.4117525],[2.7930297,42.4177555],[2.7932544,42.4188301],[2.7923305,42.4186093],[2.7908498,42.4178953],[2.7888602,42.4176525],[2.787274,42.4175588],[2.786695,42.4174449],[2.784611,42.4173293],[2.7837826,42.4174207],[2.7834439,42.4172933],[2.7828134,42.4172608],[2.7817972,42.4166904],[2.7812655,42.4159127],[2.7813242,42.4156217],[2.7817651,42.4159463],[2.7820772,42.4159402],[2.7818883,42.4155794]],[[2.7833382,42.4138782],[2.7836052,42.4133566],[2.783638,42.4129533],[2.7835723,42.412826],[2.7832026,42.412835],[2.7830466,42.4131807],[2.7830835,42.4136568],[2.7831985,42.4138418],[2.7833382,42.4138782]],[[2.7809272,42.4142906],[2.7816008,42.4149062],[2.7821224,42.4150517],[2.7822456,42.4150275],[2.7822785,42.4148577],[2.7825126,42.4147455],[2.782221,42.4141784],[2.7821101,42.4142239],[2.7820731,42.4145302],[2.7817979,42.4141511],[2.7817404,42.4135841],[2.7819951,42.4129291],[2.7818924,42.4127471],[2.7814817,42.4125894],[2.7813913,42.4126046],[2.7813995,42.4127107],[2.7809888,42.4132505],[2.7808902,42.4135052],[2.7809272,42.4142906]],[[2.7859545,42.414327],[2.7856301,42.4133718],[2.7855274,42.4133688],[2.7852234,42.4136781],[2.7852275,42.4138448],[2.785856,42.4144453],[2.7859545,42.414327]]]}},{"type":"Feature","properties":{"id":"foret-de-ceret-2-289759","name":"Forêt de Céret (2)","type":"park"},"geometry":{"type":"Polygon","coordinates":[[[2.7240584,42.4131895],[2.7248029,42.4115755],[2.725749,42.4102393],[2.7277869,42.4120997],[2.7309126,42.4152411],[2.73352,42.4153434],[2.733945,42.4170154],[2.735648,42.4209212],[2.738009,42.4213267],[2.7381486,42.4235422],[2.7372756,42.4235814],[2.7353274,42.4239927],[2.7339369,42.4244468],[2.7336264,42.424448],[2.7320149,42.4238042],[2.7315575,42.4234726],[2.7309679,42.423195],[2.7309649,42.4226046],[2.7312322,42.4222417],[2.7315329,42.4221219],[2.7317858,42.4222171],[2.7322488,42.4220127],[2.7324827,42.4219916],[2.7328216,42.4218295],[2.7328979,42.4215758],[2.7324684,42.4214595],[2.7317285,42.4217907],[2.7310269,42.4218506],[2.730984,42.421611],[2.7312035,42.4211776],[2.7317429,42.4209698],[2.7318192,42.4207231],[2.7317285,42.420628],[2.7311701,42.4207055],[2.7308933,42.4205469],[2.7307214,42.4201594],[2.7306976,42.4198458],[2.7306164,42.4198211],[2.7301391,42.4187711],[2.7284686,42.4178761],[2.7274854,42.4168895],[2.7270176,42.4160156],[2.7269126,42.4152756],[2.7266835,42.4146977],[2.7261203,42.4142044],[2.7256143,42.4140634],[2.7251657,42.4137815],[2.7243447,42.4137533],[2.7240488,42.4135207],[2.7240584,42.4131895]]]}},{"type":"Feature","properties":{"id":"foret-de-l-albere-3-290854","name":"Forêt de l'Albère (3)","type":"park"},"geometry":{"type":"Polygon","coordinates":[[[2.9247675,42.4625162],[2.924533,42.4613413],[2.928378,42.4589958],[2.9343849,42.4575653],[2.9380733,42.4577674],[2.9404866,42.4586226],[2.9501291,42.4588015],[2.9539842,42.45852],[2.9556183,42.4587518],[2.956965,42.4596138],[2.9599799,42.4607566],[2.9616862,42.4615681],[2.9622203,42.4626761],[2.9641308,42.4643562],[2.9643995,42.4650313],[2.9649942,42.4657046],[2.9653949,42.4665238],[2.9651422,42.4673468],[2.9661092,42.4683164],[2.964971,42.4688655],[2.961228,42.4717256],[2.9569135,42.4752753],[2.9565375,42.4755097],[2.9548581,42.4759831],[2.9540411,42.476074],[2.9538142,42.4760501],[2.9537947,42.4759496],[2.953905,42.475811],[2.9538272,42.4757583],[2.9533863,42.4756531],[2.9528675,42.4756436],[2.9528675,42.4757488],[2.9531853,42.4760692],[2.9531917,42.4761888],[2.9522191,42.4762079],[2.9520895,42.4762748],[2.9520635,42.47649],[2.9526211,42.4766239],[2.9525822,42.4767148],[2.9523877,42.4767961],[2.9517004,42.47693],[2.9510196,42.4769491],[2.9506306,42.4770878],[2.9504036,42.4773843],[2.9500989,42.4774991],[2.9502739,42.4780156],[2.9500535,42.4779677],[2.9499044,42.4777239],[2.9497098,42.4776186],[2.9490614,42.4783168],[2.9488669,42.4783886],[2.9472524,42.4783264],[2.9469282,42.4780777],[2.94639,42.4780443],[2.9462604,42.4781734],[2.9462279,42.4783408],[2.9456249,42.4786899],[2.945586,42.4789194],[2.945787,42.4792207],[2.9457027,42.4793307],[2.9454693,42.4793641],[2.9453267,42.4792159],[2.9452554,42.478862],[2.9447561,42.4785512],[2.9445421,42.4784938],[2.9440428,42.4786038],[2.9429795,42.4785703],[2.9421819,42.4784173],[2.940963,42.4777717],[2.9397634,42.4774847],[2.9387649,42.4769922],[2.9382527,42.4768583],[2.93811,42.4766048],[2.9380776,42.4757631],[2.9376496,42.4752897],[2.9358601,42.4744623],[2.9356396,42.4745914],[2.9353543,42.4744384],[2.9351857,42.4740989],[2.934894,42.4739554],[2.9348762,42.4736101],[2.9341888,42.4731089],[2.9338249,42.4726169],[2.9331308,42.4720116],[2.9324714,42.4718021],[2.9323401,42.471043],[2.9306755,42.4708121],[2.9301824,42.4696577],[2.9293763,42.4692458],[2.9288095,42.468744],[2.9289228,42.4680306],[2.9289132,42.4670812],[2.9282214,42.4661344],[2.9266126,42.4656384],[2.9258457,42.4651971],[2.9258382,42.4644552],[2.9255128,42.4639823],[2.9247826,42.4638752],[2.9247675,42.4625162]],[[2.9396354,42.4609465],[2.9347594,42.4621898],[2.9348132,42.4624968],[2.9344527,42.4638908],[2.9343027,42.4654398],[2.9343572,42.4659846],[2.9346757,42.4669032],[2.935094,42.4676749],[2.935411,42.4687609],[2.9351547,42.4696098],[2.9339582,42.4714115],[2.9341018,42.4720282],[2.9347957,42.4724842],[2.9354212,42.4726683],[2.9358411,42.4727045],[2.9366233,42.4724672],[2.9370902,42.4718503],[2.9372992,42.4710659],[2.9372959,42.47014],[2.9373974,42.4696695],[2.9379185,42.4692397],[2.9383359,42.4690403],[2.9387528,42.4689993],[2.9397967,42.46864],[2.940213,42.4682436],[2.9402618,42.4675476],[2.9402091,42.4672451],[2.9395779,42.4663114],[2.9391584,42.4653948],[2.9391006,42.464465],[2.9392043,42.4640015],[2.9398743,42.4627514],[2.9400791,42.4619758],[2.939972,42.4614364],[2.9396354,42.4609465]]]}}]}
