{"type":"FeatureCollection","features":[{"type":"Feature","properties":{"id":"parc-lucie-f-roussel-797842","name":"Parc Lucie-F.-Roussel","type":"park"},"geometry":{"type":"Polygon","coordinates":[[[-73.4759932,45.4103828],[-73.4745905,45.4097216],[-73.4746886,45.4097114],[-73.4750597,45.4093145],[-73.475376,45.4091605],[-73.4772518,45.4071443],[-73.4777382,45.4073522],[-73.4778612,45.4072248],[-73.4826366,45.409329],[-73.4825735,45.4093844],[-73.4822256,45.4092418],[-73.4813103,45.4101397],[-73.478445,45.4088907],[-73.4771811,45.4102454],[-73.4764309,45.4099005],[-73.4759932,45.4103828]]]}},{"type":"Feature","properties":{"id":"centre-ecologique-fernand-seguin-308613","name":"Centre ecologique Fernand-Seguin","type":"park"},"geometry":{"type":"Polygon","coordinates":[[[-73.7715731,45.3466148],[-73.769376,45.3423358],[-73.7692033,45.3423698],[-73.7691365,45.3419153],[-73.7688442,45.3418142],[-73.7683656,45.3420365],[-73.7680693,45.341475],[-73.7748329,45.337882],[-73.7773489,45.3375332],[-73.7798909,45.3373611],[-73.7877137,45.3372976],[-73.790246,45.3386238],[-73.7888661,45.339343],[-73.7878408,45.3405014],[-73.7856592,45.3396528],[-73.784606,45.3405327],[-73.7824991,45.3420667],[-73.7813604,45.3423932],[-73.7801783,45.3432227],[-73.7759956,45.3454581],[-73.7715731,45.3466148]],[[-73.7805633,45.3396706],[-73.7805851,45.3395745],[-73.7803208,45.3395788],[-73.7801125,45.339793],[-73.7802524,45.339828],[-73.7803643,45.3396969],[-73.7805633,45.3396706]]]}},{"type":"Feature","properties":{"id":"parc-emilie-gamelin-806139","name":"Parc Émilie-Gamelin","type":"park"},"geometry":{"type":"Polygon","coordinates":[[[-73.4606957,45.4165297],[-73.4616995,45.4155751],[-73.4621183,45.4153539],[-73.4622655,45.4149019],[-73.4617774,45.4144635],[-73.4623207,45.4144224],[-73.4634112,45.4141646],[-73.4637977,45.4147387],[-73.4637587,45.4148308],[-73.4634661,45.4149283],[-73.4631839,45.4145125],[-73.462606,45.4147051],[-73.4628246,45.4150576],[-73.4630716,45.4151295],[-73.463075,45.4152458],[-73.4642266,45.4169074],[-73.4628145,45.4190112],[-73.4613728,45.4185338],[-73.4608075,45.4185905],[-73.4605672,45.41847],[-73.4602754,45.4185303],[-73.4600179,45.41847],[-73.4594171,45.4177471],[-73.4596488,45.4168012],[-73.4602496,45.4167831],[-73.4606957,45.4165297]]]}},{"type":"Feature","properties":{"id":"recre-o-parc-de-sainte-catherine-460592","name":"Récré-O-Parc de Sainte-Catherine","type":"park"},"geometry":{"type":"Polygon","coordinates":[[[-73.6004073,45.4082787],[-73.6001228,45.408414],[-73.59999981459684,45.409385366080436],[-73.5996315,45.4093658],[-73.5987222,45.409667],[-73.5976875,45.410276],[-73.597031,45.410542],[-73.5965282,45.4106152],[-73.5958858,45.4105133],[-73.5943206,45.4100501],[-73.5938436,45.4100247],[-73.5935966,45.4100398],[-73.5934854,45.4101925],[-73.5927892,45.4102254],[-73.5911566,45.4102606],[-73.5910737,45.4102046],[-73.5899572,45.4101848],[-73.5895033,45.4102961],[-73.5894073,45.4104234],[-73.588892,45.4105763],[-73.5870634,45.4107421],[-73.5852963,45.410737],[-73.5802856,45.4100625],[-73.5786817,45.410187],[-73.5776327,45.410133],[-73.5764055,45.4111885],[-73.5763138,45.4114016],[-73.574366,45.4117271],[-73.5741271,45.4116461],[-73.5740157,45.4114521],[-73.5736855,45.4112135],[-73.5726314,45.4106567],[-73.5721899,45.4100447],[-73.5723174,45.4099478],[-73.5726263,45.4100222],[-73.5734059,45.4098459],[-73.5734559,45.4095802],[-73.5735365,45.4095679],[-73.5734055,45.4090246],[-73.5734302,45.4088162],[-73.5754592,45.408883],[-73.5848681,45.4085992],[-73.5891242,45.4085875],[-73.5921495,45.4084567],[-73.5958306,45.4080215],[-73.6005709,45.4071881],[-73.6004073,45.4082787]],[[-73.5767331,45.4100935],[-73.5756809,45.4097958],[-73.574726,45.4097715],[-73.5746278,45.4100375],[-73.5752691,45.4104806],[-73.5758548,45.4110277],[-73.5762351,45.4108981],[-73.5767656,45.4102294],[-73.5767331,45.4100935]]]}},{"type":"Feature","properties":{"id":"parc-robert-lebel-260673","name":"Parc Robert-Lebel","type":"park"},"geometry":{"type":"Polygon","coordinates":[[[-73.2620804,45.4377458],[-73.2641644,45.4374052],[-73.264255,45.4376256],[-73.2681174,45.4368803],[-73.2713082,45.4381618],[-73.2708104,45.4389581],[-73.2684275,45.4393136],[-73.2675327,45.4397711],[-73.2617156,45.4384625],[-73.2620804,45.4377458]]]}},{"type":"Feature","properties":{"id":"refuge-faunique-marguerite-d-youville-636324","name":"Refuge faunique Marguerite d'Youville","type":"park"},"geometry":{"type":"Polygon","coordinates":[[[-73.7676776,45.3864104],[-73.7700326,45.386817],[-73.7709728,45.387178],[-73.7708392,45.3873142],[-73.7702706,45.3875503],[-73.7688327,45.3883899],[-73.7681966,45.388844],[-73.7672879,45.3896629],[-73.7666226,45.3906498],[-73.7663241,45.3918374],[-73.7660423,45.392536],[-73.7654391,45.3926659],[-73.7651513,45.3929762],[-73.7649593,45.3935858],[-73.7648566,45.3936934],[-73.7648034,45.3945068],[-73.7649479,45.3958467],[-73.7649092,45.3960681],[-73.7643608,45.3969903],[-73.7641691,45.3971344],[-73.7639474,45.3971749],[-73.7636299,45.3970547],[-73.7630595,45.3974651],[-73.7619272,45.39941],[-73.7609276,45.3994463],[-73.7602663,45.3992753],[-73.7592964,45.3992446],[-73.7581666,45.3994843],[-73.7573741,45.4002284],[-73.7563592,45.4016403],[-73.7555303,45.402188],[-73.7549548,45.4021129],[-73.7543598,45.4015642],[-73.7536256,45.401244],[-73.7533829,45.4007908],[-73.7533744,45.4005918],[-73.753583,45.4004927],[-73.7538443,45.4010161],[-73.7540432,45.4010179],[-73.754436,45.4008419],[-73.7552041,45.3999043],[-73.7554272,45.3994242],[-73.7554893,45.3990549],[-73.7560743,45.3978943],[-73.7559072,45.3976799],[-73.7555895,45.3979635],[-73.7552565,45.3985842],[-73.7548204,45.3991373],[-73.7547926,45.3995505],[-73.7541691,45.4004109],[-73.7540658,45.4004044],[-73.7540304,45.4001519],[-73.7539363,45.4000726],[-73.7535345,45.4000776],[-73.7533149,45.3994424],[-73.753345,45.399084],[-73.7529623,45.3959424],[-73.7523864,45.3947606],[-73.7520509,45.3943878],[-73.7517183,45.393847],[-73.7518644,45.3932262],[-73.7517652,45.391617],[-73.7513404,45.3906691],[-73.7508914,45.390137],[-73.7503975,45.3897984],[-73.749978,45.3897247],[-73.74893,45.3888885],[-73.7486486,45.3883789],[-73.7485872,45.3878012],[-73.7486521,45.387048],[-73.7489296,45.3861875],[-73.7502963,45.3839803],[-73.7503691,45.3834542],[-73.7506267,45.3828232],[-73.7516569,45.3811095],[-73.7517325,45.3808392],[-73.7520951,45.3805521],[-73.7525698,45.380607],[-73.7552609,45.3815465],[-73.7566772,45.3823029],[-73.7573449,45.383079],[-73.7578737,45.3839343],[-73.7586963,45.3858937],[-73.7593964,45.3863368],[-73.7613227,45.3866952],[-73.7625149,45.3867334],[-73.7629852,45.3866702],[-73.7635436,45.3865353],[-73.764362,45.386144],[-73.7656884,45.3853147],[-73.7665931,45.3850951],[-73.766759,45.3849558],[-73.7668281,45.385103],[-73.7671021,45.3852987],[-73.7675096,45.3859685],[-73.7676111,45.3859721],[-73.7676062,45.3863213],[-73.7676776,45.3864104]],[[-73.7533541,45.3846325],[-73.7527554,45.3855244],[-73.7524174,45.3857923],[-73.751302,45.3861653],[-73.7504232,45.3863145],[-73.7503074,45.3864908],[-73.7503653,45.3869181],[-73.7506695,45.3870233],[-73.754851,45.3852598],[-73.7551165,45.3850564],[-73.7551503,45.3848868],[-73.7550055,45.3847071],[-73.7543729,45.3843747],[-73.7536293,45.3844731],[-73.7533541,45.3846325]],[[-73.7543826,45.3860737],[-73.7549862,45.3856091],[-73.7550393,45.3854837],[-73.7547978,45.3854192],[-73.7504908,45.3872471],[-73.7505102,45.3873047],[-73.7510027,45.3872878],[-73.7538466,45.3861246],[-73.7543826,45.3860737]],[[-73.754754,45.390408],[-73.7544909,45.3901555],[-73.7542541,45.3900772],[-73.7536521,45.3902858],[-73.7527595,45.3903848],[-73.7526713,45.3904504],[-73.7527543,45.3908404],[-73.7532784,45.3911902],[-73.7534185,45.3914672],[-73.7531746,45.3918462],[-73.7532162,45.3921888],[-73.7535016,45.3923054],[-73.757705,45.3923637],[-73.7581253,45.3922689],[-73.7580112,45.3921414],[-73.7553698,45.3921232],[-73.754773,45.3919847],[-73.754581,45.3914927],[-73.754603,45.3911877],[-73.7547737,45.3907285],[-73.754754,45.390408]],[[-73.7620698,45.3904848],[-73.7613591,45.3906421],[-73.7607488,45.3908754],[-73.7587171,45.3920961],[-73.7588175,45.3922154],[-73.7592038,45.3923131],[-73.762796,45.3924433],[-73.7633985,45.3922859],[-73.7641093,45.3919008],[-73.7640861,45.3912823],[-73.7641788,45.391011],[-73.7640706,45.3907886],[-73.7638157,45.3906259],[-73.7628655,45.390474],[-73.7620698,45.3904848]],[[-73.7533473,45.3925261],[-73.7536502,45.3928438],[-73.7566863,45.392749],[-73.7584635,45.3928105],[-73.7633643,45.3927798],[-73.7634446,45.3927106],[-73.7632512,45.3926235],[-73.7533473,45.3925261]]]}},{"type":"Feature","properties":{"id":"parc-saint-charles-408821","name":"Parc Saint-Charles","type":"park"},"geometry":{"type":"Polygon","coordinates":[[[-73.435219,45.672103],[-73.4347038,45.6724474],[-73.4349611,45.6726721],[-73.4348067,45.6728135],[-73.4340887,45.6730677],[-73.4311554,45.6731357],[-73.4313219,45.6734773],[-73.431082,45.6735168],[-73.4308744,45.6731327],[-73.423589,45.6732505],[-73.4231945,45.673267],[-73.4223671,45.6735153],[-73.4220335,45.6737604],[-73.4215588,45.6733972],[-73.4213183,45.6733096],[-73.4199541,45.6733373],[-73.4191762,45.6736458],[-73.4184458,45.6741608],[-73.4185478,45.6742173],[-73.41745,45.674996],[-73.4131296,45.6779044],[-73.4129304,45.6777498],[-73.4080895,45.6809771],[-73.406874,45.6818711],[-73.4048329,45.6839781],[-73.4046251,45.6838549],[-73.4070436,45.6813588],[-73.4062179,45.6808217],[-73.4063466,45.6804769],[-73.406529,45.680372],[-73.4069904,45.6803195],[-73.4073444,45.6800871],[-73.4075053,45.6801321],[-73.4074946,45.6802595],[-73.4076663,45.680342],[-73.4080096,45.6799747],[-73.4080096,45.6798847],[-73.4077521,45.6796599],[-73.4079345,45.67948],[-73.4082671,45.6795924],[-73.4087606,45.6795849],[-73.4092434,45.67936],[-73.4092112,45.6792251],[-73.4087392,45.6786479],[-73.4091254,45.6783856],[-73.4093507,45.6782881],[-73.409576,45.6783181],[-73.4101232,45.678543],[-73.4103699,45.6783781],[-73.4105416,45.6780557],[-73.4106704,45.6780332],[-73.4108742,45.6780857],[-73.4108527,45.6783031],[-73.4110029,45.6783181],[-73.4112497,45.6780557],[-73.4112283,45.6778533],[-73.4113892,45.677501],[-73.4116252,45.6774335],[-73.4117218,45.6770212],[-73.4123762,45.6767739],[-73.4122797,45.6766239],[-73.4122475,45.6763316],[-73.4120115,45.6760242],[-73.4120866,45.6756719],[-73.4123548,45.675477],[-73.4123762,45.6753645],[-73.4120544,45.6751172],[-73.4121831,45.6750047],[-73.4133204,45.6746149],[-73.4138461,45.6742701],[-73.4143933,45.6740452],[-73.4145971,45.6740377],[-73.4151657,45.6742176],[-73.4155734,45.6745024],[-73.4157666,45.674465],[-73.4160991,45.6741951],[-73.4168716,45.6739402],[-73.416936,45.6738502],[-73.4168394,45.6736103],[-73.4166463,45.6735054],[-73.416185,45.6734379],[-73.4162279,45.6732505],[-73.4168823,45.6732655],[-73.4173437,45.6736778],[-73.4175797,45.6737153],[-73.4177192,45.6734979],[-73.4176977,45.673303],[-73.4172364,45.6728457],[-73.41729,45.6727257],[-73.4176656,45.6725533],[-73.4180625,45.6725458],[-73.4185239,45.6727332],[-73.4186633,45.6728907],[-73.4186955,45.6731455],[-73.4188672,45.6732055],[-73.419189,45.673138],[-73.4192856,45.6729581],[-73.4189316,45.6724333],[-73.4190539,45.672319],[-73.4195173,45.672521],[-73.4204413,45.6725716],[-73.4207605,45.6725313],[-73.4213197,45.6722586],[-73.4216617,45.6722192],[-73.4220721,45.6723411],[-73.4224959,45.6726213],[-73.4227292,45.6726447],[-73.4231302,45.6724516],[-73.4234132,45.6720918],[-73.4239027,45.6717141],[-73.4242232,45.6712952],[-73.4245209,45.6712531],[-73.4252948,45.6714236],[-73.426424,45.6709972],[-73.4269805,45.6708876],[-73.427124,45.670911],[-73.427291,45.6710741],[-73.427415,45.6719372],[-73.4276363,45.6721105],[-73.4280051,45.6721752],[-73.4285845,45.6720796],[-73.4288004,45.6721133],[-73.429475,45.6724395],[-73.4302086,45.6726531],[-73.4305687,45.6726344],[-73.4308134,45.6724732],[-73.4308986,45.6722445],[-73.4307557,45.6714283],[-73.4308536,45.6712643],[-73.4311286,45.6711341],[-73.4314813,45.6711359],[-73.4323262,45.6715117],[-73.432667,45.6715824],[-73.4334353,45.6712999],[-73.4337272,45.6712852],[-73.4345525,45.6721884],[-73.4347709,45.6722234],[-73.43508567087555,45.67198437947461],[-73.435219,45.672103]]]}},{"type":"Feature","properties":{"id":"parc-saint-charles-2-667507","name":"Parc Saint-Charles (2)","type":"park"},"geometry":{"type":"Polygon","coordinates":[[[-73.4423586,45.666441],[-73.4422155,45.6706474],[-73.4419661,45.672574],[-73.4418843,45.6740389],[-73.4419742,45.6747965],[-73.4418196,45.6749723],[-73.4416878,45.674955],[-73.4416582,45.6745135],[-73.4409961,45.672954],[-73.4411439,45.6724068],[-73.441091,45.6712769],[-73.4406675,45.6709807],[-73.4395735,45.6707444],[-73.4390757,45.6707024],[-73.4382946,45.6708344],[-73.4377518,45.6705965],[-73.438573,45.6706439],[-73.4393064,45.6704395],[-73.4395603,45.6702013],[-73.4396394,45.6697506],[-73.439617,45.6672019],[-73.4393847,45.6668615],[-73.4390158,45.6668955],[-73.4388587,45.6667493],[-73.4385051,45.6666913],[-73.4385328,45.6666065],[-73.4390612,45.6666761],[-73.4393458,45.6665288],[-73.4386531,45.6635453],[-73.4423586,45.666441]],[[-73.4403604,45.6688537],[-73.4401579,45.6689631],[-73.4400935,45.6694133],[-73.4401211,45.6695355],[-73.4402316,45.6695934],[-73.4405998,45.6692043],[-73.4405814,45.6690467],[-73.4403604,45.6688537]],[[-73.4406642,45.6706161],[-73.4404111,45.6702334],[-73.4400291,45.6702656],[-73.4399646,45.6704393],[-73.4400705,45.6706194],[-73.4404663,45.6706708],[-73.4406642,45.6706161]]]}},{"type":"Feature","properties":{"id":"parc-des-ecluses-456373","name":"Parc des Écluses","type":"park"},"geometry":{"type":"Polygon","coordinates":[[[-73.9136086,45.3168412],[-73.9154026,45.316438],[-73.9181963,45.315218],[-73.9190374,45.3150833],[-73.9185225,45.3158378],[-73.917986,45.3163206],[-73.9170464,45.3178003],[-73.9167888,45.3177619],[-73.9162331,45.3185942],[-73.916848,45.3188073],[-73.9131678,45.3235461],[-73.9128138,45.3233267],[-73.9127075,45.3218002],[-73.9118327,45.3192888],[-73.9119135,45.3181614],[-73.9123105,45.3168638],[-73.9136086,45.3168412]]]}},{"type":"Feature","properties":{"id":"parc-de-la-commune-479801","name":"Parc de la Commune","type":"park"},"geometry":{"type":"Polygon","coordinates":[[[-73.4390641,45.6780176],[-73.4381902,45.676607],[-73.438028,45.6752385],[-73.4377948,45.6744414],[-73.4394067,45.6743655],[-73.4394722,45.6743029],[-73.4394481,45.674056],[-73.4396187,45.6739849],[-73.4395209,45.673156],[-73.4403649,45.6731019],[-73.43975882233256,45.671037608039896],[-73.4407427,45.671282],[-73.4408686,45.6716376],[-73.4408686,45.6723654],[-73.4406661,45.6730275],[-73.4411436,45.6740611],[-73.441235,45.6744632],[-73.4412036,45.6751503],[-73.441648,45.6760931],[-73.4418266,45.6762275],[-73.4422397,45.6768665],[-73.4423334,45.6771726],[-73.4421482,45.6776283],[-73.4390641,45.6780176]]]}},{"type":"Feature","properties":{"id":"parc-regional-des-greves-569812","name":"Parc régional des Grèves","type":"park"},"geometry":{"type":"Polygon","coordinates":[[[-73.1845812,45.9747157],[-73.18420059525872,45.975440056744596],[-73.1840837,45.9754092],[-73.1837246,45.9758762],[-73.182627,45.9776956],[-73.1824242,45.9782298],[-73.1819564,45.9789977],[-73.18115466073994,45.98091507074652],[-73.1646622,45.9686262],[-73.1662895951678,45.96532283006758],[-73.1845812,45.9747157]]]}},{"type":"Feature","properties":{"id":"parc-du-ruisseau-237744","name":"Parc du Ruisseau","type":"park"},"geometry":{"type":"Polygon","coordinates":[[[-73.293413,45.5122624],[-73.2951217,45.5134885],[-73.2952487,45.5145242],[-73.2961115,45.5150413],[-73.2947435,45.516694],[-73.2945784,45.5166916],[-73.294227,45.5164803],[-73.2908726,45.5140639],[-73.293413,45.5122624]]]}},{"type":"Feature","properties":{"id":"parc-des-etangs-antoine-charlebois-532505","name":"Parc des Étangs Antoine-Charlebois","type":"park"},"geometry":{"type":"MultiPolygon","coordinates":[[[[-73.3284703,45.6383585],[-73.3366718,45.6353944],[-73.3429895,45.6403922],[-73.3407986,45.6437195],[-73.3407751,45.6445121],[-73.3389031,45.6458263],[-73.3387794,45.6459869],[-73.3388042,45.6461129],[-73.3409279,45.6475037],[-73.3405569,45.6477458],[-73.3389147,45.6465368],[-73.3372822,45.6456119],[-73.333717,45.6430042],[-73.3301968,45.6405544],[-73.3300997,45.6404377],[-73.3305449,45.640039],[-73.3296912,45.6393491],[-73.32970773715108,45.63917625461376],[-73.3309742,45.640152],[-73.3312237,45.6402359],[-73.3314603,45.6400636],[-73.3311881,45.6397668],[-73.3308089,45.6395198],[-73.3307473,45.6393815],[-73.3303357,45.6391572],[-73.3300894,45.6388558],[-73.32977668301803,45.63875627309248],[-73.3295449,45.6385725],[-73.3291624,45.6387561],[-73.32928796236286,45.63885283943168],[-73.3284703,45.6383585]],[[-73.3330418,45.6367217],[-73.3331282,45.6367704],[-73.3337453,45.6365575],[-73.3332257,45.6369492],[-73.3331039,45.6368357],[-73.3329699,45.6369237],[-73.3329658,45.637006],[-73.3331079,45.6369549],[-73.3329902,45.6372558],[-73.3327669,45.6374602],[-73.3326533,45.6378519],[-73.3325599,45.6378377],[-73.3324259,45.6380335],[-73.3325112,45.6380846],[-73.3324219,45.6381698],[-73.332503,45.6382805],[-73.3324421,45.6383202],[-73.3326167,45.638536],[-73.3327182,45.6385189],[-73.3326938,45.6385814],[-73.3328319,45.6387403],[-73.3331518,45.6387461],[-73.3329171,45.6389106],[-73.3330917,45.6391207],[-73.333518,45.6388993],[-73.333587,45.6389333],[-73.3335992,45.639115],[-73.3337494,45.6390866],[-73.3344801,45.6384366],[-73.3346912,45.6380676],[-73.3345004,45.6380648],[-73.3344598,45.6379825],[-73.3346709,45.6376844],[-73.3351175,45.6374148],[-73.3354463,45.6373438],[-73.3358726,45.6367789],[-73.3367495,45.6362595],[-73.3368266,45.6360153],[-73.3366805,45.6358479],[-73.3364409,45.635899],[-73.3357427,45.6363162],[-73.3351215,45.636532],[-73.3349673,45.6367931],[-73.3345816,45.6369521],[-73.3339605,45.6377242],[-73.333794,45.6377298],[-73.3336032,45.6379569],[-73.333453,45.6379484],[-73.3329496,45.638218],[-73.332978,45.638394],[-73.3331719,45.6386722],[-73.3328603,45.6385161],[-73.3327304,45.6382209],[-73.3338143,45.6375482],[-73.3342609,45.6370117],[-73.3350485,45.6364269],[-73.3361649,45.6359586],[-73.3363638,45.6357769],[-73.3362826,45.6357258],[-73.3351307,45.6361891],[-73.3347,45.6362813],[-73.3345062,45.6364582],[-73.3342666,45.6364187],[-73.3344631,45.6363359],[-73.3343941,45.6363179],[-73.334062,45.636509],[-73.3338036,45.6364488],[-73.3330418,45.6367217]],[[-73.3384224,45.6451568],[-73.3389287,45.6450242],[-73.3393399,45.6447181],[-73.3395823,45.6446497],[-73.3392819,45.6444057],[-73.3397936,45.6440433],[-73.3396026,45.6439884],[-73.3395071,45.6442126],[-73.3392888,45.6441959],[-73.3392854,45.6440194],[-73.3391762,45.643967],[-73.3395684,45.6439074],[-73.3396401,45.6437857],[-73.3395173,45.6437071],[-73.3393399,45.6437404],[-73.3390739,45.6439407],[-73.3388249,45.6439861],[-73.3387089,45.6438931],[-73.3390125,45.643781],[-73.3390466,45.6436784],[-73.338743,45.6433875],[-73.3385111,45.6435258],[-73.3384258,45.6437404],[-73.3381564,45.6438597],[-73.338139,45.6434755],[-73.3380711,45.6434376],[-73.3372287,45.6434805],[-73.3374862,45.643344],[-73.3375272,45.6431357],[-73.3374048,45.6430664],[-73.3373821,45.6433136],[-73.3372662,45.6433351],[-73.3361679,45.6445655],[-73.336335,45.6445941],[-73.3364612,45.644451],[-73.3363862,45.6446108],[-73.336451,45.6446537],[-73.3364237,45.6447467],[-73.3366488,45.6448016],[-73.3368091,45.6450543],[-73.3370206,45.6450948],[-73.3371604,45.6452856],[-73.3376721,45.6448683],[-73.33758689761123,45.64513361776684],[-73.3373787,45.6453953],[-73.3375834,45.6454334],[-73.337713,45.6456409],[-73.3378426,45.6455765],[-73.3380677,45.645815],[-73.3383099,45.6457911],[-73.3383849,45.6454024],[-73.3379517,45.645586],[-73.3378596,45.6455193],[-73.3384224,45.6451568]],[[-73.3371995,45.6429005],[-73.3367256,45.6426997],[-73.3366596,45.6425311],[-73.3370789,45.6426516],[-73.3371047,45.6427439],[-73.3374264,45.6427078],[-73.3375872,45.6427821],[-73.3376533,45.6429186],[-73.3375757,45.6432198],[-73.3377366,45.6432961],[-73.3379089,45.6430571],[-73.3380209,45.6431354],[-73.3381013,45.643027],[-73.3382104,45.643021],[-73.3381616,45.6429326],[-73.3379433,45.6429266],[-73.3378859,45.6428523],[-73.3381444,45.6426696],[-73.3383081,45.6426897],[-73.3384,45.6421576],[-73.3382736,45.642244],[-73.3381501,45.6426114],[-73.3380812,45.6425512],[-73.3381558,45.6424046],[-73.338084,45.6423423],[-73.3381817,45.6423263],[-73.3383167,45.6420833],[-73.3385091,45.6420733],[-73.3385608,45.641993],[-73.3383856,45.6418585],[-73.3385148,45.6416296],[-73.3382276,45.64175],[-73.3379175,45.6423664],[-73.3377136,45.6423925],[-73.3376073,45.6422821],[-73.3377538,45.6420693],[-73.3377222,45.6419267],[-73.3379204,45.6416838],[-73.3383167,45.6414067],[-73.3380869,45.641491],[-73.3381214,45.6414107],[-73.337906,45.6413986],[-73.3379146,45.6412902],[-73.3376992,45.6411698],[-73.3376332,45.6413364],[-73.3377624,45.6413003],[-73.337817,45.6413625],[-73.3375815,45.6414147],[-73.3373948,45.6413565],[-73.33757,45.6410272],[-73.3379634,45.6410312],[-73.3378141,45.6409168],[-73.3378342,45.6408043],[-73.3376217,45.6407079],[-73.3380295,45.6400273],[-73.3382334,45.6400052],[-73.3381357,45.6399168],[-73.338219,45.6398526],[-73.3380094,45.6398666],[-73.3379204,45.6400393],[-73.3377136,45.6401096],[-73.3376418,45.6404329],[-73.3375039,45.6405292],[-73.3374465,45.6408384],[-73.3371162,45.6413143],[-73.3364442,45.642011],[-73.3364672,45.6421195],[-73.3361455,45.6428784],[-73.3361426,45.6433081],[-73.3359129,45.6437016],[-73.3357607,45.6436755],[-73.3359072,45.6427038],[-73.3363092,45.6418986],[-73.3361915,45.6419066],[-73.3360594,45.6421556],[-73.3358957,45.6422319],[-73.3356975,45.642513],[-73.3355769,45.6432539],[-73.3354419,45.6433744],[-73.335238,45.643284],[-73.3353328,45.6431575],[-73.3353385,45.6426817],[-73.3354563,45.6424046],[-73.336134,45.6416818],[-73.3362834,45.6413625],[-73.3368721,45.6408023],[-73.3370645,45.6405011],[-73.3370042,45.6402903],[-73.3359675,45.6400192],[-73.3360306,45.6403064],[-73.3359244,45.6405754],[-73.3354936,45.6411537],[-73.3354735,45.6413645],[-73.3352495,45.6417761],[-73.3353356,45.6418725],[-73.3352524,45.6421777],[-73.3349652,45.6423002],[-73.3348359,45.6426335],[-73.3347584,45.6426094],[-73.334767,45.6427038],[-73.3347067,45.6426897],[-73.3347383,45.6428041],[-73.33456346458581,45.6428670734626],[-73.3343535,45.6429427],[-73.3343247,45.643031],[-73.3345085,45.6431234],[-73.3347412,45.6434045],[-73.33511879109876,45.64328337907755],[-73.335439,45.6434386],[-73.3354132,45.6436856],[-73.33563544796219,45.64367069563499],[-73.3358985,45.6438281],[-73.3357865,45.6441172],[-73.3359129,45.6442217],[-73.33619134248436,45.64408742706326],[-73.3369382,45.6434205],[-73.3370013,45.6432579],[-73.3371421,45.6432137],[-73.3373259,45.64328],[-73.3371564,45.6431676],[-73.3371995,45.6429005]],[[-73.33420086222198,45.64259524527406],[-73.3344766,45.6426068],[-73.3348346,45.6422022],[-73.3345896,45.6421495],[-73.3345196,45.6420573],[-73.3347915,45.6417599],[-73.3348669,45.6417355],[-73.3350338,45.6419086],[-73.3350742,45.6418672],[-73.3353433,45.6410749],[-73.3352141,45.6409225],[-73.3353756,45.6409319],[-73.3353729,45.6406929],[-73.335591,45.6405272],[-73.3355668,45.6403127],[-73.3353326,45.6403033],[-73.3354806,45.6400567],[-73.3357498,45.6399721],[-73.3355829,45.6398949],[-73.3353756,45.6399664],[-73.3353837,45.6397801],[-73.335704,45.6396201],[-73.3357633,45.6394281],[-73.3360055,45.6393566],[-73.3359921,45.6389125],[-73.3361939,45.6386095],[-73.336159,45.6385135],[-73.3359382,45.6385041],[-73.3358386,45.6387167],[-73.3354564,45.638681],[-73.3358521,45.6382763],[-73.3358252,45.6381276],[-73.335949,45.6380467],[-73.3359113,45.6378152],[-73.3356771,45.6377907],[-73.3356287,45.6376157],[-73.3355506,45.6376214],[-73.3353003,45.638058],[-73.33484,45.6384928],[-73.3345546,45.6386],[-73.3343931,45.6388052],[-73.3338144,45.6391703],[-73.3336152,45.6392343],[-73.333451,45.6391327],[-73.3330257,45.6394093],[-73.3328938,45.6395975],[-73.3326354,45.6396182],[-73.3329449,45.6393717],[-73.332988,45.6391778],[-73.3328749,45.6389501],[-73.3327296,45.6391891],[-73.3325358,45.639223],[-73.332595,45.6392644],[-73.3322154,45.639733],[-73.3323743,45.6398761],[-73.3324712,45.6398234],[-73.3323985,45.6399514],[-73.3328534,45.6397048],[-73.3333164,45.6393209],[-73.3334483,45.6393322],[-73.333521,45.6394696],[-73.3327134,45.6398949],[-73.3322397,45.6402656],[-73.33178336127072,45.640782943507986],[-73.33161604999741,45.64065751707705],[-73.33456346458581,45.6428670734626],[-73.33420086222198,45.64259524527406]],[[-73.3319108,45.6404239],[-73.3318169,45.6402766],[-73.3318525,45.6402177],[-73.3323614,45.6399186],[-73.3321734,45.6397894],[-73.3316418,45.6401883],[-73.3312918,45.6406256],[-73.3312756,45.6408318],[-73.3313761,45.6408477],[-73.33161604999741,45.64065751707705],[-73.3319108,45.6404239]],[[-73.3354349,45.6359952],[-73.3354806,45.6360121],[-73.3356044,45.6359369],[-73.3354349,45.6359952]],[[-73.3351145,45.6361175],[-73.3351953,45.6361345],[-73.3352626,45.636078],[-73.3351145,45.6361175]],[[-73.3364139,45.636857],[-73.3365409,45.6366984],[-73.336441,45.6366058],[-73.3362546,45.6366417],[-73.3361087,45.636772],[-73.3362681,45.6368759],[-73.3361979,45.636942],[-73.3362816,45.6370629],[-73.3364058,45.6370648],[-73.3364139,45.636857]],[[-73.3377835,45.6368816],[-73.3379617,45.6370478],[-73.3382183,45.6369741],[-73.3379104,45.6368023],[-73.3377835,45.6368816]],[[-73.3360871,45.6371366],[-73.3360142,45.6370723],[-73.3361384,45.6369364],[-73.3358683,45.6370648],[-73.3358332,45.6372329],[-73.3360871,45.6371366]],[[-73.3360709,45.6374161],[-73.335898,45.6373783],[-73.3358575,45.6374746],[-73.3360007,45.6375351],[-73.3361627,45.6373915],[-73.3360412,45.637299],[-73.3360709,45.6374161]],[[-73.33244511048665,45.637583787313645],[-73.3325526,45.6376162],[-73.3326142,45.6374984],[-73.3322155,45.6371426],[-73.3318428,45.6371857],[-73.3316224,45.637401],[-73.3313663,45.6374259],[-73.3311881,45.637623],[-73.332034,45.6384547],[-73.3320859,45.6386383],[-73.3326757,45.638883],[-73.3324942,45.6385657],[-73.3323711,45.6385408],[-73.3324521,45.6384887],[-73.3322771,45.6384026],[-73.3323549,45.6383505],[-73.3320988,45.6382508],[-73.3322285,45.6381918],[-73.3323743,45.6378859],[-73.3322771,45.6377749],[-73.3324327,45.6378338],[-73.3325461,45.6376978],[-73.33244511048665,45.637583787313645]],[[-73.337516,45.637909],[-73.3361925,45.6390611],[-73.3361816,45.6392197],[-73.3368786,45.6392783],[-73.3375917,45.6396938],[-73.3376646,45.6395956],[-73.337327,45.6394312],[-73.3373459,45.6393406],[-73.3374485,45.6393236],[-73.3373134,45.6392537],[-73.3373405,45.6391159],[-73.3375403,45.6390819],[-73.3376295,45.6391668],[-73.338032,45.6390592],[-73.3379536,45.639182],[-73.3382562,45.6393179],[-73.3381859,45.6389327],[-73.3383615,45.6387136],[-73.338429,45.6383982],[-73.338221,45.6385795],[-73.3379239,45.6385795],[-73.3382129,45.63813],[-73.3383507,45.6382093],[-73.3383534,45.6379487],[-73.3384804,45.637807],[-73.3389044,45.6377655],[-73.3388693,45.6376729],[-73.3389423,45.6376484],[-73.3390746,45.6376937],[-73.3389882,45.6377523],[-73.3393834,45.6377753],[-73.3392529,45.6377183],[-73.3391741,45.6375574],[-73.3386019,45.6372593],[-73.338429,45.6372914],[-73.337516,45.637909]],[[-73.3323678,45.6392207],[-73.3323419,45.6390938],[-73.3320308,45.638917],[-73.3319011,45.6389691],[-73.3318946,45.6388626],[-73.3316451,45.6387561],[-73.3317002,45.6386519],[-73.3316483,45.6385318],[-73.3311816,45.6383641],[-73.3307635,45.6379652],[-73.3305593,45.6379199],[-73.3302838,45.6379947],[-73.330407,45.6380581],[-73.3304815,45.6383029],[-73.3309774,45.6387244],[-73.3311751,45.6390552],[-73.3319076,45.6395832],[-73.3321374,45.6395834],[-73.3327049,45.6389601],[-73.3323678,45.6392207]],[[-73.3310844,45.6391005],[-73.3309547,45.6391685],[-73.3308251,45.6390688],[-73.3308024,45.6391912],[-73.3306728,45.6391323],[-73.3311751,45.6395379],[-73.3311103,45.6395991],[-73.3312626,45.6395968],[-73.3317326,45.6399254],[-73.3317844,45.6398506],[-73.3317196,45.6397124],[-73.3311168,45.6393294],[-73.3310844,45.6391005]],[[-73.3388488,45.6433303],[-73.3391694,45.6435306],[-73.3391523,45.6434305],[-73.3389716,45.6433589],[-73.3392547,45.6432445],[-73.3394081,45.6434161],[-73.3396196,45.6433947],[-73.3396333,45.6436164],[-73.3397356,45.6436427],[-73.3397015,45.643595],[-73.3397902,45.6435234],[-73.3401142,45.6436474],[-73.3394108,45.6431517],[-73.3391537,45.6430693],[-73.3388488,45.6433303]]],[[[-73.32956365721724,45.6390652483329],[-73.3293698,45.6389623],[-73.32932979851665,45.63888507206612],[-73.32956365721724,45.6390652483329]]],[[[-73.3321743,45.6375212],[-73.33193074924702,45.6374786713406],[-73.33182488034006,45.63734195832714],[-73.3319048,45.6372253],[-73.3321743,45.6375212]]],[[[-73.3319906,45.6381117],[-73.3318209,45.6380405],[-73.33197358458698,45.637980532859665],[-73.3319906,45.6381117]]],[[[-73.3336557,45.6382765],[-73.33358357015229,45.63836748732423],[-73.33356563416694,45.638380756470674],[-73.3336557,45.6382765]]],[[[-73.3310184,45.6386854],[-73.3313358,45.6385388],[-73.3313398,45.6386225],[-73.33109933113487,45.63875859710149],[-73.3310184,45.6386854]]],[[[-73.3352527,45.6387178],[-73.3351944,45.6390935],[-73.3348117,45.6399407],[-73.3344289,45.64032],[-73.3342591,45.6407063],[-73.3341526,45.6407294],[-73.3341779,45.6405504],[-73.3341095,45.6404582],[-73.3345379,45.6399921],[-73.3351235,45.6387852],[-73.3350474,45.6386629],[-73.3352527,45.6387178]]],[[[-73.3331118,45.6408528],[-73.3331199,45.6410015],[-73.3329449,45.6412819],[-73.3330499,45.6414043],[-73.3330876,45.6416696],[-73.3334671,45.6417411],[-73.334097,45.640787],[-73.3342235,45.6407813],[-73.3340297,45.6412273],[-73.3335856,45.6418522],[-73.3337713,45.6419519],[-73.3338117,45.6421232],[-73.3339409,45.642189],[-73.3344012,45.641807],[-73.3345196,45.6415454],[-73.3345304,45.6411878],[-73.3347996,45.6405235],[-73.3350095,45.6405385],[-73.3349046,45.6404595],[-73.3349638,45.6402638],[-73.3348561,45.6400944],[-73.3350419,45.6401113],[-73.3352034,45.6404708],[-73.3354672,45.6404745],[-73.3354429,45.6405931],[-73.3353003,45.6406929],[-73.3351522,45.6406326],[-73.3348615,45.6409319],[-73.3344523,45.6421288],[-73.3343231,45.6423264],[-73.3340701,45.6423735],[-73.33414481782718,45.642553231079354],[-73.33183884143227,45.64082453472007],[-73.3334214,45.6396182],[-73.3336044,45.6395825],[-73.3336071,45.6396916],[-73.3320163,45.6409394],[-73.3326946,45.641201],[-73.3328884,45.6410523],[-73.332918,45.6408999],[-73.333058,45.6407606],[-73.3338171,45.640164],[-73.3340459,45.6401057],[-73.3334214,45.6406929],[-73.3331118,45.6408528]]],[[[-73.3368294,45.644816],[-73.3374959,45.6442615],[-73.3376884,45.6438414],[-73.3378286,45.6437605],[-73.3380498,45.6438234],[-73.3379606,45.6440596],[-73.3376907,45.6441138],[-73.3376743,45.6442319],[-73.3377518,45.6442746],[-73.3369491,45.6449949],[-73.336813,45.644985],[-73.3368294,45.644816]]],[[[-73.3381202,45.64446],[-73.3384512,45.6440071],[-73.3387469,45.6439825],[-73.3380686,45.6446749],[-73.3377612,45.6447931],[-73.3381202,45.64446]]]]}},{"type":"Feature","properties":{"id":"parc-le-rocher-532549","name":"Parc Le Rocher","type":"park"},"geometry":{"type":"MultiPolygon","coordinates":[[[[-73.3403764,45.6478851],[-73.3372044,45.6501541],[-73.3361585,45.6507781],[-73.3362201,45.6510071],[-73.3336629,45.6528468],[-73.331541,45.6562711],[-73.32799,45.6565584],[-73.3264181,45.6564358],[-73.3247146,45.6555585],[-73.3249184,45.6543857],[-73.3247991,45.6530917],[-73.3247067,45.6504207],[-73.3253407,45.6496277],[-73.327233,45.6467906],[-73.3275748,45.6455977],[-73.327816,45.645053],[-73.3277532,45.6449669],[-73.3278361,45.644865],[-73.3281377,45.6435509],[-73.3300395,45.6405359],[-73.3373581,45.6457786],[-73.3388005,45.6465762],[-73.3403159,45.6476654],[-73.3403764,45.6478851]],[[-73.3294644,45.6423751],[-73.3294525,45.6425185],[-73.3295506,45.6424998],[-73.3295565,45.6423751],[-73.3294644,45.6423751]],[[-73.329191,45.6430129],[-73.3290098,45.6430378],[-73.3291791,45.6431666],[-73.329405,45.6431583],[-73.3295298,45.6430067],[-73.3297199,45.6429776],[-73.3294436,45.6428613],[-73.3293693,45.6427283],[-73.3294614,45.6425995],[-73.329402,45.6425621],[-73.3292326,45.642585],[-73.3292653,45.6426556],[-73.3291672,45.6427574],[-73.329301,45.642855],[-73.3291791,45.6428924],[-73.329191,45.6430129]],[[-73.331592,45.6434699],[-73.3313483,45.6436361],[-73.3313721,45.6437691],[-73.33169,45.6437088],[-73.3317702,45.6435115],[-73.3319158,45.6435613],[-73.3319901,45.6434803],[-73.3319099,45.6433951],[-73.3320258,45.6433079],[-73.3319931,45.6431978],[-73.3321149,45.6432206],[-73.33221,45.643096],[-73.3323348,45.6431147],[-73.3325636,45.6428509],[-73.3321446,45.6427865],[-73.3321803,45.6429007],[-73.3323289,45.6428924],[-73.33232,45.6429527],[-73.3320941,45.6429963],[-73.3317732,45.6433037],[-73.3315682,45.6433058],[-73.331592,45.6434699]],[[-73.3284759,45.6437468],[-73.3285685,45.6436174],[-73.3283656,45.6435678],[-73.3283026,45.6436959],[-73.3284759,45.6437468]],[[-73.3336183,45.6436375],[-73.333908,45.6438601],[-73.3340826,45.6436421],[-73.3339964,45.6435308],[-73.3337355,45.6434613],[-73.3336183,45.6436375]],[[-73.3333265,45.6439095],[-73.3332469,45.6439914],[-73.3332978,45.6440873],[-73.3335719,45.6441398],[-73.3333265,45.6439095]],[[-73.3297369,45.6441491],[-73.3299576,45.6440871],[-73.3299477,45.6440154],[-73.3298334,45.6440113],[-73.3297369,45.6441491]],[[-73.3283459,45.6440967],[-73.3283065,45.6442331],[-73.3284326,45.644178],[-73.3284326,45.6440871],[-73.3283459,45.6440967]],[[-73.3284858,45.644459],[-73.3286198,45.644554],[-73.3288365,45.6443832],[-73.32886140499501,45.64426138208965],[-73.3287498,45.6443226],[-73.3286414,45.6442579],[-73.3284976,45.6443488],[-73.3284858,45.644459]],[[-73.3292759,45.644262],[-73.3293172,45.6443653],[-73.3292443,45.6445237],[-73.3294039,45.6446477],[-73.3295182,45.6445967],[-73.329532,45.6444631],[-73.3296758,45.6444204],[-73.329483641054,45.644341084514316],[-73.3294453,45.6442138],[-73.3292759,45.644262]],[[-73.3305469,45.6447363],[-73.3308236,45.6446762],[-73.3309458,45.6444339],[-73.330747,45.6444433],[-73.3304448,45.6442349],[-73.3300942,45.6441466],[-73.3301748,45.6442687],[-73.3300298,45.6443795],[-73.3300083,45.6442922],[-73.3298753,45.6443194],[-73.3297625,45.6442189],[-73.3297262,45.6442781],[-73.3299546,45.6445955],[-73.3302057,45.6445175],[-73.3300633,45.6444377],[-73.3302299,45.6443147],[-73.3303897,45.6443729],[-73.3302326,45.6446837],[-73.3302823,45.6447532],[-73.3300204,45.6448443],[-73.3298928,45.6447523],[-73.329647,45.6450293],[-73.3292292,45.6447795],[-73.3290922,45.6448105],[-73.3290237,45.6449354],[-73.3293327,45.6451532],[-73.3291809,45.6454021],[-73.3295435,45.6455861],[-73.329839,45.6454246],[-73.33007412425803,45.645169088689734],[-73.3305023,45.645085],[-73.3305469,45.6447363]],[[-73.3316778,45.6444733],[-73.3315373,45.6447074],[-73.3305256,45.6451302],[-73.3299874,45.645606],[-73.3302763,45.6456758],[-73.3307732,45.6454965],[-73.33104755938938,45.645257319838464],[-73.3318506,45.644798],[-73.3318938,45.644513],[-73.3316778,45.6444733]],[[-73.3338758,45.6458838],[-73.3337958,45.646011],[-73.334105,45.6461687],[-73.3339267,45.6460008],[-73.3341778,45.6455531],[-73.3335552,45.6455386],[-73.3338758,45.6458838]],[[-73.3366154,45.6466479],[-73.336842,45.6468411],[-73.3371127,45.6469189],[-73.337273,45.6468832],[-73.3375629,45.647031],[-73.3376141,45.646969],[-73.3375083,45.6467473],[-73.3376686,45.6466233],[-73.3375527,45.6465446],[-73.3376448,45.6464135],[-73.3373514,45.6461583],[-73.3373207,45.6460439],[-73.3372559,45.6463038],[-73.3363557,45.6466491],[-73.3366154,45.6466479]]],[[[-73.3291892,45.6448846],[-73.3293941,45.6449535],[-73.3291399,45.6449424],[-73.3291892,45.6448846]]],[[[-73.3303142,45.6449851],[-73.3304442,45.6448887],[-73.3304363,45.6450127],[-73.3303142,45.6449851]]],[[[-73.3295458,45.6450582],[-73.3296285,45.6451477],[-73.32946645692566,45.645128152227386],[-73.3295458,45.6450582]]],[[[-73.3295879,45.6455354],[-73.3293877,45.6454443],[-73.32977675213445,45.64531988983415],[-73.3295879,45.6455354]]]]}},{"type":"Feature","properties":{"id":"parc-de-conservation-barbe-denys-de-la-trinite-417633","name":"Parc de conservation Barbe-Denys-De La Trinité","type":"park"},"geometry":{"type":"Polygon","coordinates":[[[-73.2343597,45.8507129],[-73.2341111,45.8507123],[-73.231924,45.8498382],[-73.2317684,45.8496594],[-73.2318638,45.8494324],[-73.2322207,45.8495709],[-73.2327131,45.8489427],[-73.2343615,45.8495442],[-73.2350999,45.8485621],[-73.235385,45.8464731],[-73.2345024,45.8460212],[-73.234033,45.845249],[-73.2347693,45.8442146],[-73.2317807,45.8431996],[-73.2329247,45.8416177],[-73.2330965,45.8414869],[-73.2372702,45.8424726],[-73.2433552,45.8443253],[-73.2414287,45.8457658],[-73.2400154,45.8469954],[-73.2379886,45.8485022],[-73.2358964,45.8503846],[-73.2352853,45.8510845],[-73.2343597,45.8507129]],[[-73.2372666,45.8472198],[-73.2375289,45.8471815],[-73.2373193,45.8469314],[-73.2371996,45.8469016],[-73.2371554,45.8470503],[-73.2372666,45.8472198]]]}},{"type":"Feature","properties":{"id":"parc-naturel-des-ruisseaux-607466","name":"Parc naturel des Ruisseaux","type":"park"},"geometry":{"type":"Polygon","coordinates":[[[-73.2850055,45.4263432],[-73.2875851,45.418766],[-73.2878866,45.4188148],[-73.2906343,45.4104753],[-73.2942102,45.410374],[-73.2885306,45.4268723],[-73.2850055,45.4263432]]]}},{"type":"Feature","properties":{"id":"parc-regional-des-greves-secteur-de-la-colonie-des-greves-de-contrecoeur-116428","name":"Parc régional des Grêves - Secteur de la Colonie des Grèves de Contrecoeur","type":"park"},"geometry":{"type":"Polygon","coordinates":[[[-73.1844217,45.9693664],[-73.187238,45.9706975],[-73.1867905,45.9713044],[-73.186452,45.9715692],[-73.1860459,45.9720717],[-73.1856792,45.972867],[-73.1844778,45.974077],[-73.1824758,45.9736298],[-73.1815457,45.9748637],[-73.1842084,45.9754252],[-73.1840837,45.9754092],[-73.1837246,45.9758762],[-73.182627,45.9776956],[-73.1824242,45.9782298],[-73.1819564,45.9789977],[-73.18115466073994,45.98091507074652],[-73.1646622,45.9686262],[-73.16726519765567,45.9633425022479],[-73.1844217,45.9693664]]]}},{"type":"Feature","properties":{"id":"bois-robert-701661","name":"Bois Robert","type":"park"},"geometry":{"type":"Polygon","coordinates":[[[-73.8857842,45.2997857],[-73.8862873,45.2995708],[-73.8873738,45.2994138],[-73.8873435,45.2992563],[-73.8872326,45.2992387],[-73.8852744,45.2993619],[-73.8850236,45.2991416],[-73.8849753,45.2989144],[-73.8852783,45.2979952],[-73.8860378,45.2970652],[-73.8861159,45.2968781],[-73.88606053937464,45.29631505654004],[-73.8863064,45.2960533],[-73.8866713,45.2960671],[-73.8889037,45.295355],[-73.8943819,45.2940833],[-73.8944503,45.2942967],[-73.8943727,45.2947274],[-73.8946293,45.2950989],[-73.8946507,45.2955444],[-73.8948324,45.295879],[-73.8950178,45.2970762],[-73.8952663,45.2977361],[-73.8954872,45.298942],[-73.8954181,45.2990563],[-73.895203,45.2991164],[-73.894686,45.2987908],[-73.8945376,45.2984675],[-73.8938524,45.2983758],[-73.8934859,45.298474],[-73.8933845,45.2986273],[-73.8933883,45.2989186],[-73.8939639,45.2991804],[-73.8940167,45.2993712],[-73.8940382,45.2998167],[-73.8942237,45.3004426],[-73.8942131,45.3006273],[-73.8940381,45.3009314],[-73.8938954,45.3009248],[-73.8938311,45.3007031],[-73.8934292,45.3002213],[-73.8932586,45.3002173],[-73.893147,45.3005273],[-73.8930636,45.3005351],[-73.8928809,45.2997132],[-73.8924926,45.2996657],[-73.8921398,45.2990834],[-73.8913179,45.2988367],[-73.8908737,45.2988223],[-73.890657,45.2992661],[-73.89003,45.2995445],[-73.8895522,45.2996531],[-73.8894266,45.2995569],[-73.8886452,45.2995261],[-73.8881019,45.2996933],[-73.8879119,45.2998741],[-73.8878004,45.3001366],[-73.8879275,45.3005881],[-73.8879785,45.3017339],[-73.8881144,45.3024883],[-73.8884458,45.3026251],[-73.8886365,45.302887],[-73.8888249,45.3038602],[-73.886329,45.3041055],[-73.8855509,45.304394],[-73.8849999,45.304897],[-73.8845368,45.3050841],[-73.8843224,45.3053598],[-73.8843641,45.3054918],[-73.8841604,45.3058544],[-73.8840443,45.3059292],[-73.8833406,45.3060109],[-73.8828803,45.3062737],[-73.8823386,45.3064042],[-73.8824814,45.3066825],[-73.8825923,45.3067001],[-73.8836323,45.3064191],[-73.8854022,45.3064375],[-73.8854862,45.3066734],[-73.8857979,45.3092692],[-73.8852865,45.3095008],[-73.8836809,45.3096348],[-73.8825066,45.3095927],[-73.88224395150877,45.30929137437801],[-73.8828449,45.3087101],[-73.882964,45.3084393],[-73.8829513,45.3082208],[-73.8827958,45.3079956],[-73.8820903,45.3073743],[-73.8817969,45.3068064],[-73.8818096,45.3062099],[-73.882404,45.3051835],[-73.8823827,45.3044664],[-73.8828715,45.304145],[-73.8824542,45.304184],[-73.8821269,45.3037671],[-73.8819575,45.3034074],[-73.8821911,45.3031738],[-73.8826746,45.3029449],[-73.8830719,45.302648],[-73.8839325,45.3015928],[-73.8850587,45.301108],[-73.8855524,45.3007222],[-73.8857032,45.2998971],[-73.8857842,45.2997857]]]}},{"type":"Feature","properties":{"id":"parc-champlain-048365","name":"Parc Champlain","type":"park"},"geometry":{"type":"MultiPolygon","coordinates":[[[[-73.5272694,45.3893073],[-73.5309495,45.3884096],[-73.5324348,45.3885031],[-73.5324855,45.38968],[-73.53119,45.3896311],[-73.5279348,45.3904112],[-73.5273659,45.3897575],[-73.5272694,45.3893073]]],[[[-73.5267592,45.3906676],[-73.5267393,45.3907441],[-73.5227113,45.3916989],[-73.5203529,45.3919547],[-73.5203099,45.3921039],[-73.5199094,45.3924342],[-73.5193546,45.3922306],[-73.5182725,45.3912233],[-73.5183892,45.3911571],[-73.5186211,45.3911888],[-73.518589,45.3908917],[-73.5220596,45.3905771],[-73.5243743,45.390017],[-73.525173,45.3899103],[-73.527107,45.3893538],[-73.52717,45.3897535],[-73.5276558,45.390328],[-73.5267592,45.3906676]]]]}},{"type":"Feature","properties":{"id":"parc-de-la-coulee-199853","name":"Parc de la Coulée","type":"park"},"geometry":{"type":"MultiPolygon","coordinates":[[[[-73.3509489,45.5927233],[-73.3512662,45.5925223],[-73.35186,45.5929831],[-73.351537,45.593183],[-73.3513724,45.5930579],[-73.3510623,45.5932498],[-73.3505601,45.592862],[-73.3508768,45.5926659],[-73.3509489,45.5927233]]],[[[-73.3502232,45.5937941],[-73.3494607,45.5937616],[-73.3485214,45.5943433],[-73.3482055,45.5939406],[-73.3478157,45.5940743],[-73.347768,45.5939963],[-73.3481544,45.5938711],[-73.3478763,45.5934942],[-73.3492874,45.5925842],[-73.3500722,45.5930904],[-73.3504077,45.5928709],[-73.3509782,45.5933161],[-73.3502232,45.5937941]]],[[[-73.3522952,45.5921246],[-73.3541135,45.5919724],[-73.3558841,45.5921316],[-73.3561104,45.5908758],[-73.3555172,45.5904101],[-73.3556734,45.5901863],[-73.3569648,45.5904543],[-73.3567918,45.5906892],[-73.357054,45.5908805],[-73.3570397,45.5916267],[-73.3568153,45.5925654],[-73.356927,45.592633],[-73.3569819,45.5928933],[-73.3570964,45.594162],[-73.3569309,45.5945009],[-73.3568621,45.59516],[-73.3566277,45.5954165],[-73.3568169,45.5957388],[-73.3567306,45.59588],[-73.3567356,45.596216],[-73.3569109,45.5964724],[-73.3567242,45.5966879],[-73.3567835,45.5983589],[-73.3566101,45.5986224],[-73.3569016,45.5988916],[-73.3569255,45.5998905],[-73.35684,45.6008056],[-73.3564707,45.6004931],[-73.3563343,45.6004762],[-73.3561117,45.5999259],[-73.3556518,45.5999061],[-73.3558793,45.5962698],[-73.3558188,45.5957309],[-73.3556885,45.5953974],[-73.3562307,45.59519],[-73.3564299,45.5948454],[-73.3564089,45.5934232],[-73.3560962,45.5929961],[-73.3533993,45.5925953],[-73.3524759,45.5931624],[-73.3516028,45.5924809],[-73.3522952,45.5921246]]]]}},{"type":"Feature","properties":{"id":"reserve-naturelle-du-piemont-du-mont-saint-hilaire-244796","name":"Réserve naturelle du Piémont-du-Mont-Saint-Hilaire","type":"park"},"geometry":{"type":"MultiPolygon","coordinates":[[[[-73.1749845,45.5429003],[-73.1715372,45.5403225],[-73.1721674,45.5396119],[-73.1762239,45.542651],[-73.1751722,45.5433397],[-73.1749845,45.5429003]]],[[[-73.176224,45.5426512],[-73.1813005,45.5464537],[-73.180994,45.5466574],[-73.1804576,45.5462589],[-73.1802704,45.5463832],[-73.1811401,45.5470293],[-73.1808196,45.5472422],[-73.1773922,45.5446837],[-73.1771541,45.5450985],[-73.1772804,45.5455822],[-73.1772578,45.5461183],[-73.1759348,45.5451251],[-73.1751723,45.5433398],[-73.176224,45.5426512]]],[[[-73.1787038,45.5471996],[-73.1783391,45.5471921],[-73.1782611,45.5473493],[-73.1784324,45.5474947],[-73.1786926,45.5474555],[-73.1780773,45.547862],[-73.1776278,45.5475336],[-73.177666,45.5487261],[-73.1774039,45.5485386],[-73.1759361,45.5451303],[-73.1787038,45.5471996]]],[[[-73.1780082,45.5524562],[-73.1790074,45.5520483],[-73.1821096,45.554325],[-73.1816358,45.5551187],[-73.1780082,45.5524562]]],[[[-73.1812714,45.5560405],[-73.1802287,45.557047],[-73.1791921,45.5562862],[-73.1780082,45.5524587],[-73.1816359,45.5551212],[-73.1812714,45.5560405]]],[[[-73.1791921,45.5562865],[-73.1802287,45.5570472],[-73.1799378,45.5575702],[-73.1793666,45.5571574],[-73.1791921,45.5562865]]],[[[-73.1798377,45.5622336],[-73.1799435,45.5621292],[-73.180038,45.5620197],[-73.1801188,45.5619135],[-73.180183,45.5618177],[-73.1802405,45.5617203],[-73.1804185,45.5613684],[-73.1801703,45.5612125],[-73.1810672,45.5607158],[-73.1794012,45.5595116],[-73.1795702,45.5591574],[-73.1793667,45.5571577],[-73.1829978,45.5597867],[-73.1827863,45.5599308],[-73.1831417,45.5601833],[-73.1830297,45.5602727],[-73.1826484,45.5600247],[-73.1821859,45.5603621],[-73.1817968,45.5612427],[-73.1813246,45.5618234],[-73.1816625,45.561959],[-73.1812361,45.5625005],[-73.1810902,45.5629117],[-73.180834,45.5629128],[-73.1808495,45.5626388],[-73.181033,45.5621801],[-73.1807866,45.5615997],[-73.1803389,45.562317],[-73.180018,45.5625552],[-73.1797342,45.562331],[-73.1798377,45.5622336]]],[[[-73.1802355,45.5617282],[-73.1796615,45.5623906],[-73.1787378,45.5629007],[-73.1778398,45.5622762],[-73.1794005,45.5595113],[-73.1810667,45.5607156],[-73.1801699,45.5612123],[-73.1804182,45.5613683],[-73.1802355,45.5617282]]],[[[-73.1748065,45.5657831],[-73.1751924,45.5659606],[-73.1728248,45.5669089],[-73.1714085,45.5658317],[-73.1723958,45.5654479],[-73.1732825,45.5660783],[-73.1742083,45.5657892],[-73.1748065,45.5657831]]],[[[-73.165942,45.5672046],[-73.166655,45.5677481],[-73.1665663,45.5677601],[-73.1658267,45.5671964],[-73.165942,45.5672046]]],[[[-73.1667871,45.5678488],[-73.167089,45.5678079],[-73.1682298,45.5687977],[-73.1680932,45.5688443],[-73.1667871,45.5678488]]],[[[-73.165904,45.5702637],[-73.1657636,45.5699896],[-73.1676565,45.5695445],[-73.1679225,45.5697442],[-73.1667359,45.5701051],[-73.1662365,45.570432],[-73.1665885,45.5706934],[-73.1664648,45.5707756],[-73.165904,45.5702637]]],[[[-73.1665892,45.5708932],[-73.1675392,45.5715671],[-73.1678984,45.5719209],[-73.1673266,45.5723013],[-73.1669078,45.5719878],[-73.1669111,45.5719101],[-73.1666558,45.5720798],[-73.166766,45.5720821],[-73.1672871,45.5724721],[-73.167024,45.5726469],[-73.1655469,45.5715709],[-73.1665892,45.5708932]]],[[[-73.1453346,45.5313564],[-73.1467284,45.5300531],[-73.1475803,45.5295233],[-73.1480473,45.5298544],[-73.1484871,45.5295809],[-73.149896,45.5305743],[-73.1472478,45.5325474],[-73.1453346,45.5313564]]],[[[-73.140145,45.5365875],[-73.1406797,45.53596],[-73.1418128,45.5353259],[-73.1435135,45.5348823],[-73.1463581,45.5367837],[-73.1454991,45.5373134],[-73.1443134,45.5383252],[-73.1434845,45.5388993],[-73.140145,45.5365875]]],[[[-73.1263746,45.5484804],[-73.1265245,45.5473222],[-73.1278707,45.5482476],[-73.1275208,45.5492529],[-73.1263746,45.5484804]]],[[[-73.127992,45.548331],[-73.1291947,45.5491576],[-73.1288392,45.5501422],[-73.1276451,45.5493369],[-73.127992,45.548331]]],[[[-73.1275066,45.5502041],[-73.1275257,45.5496705],[-73.127645,45.549337],[-73.1288388,45.5501424],[-73.1286048,45.5509717],[-73.1275066,45.5502041]]],[[[-73.1274068,45.5499572],[-73.1271959,45.551033],[-73.1272748,45.551234],[-73.1272308,45.5515703],[-73.1270558,45.5521516],[-73.1250971,45.5506665],[-73.1254874,45.5497378],[-73.1263746,45.5484806],[-73.1275207,45.5492533],[-73.1273746,45.5496615],[-73.1274068,45.5499572]]],[[[-73.1273489,45.5510272],[-73.1275064,45.5502044],[-73.1286048,45.5509718],[-73.1286157,45.5520926],[-73.127422,45.5512582],[-73.1273489,45.5510272]]],[[[-73.1361816,45.563383],[-73.134574,45.5644859],[-73.1298323,45.5610756],[-73.1314398,45.5599727],[-73.1361816,45.563383]]],[[[-73.1602264,45.566139],[-73.1619881,45.5674589],[-73.1620718,45.5675296],[-73.1604726,45.5677731],[-73.1587981,45.5665116],[-73.1602264,45.566139]]],[[[-73.1585643,45.5742156],[-73.1582935,45.5743937],[-73.15812,45.5742637],[-73.1583907,45.5740855],[-73.1585643,45.5742156]]],[[[-73.1602732,45.5768227],[-73.1604963,45.5766558],[-73.1608981,45.5769551],[-73.1606424,45.5771244],[-73.1602732,45.5768227]]],[[[-73.1614706,45.5780047],[-73.1611943,45.5781859],[-73.1598511,45.5771756],[-73.1601203,45.5769991],[-73.1614706,45.5780047]]]]}},{"type":"Feature","properties":{"id":"reserve-naturelle-du-bois-de-brossard-248619","name":"Réserve naturelle du Bois-de-Brossard","type":"park"},"geometry":{"type":"MultiPolygon","coordinates":[[[[-73.4166218,45.4180383],[-73.4095663,45.4289115],[-73.4073202,45.4272978],[-73.4136295,45.4175795],[-73.4136206,45.4155108],[-73.4166139,45.4156407],[-73.4166218,45.4180383]]],[[[-73.4194926,45.4330077],[-73.4217969,45.4294961],[-73.4210941,45.4293232],[-73.4208836,45.4293839],[-73.4210244,45.4291433],[-73.4216277,45.4285574],[-73.4217802,45.4279128],[-73.4226483,45.4265807],[-73.4227244,45.426241],[-73.4222984,45.4260349],[-73.4210387,45.4279618],[-73.420946,45.4279294],[-73.4210335,45.4277559],[-73.4209676,45.4276137],[-73.4204326,45.4275973],[-73.4191579,45.4271519],[-73.4239803,45.4197985],[-73.4241909,45.4159685],[-73.4292892,45.416183],[-73.4309318,45.4181431],[-73.4307493,45.4210112],[-73.4227384,45.433116],[-73.4223139,45.4331018],[-73.422435,45.4326993],[-73.4218691,45.4326808],[-73.4217225,45.4330777],[-73.4194926,45.4330077]]],[[[-73.3931733,45.4302778],[-73.3899809,45.4279515],[-73.3815041,45.4337178],[-73.3814191,45.4336612],[-73.3851992,45.4310901],[-73.3836422,45.430052],[-73.3969478,45.4210194],[-73.4017138,45.4244447],[-73.3931733,45.4302778]]],[[[-73.4064726,45.4278642],[-73.4101307,45.4305238],[-73.399494,45.4378792],[-73.3956699,45.4352706],[-73.4064726,45.4278642]]]]}},{"type":"Feature","properties":{"id":"reserve-naturelle-du-ruisseau-robert-248679","name":"Réserve naturelle du Ruisseau-Robert","type":"park"},"geometry":{"type":"MultiPolygon","coordinates":[[[[-73.3426568,45.4345826],[-73.3395387,45.4352964],[-73.3392223,45.4350737],[-73.34188160766247,45.43446922280879],[-73.34256219376168,45.43451418131172],[-73.3426568,45.4345826]]],[[[-73.3451601,45.4377145],[-73.3436263,45.4366057],[-73.3449823,45.4362638],[-73.3461862,45.4371341],[-73.3451601,45.4377145]]],[[[-73.3567943,45.4465315],[-73.3557,45.4460712],[-73.3545389,45.4457007],[-73.3529276,45.4453566],[-73.3516547,45.4452095],[-73.3458471,45.4411463],[-73.3457231,45.4409788],[-73.3442559,45.4399541],[-73.3451903,45.4392884],[-73.3471751,45.4406689],[-73.347247,45.4406177],[-73.3524595,45.4442266],[-73.3542946,45.4429605],[-73.3581812,45.4457522],[-73.3610422,45.4455625],[-73.3630152,45.4451024],[-73.3603797,45.4486237],[-73.3567943,45.4465315]]],[[[-73.3490535,45.44541],[-73.3514511,45.4453774],[-73.3530165,45.4455568],[-73.3541506,45.4457924],[-73.3491673,45.4464549],[-73.3478883,45.4455599],[-73.3490535,45.44541]]]]}},{"type":"Feature","properties":{"id":"parc-multifonctionnel-722974","name":"Parc multifonctionnel","type":"park"},"geometry":{"type":"MultiPolygon","coordinates":[[[[-73.5831484,45.3745626],[-73.5825874,45.374692],[-73.5821894,45.3749831],[-73.580969,45.3750301],[-73.5805043,45.3751466],[-73.5804704,45.3752162],[-73.5801107,45.3751564],[-73.5801664,45.3750159],[-73.5805339,45.3751042],[-73.5808975,45.3743157],[-73.5815411,45.3743924],[-73.5837963,45.3742236],[-73.5839627,45.3742788],[-73.5840297,45.3746283],[-73.5831484,45.3745626]]],[[[-73.5841943,45.3739244],[-73.5846909,45.3738806],[-73.5845785,45.3733134],[-73.585946,45.3736427],[-73.5864938,45.3734996],[-73.586745,45.3736594],[-73.5869819,45.3735183],[-73.5920849,45.3722137],[-73.5936295,45.3725918],[-73.5952443,45.3731883],[-73.5954993,45.373539],[-73.5955884,45.3740303],[-73.595977,45.374364],[-73.5958537,45.3748105],[-73.5955889,45.3749759],[-73.5954896,45.3754577],[-73.5958096,45.3759914],[-73.6008851,45.377143],[-73.5994792,45.3796523],[-73.5985996,45.3794509],[-73.5982567,45.3794808],[-73.595203,45.3786671],[-73.5950057,45.378793],[-73.5944722,45.3797589],[-73.5930474,45.3793753],[-73.5931027,45.3792632],[-73.5891581,45.3782758],[-73.5889931,45.3781425],[-73.5903711,45.3775453],[-73.5900739,45.3772386],[-73.5901291,45.3771459],[-73.590724,45.3771943],[-73.5908391,45.3773234],[-73.5927859,45.3764605],[-73.5905679,45.3739869],[-73.5891173,45.3746358],[-73.5888997,45.374405],[-73.5886445,45.3743558],[-73.5884066,45.3740874],[-73.5867417,45.3748393],[-73.5860054,45.3750757],[-73.5853815,45.3751762],[-73.585443,45.3754888],[-73.5852652,45.3755074],[-73.5852092,45.3751822],[-73.5844437,45.3752433],[-73.5841943,45.3739244]]]]}},{"type":"Feature","properties":{"id":"refuge-d-oiseaux-migrateurs-de-l-ile-aux-herons-740074","name":"Refuge d'oiseaux migrateurs de l'Île-aux-Hérons","type":"park"},"geometry":{"type":"MultiPolygon","coordinates":[[[[-73.593643,45.4103422],[-73.5936331,45.4102618],[-73.5938522,45.4102129],[-73.5943651,45.4102723],[-73.5949478,45.410489],[-73.5949627,45.4105834],[-73.5947884,45.4106324],[-73.5942556,45.4104751],[-73.5938323,45.4104576],[-73.593643,45.4103422]]],[[[-73.5941431,45.4152563],[-73.5931177,45.415013],[-73.5902932,45.4147957],[-73.5915115,45.414007],[-73.5923955,45.4135959],[-73.592887,45.4134917],[-73.5942663,45.4135593],[-73.5952589,45.4139816],[-73.5954919,45.4144997],[-73.5951328,45.4149275],[-73.5941431,45.4152563]]],[[[-73.5945893,45.415809],[-73.59438320135813,45.416015099740044],[-73.59398726733689,45.4160469567278],[-73.5938256,45.415976],[-73.5940383,45.4158339],[-73.5945893,45.415809]]],[[[-73.5889482,45.4190908],[-73.5893494,45.4190211],[-73.5894195,45.4191626],[-73.5892939,45.4192262],[-73.5889482,45.4191564],[-73.5889482,45.4190908]]],[[[-73.5899055,45.4194148],[-73.5898695,45.4193007],[-73.5900672,45.4192809],[-73.59011,45.4194429],[-73.5899055,45.4194148]]],[[[-73.59040729395298,45.42058635380267],[-73.5904932,45.4205048],[-73.5905531,45.4205937],[-73.59040729395298,45.42058635380267]]],[[[-73.5904441,45.4208408],[-73.59025656017113,45.42094948569616],[-73.5899328,45.420998],[-73.5899698,45.4207601],[-73.5904441,45.4208408]]],[[[-73.5980129,45.4211277],[-73.59765647006604,45.421306894939306],[-73.597794,45.4211089],[-73.5984499,45.4206399],[-73.5979979,45.4210308],[-73.5980129,45.4211277]]],[[[-73.589439,45.4211518],[-73.5900866,45.4212742],[-73.5896786,45.4213671],[-73.5893913,45.4212311],[-73.589439,45.4211518]]],[[[-73.5973772,45.4215952],[-73.5970373,45.4217566],[-73.5974027,45.4214394],[-73.5975384,45.4214197],[-73.5973772,45.4215952]]],[[[-73.60007617504779,45.42188097219495],[-73.6000769,45.4218931],[-73.5996866,45.4222197],[-73.60007617504779,45.42188097219495]]],[[[-73.5994895,45.4226443],[-73.5990711,45.4229521],[-73.5984689,45.4232542],[-73.5994895,45.4226443]]],[[[-73.5974939,45.424075],[-73.5967945,45.4247132],[-73.5966235,45.4248628],[-73.5974939,45.424075]]],[[[-73.5966235,45.4248628],[-73.5961917,45.4253843],[-73.59567838594967,45.4259201804443],[-73.5966235,45.4248628]]],[[[-73.5905405,45.4285923],[-73.5900562,45.4282018],[-73.5896987,45.4282032],[-73.5901062,45.4280169],[-73.5898503,45.4279147],[-73.5894527,45.4280347],[-73.5884676,45.4287585],[-73.5881913,45.4288258],[-73.5881498,45.4286719],[-73.5885762,45.4283684],[-73.5887915,45.4280578],[-73.5895827,45.4275302],[-73.5896449,45.4271904],[-73.5901527,45.4270352],[-73.5911478,45.4260365],[-73.5926901,45.4251885],[-73.5955882,45.4231055],[-73.5958014,45.4231262],[-73.5956392,45.4233672],[-73.5917419,45.4261947],[-73.5917379,45.4263914],[-73.5918465,45.4265213],[-73.5920919,45.4265834],[-73.5927464,45.4269636],[-73.5931116,45.427213],[-73.5931018,45.4273067],[-73.5933199,45.4273567],[-73.5938073,45.4276856],[-73.5922495,45.4290573],[-73.5922075,45.4289638],[-73.5920611,45.4289613],[-73.5918807,45.4288381],[-73.5915314,45.4288432],[-73.5905405,45.4285923]],[[-73.5930167,45.4274934],[-73.5924496,45.427289],[-73.5923772,45.4271478],[-73.5918622,45.4269182],[-73.5917083,45.4267137],[-73.5913235,45.4267585],[-73.5901697,45.4275073],[-73.590193,45.4278808],[-73.5901333,45.4279406],[-73.5906327,45.428518],[-73.5917837,45.4287939],[-73.5923906,45.428746],[-73.5925247,45.4286744],[-73.5931255,45.4277525],[-73.5931187,45.4275983],[-73.5930167,45.4274934]]],[[[-73.5953307,45.4263377],[-73.5941291,45.4276535],[-73.59563221196751,45.42597183925284],[-73.5953307,45.4263377]]],[[[-73.5940101,45.4277112],[-73.5938073,45.4276856],[-73.5941291,45.4276535],[-73.5940101,45.4277112]]],[[[-73.59119752170484,45.429968706973085],[-73.5911773,45.4299839],[-73.5909425,45.4301141],[-73.59119752170484,45.429968706973085]]],[[[-73.6001228,45.408414],[-73.59999981459684,45.409385366080436],[-73.5996315,45.4093658],[-73.5987222,45.409667],[-73.5976875,45.410276],[-73.597031,45.410542],[-73.5965282,45.4106152],[-73.5958858,45.4105133],[-73.5943206,45.4100501],[-73.5938436,45.4100247],[-73.5935966,45.4100398],[-73.5934854,45.4101925],[-73.5927892,45.4102254],[-73.5911566,45.4102606],[-73.5910737,45.4102046],[-73.5899572,45.4101848],[-73.5895033,45.4102961],[-73.5894073,45.4104234],[-73.588892,45.4105763],[-73.5870634,45.4107421],[-73.5852963,45.410737],[-73.5802856,45.4100625],[-73.5786817,45.410187],[-73.5776327,45.410133],[-73.5764055,45.4111885],[-73.5763138,45.4114016],[-73.574366,45.4117271],[-73.5741271,45.4116461],[-73.5740157,45.4114521],[-73.5736855,45.4112135],[-73.5726314,45.4106567],[-73.5720347,45.4098815],[-73.5719919,45.4097109],[-73.5715982,45.4096982],[-73.5715598,45.409539],[-73.5716203,45.4094658],[-73.5713443,45.409316],[-73.5712818,45.4091339],[-73.571077,45.409121],[-73.5709804,45.409249],[-73.5705149,45.4090439],[-73.5698642,45.4090918],[-73.5694925,45.4089887],[-73.5675776,45.4089765],[-73.567369,45.4088978],[-73.5660723,45.4088395],[-73.5653362,45.4089619],[-73.5652594,45.4088832],[-73.5643842,45.4088504],[-73.56241896942613,45.40892528413058],[-73.5623778,45.4081642],[-73.5684981,45.4081546],[-73.5719574,45.4083503],[-73.57471921840742,45.40839038374135],[-73.5747172,45.4087281],[-73.5897399,45.4083979],[-73.5952488,45.4078781],[-73.6005036,45.4069497],[-73.6005709,45.4071881],[-73.6004073,45.4082787],[-73.6001228,45.408414]],[[-73.5732652,45.409775],[-73.573159,45.4090972],[-73.5724968,45.4090502],[-73.5722869,45.4091235],[-73.572341,45.4098232],[-73.5725528,45.409903],[-73.5732652,45.409775]],[[-73.5758548,45.4110277],[-73.5762351,45.4108981],[-73.5767656,45.4102294],[-73.5767331,45.4100935],[-73.5756809,45.4097958],[-73.574726,45.4097715],[-73.5746278,45.4100375],[-73.5752691,45.4104806],[-73.5758548,45.4110277]]],[[[-73.5769123,45.4147921],[-73.5769675,45.4146274],[-73.5774716,45.414686],[-73.5774329,45.415005],[-73.5771278,45.4149485],[-73.5769123,45.4147921]]],[[[-73.5887485,45.418129],[-73.5884047,45.4182801],[-73.5883404,45.4181263],[-73.588542,45.4180442],[-73.5887485,45.418129]]],[[[-73.5887904,45.4186526],[-73.5885888,45.4184845],[-73.5887573,45.4184298],[-73.5890446,45.4185631],[-73.5890533,45.4186663],[-73.5887904,45.4186526]]],[[[-73.5887582,45.4196329],[-73.5887388,45.4195338],[-73.5889715,45.4195242],[-73.5890261,45.4195994],[-73.5887582,45.4196329]]],[[[-73.5895607,45.4202379],[-73.5896844,45.4201558],[-73.589813,45.4203014],[-73.589702,45.4204587],[-73.5887027,45.4207335],[-73.5884135,45.420702],[-73.5877249,45.4203637],[-73.5874493,45.4204054],[-73.5872633,45.4203459],[-73.5872263,45.4202071],[-73.5873792,45.4200916],[-73.5879673,45.4201743],[-73.5887962,45.4200875],[-73.5891926,45.4202174],[-73.5895607,45.4202379]]],[[[-73.5872594,45.421441],[-73.5867657,45.4212509],[-73.5865641,45.4212571],[-73.586491,45.4213439],[-73.586902,45.4215961],[-73.5868309,45.421685],[-73.5864599,45.421482],[-73.5862174,45.4210356],[-73.5857138,45.4205359],[-73.5857509,45.4204676],[-73.5861492,45.4207184],[-73.5866342,45.4206624],[-73.5872877,45.4209064],[-73.5882207,45.4210493],[-73.588507,45.421171],[-73.588508,45.4212619],[-73.5881914,45.421242],[-73.5880307,45.421361],[-73.5881009,45.4214328],[-73.5888459,45.421523],[-73.5889374,45.4216618],[-73.5884232,45.4217622],[-73.5880902,45.4216474],[-73.5878593,45.4214594],[-73.5872594,45.421441]]],[[[-73.5876312,45.421961],[-73.5872068,45.4217236],[-73.58771843654213,45.4219220983458],[-73.5876312,45.421961]]],[[[-73.587383,45.4223384],[-73.5872759,45.4222846],[-73.5873832,45.4222518],[-73.587383,45.4223384]]],[[[-73.5878705,45.422683],[-73.5880717,45.4227575],[-73.587909,45.4229036],[-73.5877406,45.4227726],[-73.5878705,45.422683]]],[[[-73.5761539,45.4254143],[-73.575767,45.425599],[-73.573858,45.4260723],[-73.5729783,45.4261644],[-73.5712257,45.4258623],[-73.5711485,45.4257614],[-73.5713565,45.4257261],[-73.5713399,45.42564],[-73.570903,45.4257814],[-73.5704823,45.4257257],[-73.570536,45.4254441],[-73.5704145,45.4251675],[-73.570461,45.4250362],[-73.5706915,45.4248511],[-73.5705641,45.4247223],[-73.5705715,45.4246221],[-73.5707937,45.4241544],[-73.5712028,45.423844],[-73.5711834,45.4237516],[-73.5714332,45.4236971],[-73.5724655,45.4230782],[-73.5732783,45.4222764],[-73.5736893,45.4220933],[-73.5736928,45.4219686],[-73.5739746,45.4219974],[-73.5757469,45.4216124],[-73.5765351,45.4213115],[-73.5769896,45.421322],[-73.5785264,45.4210988],[-73.5793489,45.4208539],[-73.5804146,45.4208681],[-73.5811967,45.4207316],[-73.5818923,45.4208348],[-73.5825253,45.4207346],[-73.5826326,45.420592],[-73.5827595,45.4206482],[-73.5833943,45.4206256],[-73.5837269,45.4204717],[-73.5842323,45.4204742],[-73.5846473,45.4206047],[-73.5862613,45.4219976],[-73.5864211,45.4225664],[-73.5864427,45.4231666],[-73.5862995,45.4234451],[-73.5851654,45.4241066],[-73.5851723,45.4242177],[-73.5841709,45.4245288],[-73.5829151,45.4243362],[-73.5829967,45.4242056],[-73.5798829,45.4244728],[-73.5781699,45.4248294],[-73.5773375,45.4251631],[-73.5761539,45.4254143]]],[[[-73.5781416,45.4254757],[-73.5782798,45.425367],[-73.5790852,45.4252809],[-73.5807083,45.4249254],[-73.5803396,45.4247483],[-73.58040391221203,45.42468628921902],[-73.5815221,45.4247185],[-73.5827605,45.424937],[-73.5841745,45.4250696],[-73.5796318,45.4266443],[-73.5771353,45.4272994],[-73.5764538,45.4273903],[-73.5750114,45.4273121],[-73.5731603,45.4269351],[-73.5714178,45.4263765],[-73.571507,45.4263017],[-73.5729109,45.4264248],[-73.5737553,45.426369],[-73.5781416,45.4254757]]],[[[-73.5887781,45.4319067],[-73.5884509,45.4320516],[-73.5880204,45.4322069],[-73.5887781,45.4319067]]],[[[-73.5880204,45.4322069],[-73.5876931,45.4324591],[-73.5870641,45.4328939],[-73.5880204,45.4322069]]],[[[-73.5818599,45.4328176],[-73.5818938,45.4327071],[-73.582810345195,45.432345612166564],[-73.5825523,45.4327832],[-73.5822002,45.4328865],[-73.5818599,45.4328176]]],[[[-73.5861509,45.4333005],[-73.58593438821568,45.43343766726443],[-73.5862595,45.4331951],[-73.5861509,45.4333005]]],[[[-73.58474321378286,45.43432640749954],[-73.5857906097405,45.43354494098716],[-73.585605,45.4337334],[-73.58474321378286,45.43432640749954]]]]}}]}
